{"type": "FeatureCollection", "features": [{"type": "Feature", "id": 292674378, "geometry": {"type": "Point", "coordinates": [9.1525322, 45.502376]}, "properties": {"amenity": "bicycle_rental", "operator": "ATM", "wheelchair": "yes"}}, {"type": "Feature", "id": 316535130, "geometry": {"type": "Point", "coordinates": [9.1891099, 45.464741]}, "properties": {"amenity": "bicycle_rental", "capacity": "24", "name": "BikeMi - Duomo", "operator": "BikeMi", "ref": "1"}}, {"type": "Feature", "id": 316535131, "geometry": {"type": "Point", "coordinates": [9.1975911, 45.4663424]}, "properties": {"amenity": "bicycle_rental", "capacity": "24", "name": "San Babila", "operator": "BikeMi", "ref": "2", "source_ref": "http://www.bikemi.com"}}, {"type": "Feature", "id": 316535132, "geometry": {"type": "Point", "coordinates": [9.1756337, 45.4679467]}, "properties": {"amenity": "bicycle_rental", "capacity": "21", "name": "Cadorna 1", "operator": "BikeMi", "ref": "3"}}, {"type": "Feature", "id": 316535133, "geometry": {"type": "Point", "coordinates": [9.1819739, 45.4723381]}, "properties": {"amenity": "bicycle_rental", "capacity": "24", "name": "04 - Lanza", "operator": "BikeMi", "ref": "4", "source_ref": "http://www.bikemi.com"}}, {"type": "Feature", "id": 316535134, "geometry": {"type": "Point", "coordinates": [9.1764459, 45.4630673]}, "properties": {"amenity": "bicycle_rental", "capacity": "24", "operator": "BikeMi", "ref": "5", "source_ref": "http://www.bikemi.com"}}, {"type": "Feature", "id": 316535135, "geometry": {"type": "Point", "coordinates": [9.1836194, 45.4608677]}, "properties": {"amenity": "bicycle_rental", "capacity": "24", "operator": "BikeMi", "ref": "6"}}, {"type": "Feature", "id": 316535136, "geometry": {"type": "Point", "coordinates": [9.1867496, 45.4627785]}, "properties": {"amenity": "bicycle_rental", "capacity": "24", "operator": "BikeMi", "ref": "7"}}, {"type": "Feature", "id": 316535137, "geometry": {"type": "Point", "coordinates": [9.1902164, 45.4600479]}, "properties": {"amenity": "bicycle_rental", "capacity": "24", "name": "Velasca", "operator": "BikeMi", "ref": "8", "source_ref": "http://www.bikemi.com"}}, {"type": "Feature", "id": 316535138, "geometry": {"type": "Point", "coordinates": [9.1953077, 45.4623693]}, "properties": {"amenity": "bicycle_rental", "capacity": "18", "name": "Santo Stefano", "operator": "BikeMi", "ref": "9", "source_ref": "http://www.bikemi.com"}}, {"type": "Feature", "id": 316535139, "geometry": {"type": "Point", "coordinates": [9.1883214, 45.4613253]}, "properties": {"amenity": "bicycle_rental", "capacity": "21", "operator": "BikeMi", "ref": "10", "source_ref": "http://www.bikemi.com"}}, {"type": "Feature", "id": 316535140, "geometry": {"type": "Point", "coordinates": [9.1795106, 45.4724844]}, "properties": {"amenity": "bicycle_rental", "capacity": "18", "operator": "BikeMi", "ref": "11", "source_ref": "http://www.bikemi.com", "wheelchair": "yes"}}, {"type": "Feature", "id": 316535141, "geometry": {"type": "Point", "coordinates": [9.1814563, 45.4585992]}, "properties": {"amenity": "bicycle_rental", "capacity": "24", "operator": "BikeMi", "ref": "12", "source_ref": "http://www.bikemi.com"}}, {"type": "Feature", "id": 316535142, "geometry": {"type": "Point", "coordinates": [9.1976032, 45.470444]}, "properties": {"amenity": "bicycle_rental", "capacity": "18", "operator": "BikeMi", "ref": "13", "source_ref": "http://www.bikemi.com"}}, {"type": "Feature", "id": 316535143, "geometry": {"type": "Point", "coordinates": [9.198499, 45.4595192]}, "properties": {"amenity": "bicycle_rental", "capacity": "21", "operator": "BikeMi", "ref": "14", "source_ref": "http://www.bikemi.com"}}, {"type": "Feature", "id": 316535144, "geometry": {"type": "Point", "coordinates": [9.1728029, 45.4558105]}, "properties": {"amenity": "bicycle_rental", "capacity": "24", "operator": "BikeMi", "ref": "15"}}, {"type": "Feature", "id": 316535145, "geometry": {"type": "Point", "coordinates": [9.1809171, 45.4770524]}, "properties": {"amenity": "bicycle_rental", "capacity": "18", "name": "17 - Legnano Arena civica", "operator": "BikeMi", "ref": "17", "source_ref": "http://www.bikemi.com"}}, {"type": "Feature", "id": 316535146, "geometry": {"type": "Point", "coordinates": [9.166566, 45.4694678]}, "properties": {"amenity": "bicycle_rental", "capacity": "24", "name": "Tommaseo", "operator": "BikeMi", "ref": "18", "source_ref": "http://www.bikemi.com"}}, {"type": "Feature", "id": 316535148, "geometry": {"type": "Point", "coordinates": [9.1897416, 45.4591269]}, "properties": {"amenity": "bicycle_rental", "capacity": "21", "operator": "BikeMi", "ref": "20", "source_ref": "http://www.bikemi.com"}}, {"type": "Feature", "id": 316535149, "geometry": {"type": "Point", "coordinates": [9.1904115, 45.4485585]}, "properties": {"amenity": "bicycle_rental", "capacity": "24", "name": "Bocconi 1", "operator": "BikeMi", "ref": "21", "source": "www.bikemi.com", "source_ref": "http://www.bikemi.com"}}, {"type": "Feature", "id": 316535151, "geometry": {"type": "Point", "coordinates": [9.2052971, 45.4582267]}, "properties": {"amenity": "bicycle_rental", "capacity": "24", "operator": "BikeMi", "ref": "23", "source_ref": "http://www.bikemi.com"}}, {"type": "Feature", "id": 316535153, "geometry": {"type": "Point", "coordinates": [9.2025511, 45.4854583]}, "properties": {"amenity": "bicycle_rental", "capacity": "24", "name": "BikeMi - Centrale 1", "operator": "BikeMi", "ref": "25", "source_ref": "http://www.bikemi.com"}}, {"type": "Feature", "id": 316535154, "geometry": {"type": "Point", "coordinates": [9.204302, 45.4846069]}, "properties": {"amenity": "bicycle_rental", "capacity": "24", "name": "BikeMi - Centrale 2", "operator": "BikeMi", "ref": "26", "source_ref": "http://www.bikemi.com"}}, {"type": "Feature", "id": 316535155, "geometry": {"type": "Point", "coordinates": [9.2045327, 45.4746262]}, "properties": {"amenity": "bicycle_rental", "capacity": "24", "name": "27 - Porta Venezia", "operator": "BikeMi", "ref": "27", "source_ref": "http://www.bikemi.com"}}, {"type": "Feature", "id": 316535156, "geometry": {"type": "Point", "coordinates": [9.181381, 45.4676281]}, "properties": {"amenity": "bicycle_rental", "capacity": "24", "network": "BikeMi", "ref": "28"}}, {"type": "Feature", "id": 316535157, "geometry": {"type": "Point", "coordinates": [9.2012832, 45.4623863]}, "properties": {"amenity": "bicycle_rental", "capacity": "24", "operator": "BikeMi", "ref": "29", "source_ref": "http://www.bikemi.com"}}, {"type": "Feature", "id": 316535158, "geometry": {"type": "Point", "coordinates": [9.1957806, 45.456159]}, "properties": {"amenity": "bicycle_rental", "capacity": "21", "operator": "BikeMi", "ref": "30", "source_ref": "http://www.bikemi.com"}}, {"type": "Feature", "id": 316535160, "geometry": {"type": "Point", "coordinates": [9.1982831, 45.4768512]}, "properties": {"amenity": "bicycle_rental", "capacity": "30", "name": "BikeMi - Manin - Bastioni", "operator": "BikeMi", "ref": "32", "source_ref": "http://www.bikemi.com"}}, {"type": "Feature", "id": 316535161, "geometry": {"type": "Point", "coordinates": [9.1734995, 45.471778]}, "properties": {"amenity": "bicycle_rental", "capacity": "24", "operator": "BikeMi", "ref": "33", "source_ref": "http://www.bikemi.com"}}, {"type": "Feature", "id": 316535162, "geometry": {"type": "Point", "coordinates": [9.1823101, 45.4677507]}, "properties": {"amenity": "bicycle_rental", "capacity": "21", "network": "BikeMi", "ref": "34", "source_ref": "http://www.bikemi.com"}}, {"type": "Feature", "id": 316535163, "geometry": {"type": "Point", "coordinates": [9.1818802, 45.4604912]}, "properties": {"amenity": "bicycle_rental", "capacity": "21", "operator": "BikeMi", "ref": "35"}}, {"type": "Feature", "id": 316535164, "geometry": {"type": "Point", "coordinates": [9.1837643, 45.4592314]}, "properties": {"amenity": "bicycle_rental", "capacity": "24", "operator": "BikeMi", "ref": "36", "source_ref": "http://www.bikemi.com"}}, {"type": "Feature", "id": 316535167, "geometry": {"type": "Point", "coordinates": [9.1867205, 45.4801965]}, "properties": {"amenity": "bicycle_rental", "capacity": "24", "name": "XXV Aprile", "operator": "BikeMi", "ref": "39", "source_ref": "http://www.bikemi.com"}}, {"type": "Feature", "id": 316535168, "geometry": {"type": "Point", "coordinates": [9.1688727, 45.4638978]}, "properties": {"amenity": "bicycle_rental", "capacity": "24", "name": "Morozzo della Rocca", "operator": "BikeMi", "ref": "40", "source_ref": "http://www.bikemi.com"}}, {"type": "Feature", "id": 316535169, "geometry": {"type": "Point", "coordinates": [9.1669428, 45.4676827]}, "properties": {"amenity": "bicycle_rental", "capacity": "18", "name": "Conciliazione", "operator": "BikeMi", "ref": "41", "source_ref": "http://www.bikemi.com"}}, {"type": "Feature", "id": 316535170, "geometry": {"type": "Point", "coordinates": [9.1956507, 45.4661258]}, "properties": {"amenity": "bicycle_rental", "capacity": "24", "operator": "BikeMi", "ref": "42", "source_ref": "http://www.bikemi.com"}}, {"type": "Feature", "id": 316535171, "geometry": {"type": "Point", "coordinates": [9.1948617, 45.4613642]}, "properties": {"amenity": "bicycle_rental", "capacity": "24", "operator": "BikeMi", "ref": "43", "source_ref": "http://www.bikemi.com"}}, {"type": "Feature", "id": 316535172, "geometry": {"type": "Point", "coordinates": [9.1929334, 45.4593687]}, "properties": {"amenity": "bicycle_rental", "capacity": "24", "operator": "BikeMi", "ref": "44", "source_ref": "http://www.bikemi.com"}}, {"type": "Feature", "id": 316535173, "geometry": {"type": "Point", "coordinates": [9.1867, 45.4642167]}, "properties": {"amenity": "bicycle_rental", "capacity": "21", "operator": "BikeMi", "ref": "45", "source_ref": "http://www.bikemi.com"}}, {"type": "Feature", "id": 316535174, "geometry": {"type": "Point", "coordinates": [9.1928141, 45.4799468]}, "properties": {"amenity": "bicycle_rental", "capacity": "24", "operator": "BikeMi", "ref": "46", "source_ref": "http://www.bikemi.com"}}, {"type": "Feature", "id": 316535175, "geometry": {"type": "Point", "coordinates": [9.1774633, 45.4523315]}, "properties": {"amenity": "bicycle_rental", "capacity": "24", "note": "attenzione: esistono DUE stalli a breve distanza. Non \u00e8 un errore. Non cancellare", "operator": "BikeMi", "ref": "47", "website": "https://www.bikemi.com/"}}, {"type": "Feature", "id": 316535177, "geometry": {"type": "Point", "coordinates": [9.1929951, 45.4664684]}, "properties": {"amenity": "bicycle_rental", "capacity": "24", "operator": "BikeMi", "ref": "49", "source_ref": "http://www.bikemi.com"}}, {"type": "Feature", "id": 316535178, "geometry": {"type": "Point", "coordinates": [9.1946286, 45.4644048]}, "properties": {"amenity": "bicycle_rental", "capacity": "24", "operator": "BikeMi", "ref": "50", "source_ref": "http://www.bikemi.com"}}, {"type": "Feature", "id": 316535179, "geometry": {"type": "Point", "coordinates": [9.1696197, 45.4667149]}, "properties": {"amenity": "bicycle_rental", "capacity": "24", "operator": "BikeMi", "ref": "51", "source_ref": "http://www.bikemi.com"}}, {"type": "Feature", "id": 316535180, "geometry": {"type": "Point", "coordinates": [9.1991481, 45.4804283]}, "properties": {"amenity": "bicycle_rental", "capacity": "24", "name": "52 - Vittor Pisani", "operator": "BikeMi", "ref": "52", "source_ref": "http://www.bikemi.com"}}, {"type": "Feature", "id": 316535181, "geometry": {"type": "Point", "coordinates": [9.2015675, 45.4724143]}, "properties": {"amenity": "bicycle_rental", "capacity": "24", "name": "Palestro 2", "operator": "BikeMi", "ref": "59", "source_ref": "http://www.bikemi.com"}}, {"type": "Feature", "id": 316535182, "geometry": {"type": "Point", "coordinates": [9.1806999, 45.4551995]}, "properties": {"amenity": "bicycle_rental", "capacity": "24", "operator": "BikeMi", "ref": "54", "source_ref": "http://www.bikemi.com"}}, {"type": "Feature", "id": 316535183, "geometry": {"type": "Point", "coordinates": [9.2068648, 45.4626591]}, "properties": {"amenity": "bicycle_rental", "capacity": "24", "operator": "BikeMi", "ref": "55", "source_ref": "http://www.bikemi.com"}}, {"type": "Feature", "id": 316535184, "geometry": {"type": "Point", "coordinates": [9.2005509, 45.4759428]}, "properties": {"amenity": "bicycle_rental", "capacity": "24", "name": "56 - Bastioni di Porta Venezia", "operator": "BikeMi", "ref": "56", "source_ref": "http://www.bikemi.com"}}, {"type": "Feature", "id": 316535186, "geometry": {"type": "Point", "coordinates": [9.1695553, 45.4588927]}, "properties": {"amenity": "bicycle_rental", "capacity": "24", "name": "Sant'Agostino", "operator": "BikeMi", "ref": "58", "source_ref": "http://www.bikemi.com"}}, {"type": "Feature", "id": 316535187, "geometry": {"type": "Point", "coordinates": [9.2017968, 45.4723043]}, "properties": {"amenity": "bicycle_rental", "capacity": "24", "name": "Palestro 1", "operator": "BikeMi", "ref": "53", "source_ref": "http://www.bikemi.com"}}, {"type": "Feature", "id": 316535188, "geometry": {"type": "Point", "coordinates": [9.183645, 45.4643503]}, "properties": {"amenity": "bicycle_rental", "capacity": "24", "operator": "BikeMi", "ref": "60", "source_ref": "http://www.bikemi.com"}}, {"type": "Feature", "id": 316535190, "geometry": {"type": "Point", "coordinates": [9.1867322, 45.4750748]}, "properties": {"amenity": "bicycle_rental", "capacity": "24", "name": "Treves", "operator": "BikeMi", "ref": "62", "source_ref": "http://www.bikemi.com"}}, {"type": "Feature", "id": 316535191, "geometry": {"type": "Point", "coordinates": [9.1742161, 45.4619144]}, "properties": {"amenity": "bicycle_rental", "capacity": "24", "operator": "BikeMi", "ref": "63", "source_ref": "http://www.bikemi.com"}}, {"type": "Feature", "id": 316535192, "geometry": {"type": "Point", "coordinates": [9.1898867, 45.4630945]}, "properties": {"amenity": "bicycle_rental", "capacity": "33", "operator": "BikeMi", "ref": "64", "source_ref": "http://www.bikemi.com"}}, {"type": "Feature", "id": 316535193, "geometry": {"type": "Point", "coordinates": [9.1875342, 45.4585296]}, "properties": {"amenity": "bicycle_rental", "capacity": "24", "operator": "BikeMi", "ref": "65", "source_ref": "http://www.bikemi.com"}}, {"type": "Feature", "id": 316535194, "geometry": {"type": "Point", "coordinates": [9.1963532, 45.4729993]}, "properties": {"amenity": "bicycle_rental", "capacity": "27", "operator": "BikeMi", "ref": "66"}}, {"type": "Feature", "id": 316535195, "geometry": {"type": "Point", "coordinates": [9.196569, 45.4789563]}, "properties": {"amenity": "bicycle_rental", "capacity": "24", "name": "67 - Repubblica", "operator": "BikeMi", "ref": "67"}}, {"type": "Feature", "id": 316535196, "geometry": {"type": "Point", "coordinates": [9.2054419, 45.4606019]}, "properties": {"amenity": "bicycle_rental", "capacity": "24", "operator": "BikeMi", "ref": "68", "source_ref": "http://www.bikemi.com"}}, {"type": "Feature", "id": 316535197, "geometry": {"type": "Point", "coordinates": [9.1899964, 45.473129]}, "properties": {"amenity": "bicycle_rental", "capacity": "33", "operator": "BikeMi", "ref": "70", "source_ref": "http://www.bikemi.com"}}, {"type": "Feature", "id": 316535198, "geometry": {"type": "Point", "coordinates": [9.1926977, 45.4566148]}, "properties": {"amenity": "bicycle_rental", "capacity": "21", "name": "Cardinal Ferrari", "operator": "BikeMi", "ref": "72", "source_ref": "http://www.bikemi.com"}}, {"type": "Feature", "id": 442046928, "geometry": {"type": "Point", "coordinates": [9.1924351, 45.4711606]}, "properties": {"amenity": "bicycle_rental", "capacity": "24", "name": "Manzoni", "operator": "BikeMi", "ref": "80", "source_ref": "http://www.bikemi.com"}}, {"type": "Feature", "id": 478857805, "geometry": {"type": "Point", "coordinates": [9.1908277, 45.4484196]}, "properties": {"amenity": "bicycle_rental", "capacity": "30", "name": "Bocconi 2", "operator": "BikeMi", "ref": "81", "source": "www.bikemi.com"}}, {"type": "Feature", "id": 506106822, "geometry": {"type": "Point", "coordinates": [9.1941967, 45.4511099]}, "properties": {"amenity": "bicycle_rental", "capacity": "24", "name": "Vittadini Bligny", "operator": "BikeMi", "ref": "89"}}, {"type": "Feature", "id": 506107306, "geometry": {"type": "Point", "coordinates": [9.1869676, 45.452914]}, "properties": {"amenity": "bicycle_rental", "capacity": "24", "name": "Corso Italia", "operator": "BikeMi", "ref": "37"}}, {"type": "Feature", "id": 611065015, "geometry": {"type": "Point", "coordinates": [9.193062, 45.463784]}, "properties": {"amenity": "bicycle_rental", "capacity": "30", "name": "Arcivescovado", "operator": "BikeMi", "ref": "102", "website": "https://www.bikemi.com/"}}, {"type": "Feature", "id": 726880692, "geometry": {"type": "Point", "coordinates": [9.1762297, 45.4690383]}, "properties": {"amenity": "bicycle_rental", "capacity": "30", "name": "Cadorna 2", "operator": "BikeMi", "ref": "84"}}, {"type": "Feature", "id": 1003844789, "geometry": {"type": "Point", "coordinates": [9.1819515, 45.461766]}, "properties": {"amenity": "bicycle_rental", "capacity": "24", "name": "Mentana", "operator": "BikeMi", "ref": "76"}}, {"type": "Feature", "id": 1272557596, "geometry": {"type": "Point", "coordinates": [9.2098749, 45.4477483]}, "properties": {"amenity": "bicycle_rental", "capacity": "33", "operator": "BikeMi", "ref": "105"}}, {"type": "Feature", "id": 1274238543, "geometry": {"type": "Point", "coordinates": [9.172271, 45.4810058]}, "properties": {"amenity": "bicycle_rental", "capacity": "24", "operator": "BikeMi", "ref": "187", "source": "survey", "website": "http://www.bikemi.it"}}, {"type": "Feature", "id": 1274238546, "geometry": {"type": "Point", "coordinates": [9.1735016, 45.4762185]}, "properties": {"amenity": "bicycle_rental", "capacity": "24", "name": "BikeMi - Arco della Pace 1", "operator": "BikeMi", "ref": "99", "source": "survey", "website": "http://www.bikemi.it"}}, {"type": "Feature", "id": 1274238550, "geometry": {"type": "Point", "coordinates": [9.1716669, 45.4750035]}, "properties": {"amenity": "bicycle_rental", "capacity": "24", "name": "BikeMi - Arco della Pace 2", "operator": "BikeMi", "ref": "103", "source": "survey", "website": "http://www.bikemi.it"}}, {"type": "Feature", "id": 1274238553, "geometry": {"type": "Point", "coordinates": [9.1697854, 45.4777906]}, "properties": {"amenity": "bicycle_rental", "capacity": "27", "operator": "BikeMi", "ref": "181", "source": "survey", "website": "http://www.bikemi.it"}}, {"type": "Feature", "id": 1276981428, "geometry": {"type": "Point", "coordinates": [9.1958492, 45.4840439]}, "properties": {"amenity": "bicycle_rental", "capacity": "24", "name": "Gioia - Pirelli", "operator": "BikeMi", "ref": "91", "source_ref": "www.bikemi.it"}}, {"type": "Feature", "id": 1281290152, "geometry": {"type": "Point", "coordinates": [9.1783142, 45.481617]}, "properties": {"amenity": "bicycle_rental", "capacity": "24", "name": "188 - Sarpi Niccolini", "operator": "BikeMi", "ref": "188", "source": "survey", "website": "http://www.bikemi.it"}}, {"type": "Feature", "id": 1300460885, "geometry": {"type": "Point", "coordinates": [9.1604802, 45.4681941]}, "properties": {"amenity": "bicycle_rental", "capacity": "36", "operator": "BikeMi", "ref": "175", "source": "survey"}}, {"type": "Feature", "id": 1322862738, "geometry": {"type": "Point", "coordinates": [9.1650658, 45.4664718]}, "properties": {"amenity": "bicycle_rental", "capacity": "24", "name": "Baracca", "operator": "BikeMi", "ref": "79"}}, {"type": "Feature", "id": 1699886621, "geometry": {"type": "Point", "coordinates": [9.1758064, 45.4657163]}, "properties": {"amenity": "bicycle_rental", "capacity": "21", "operator": "BikeMi", "ref": "85"}}, {"type": "Feature", "id": 1704066497, "geometry": {"type": "Point", "coordinates": [9.1826856, 45.4445375]}, "properties": {"amenity": "bicycle_rental", "capacity": "36", "operator": "BikeMi", "ref": "51"}}, {"type": "Feature", "id": 1726657294, "geometry": {"type": "Point", "coordinates": [9.1875914, 45.4716239]}, "properties": {"amenity": "bicycle_rental", "capacity": "24", "operator": "BikeMi", "ref": "57", "source_ref": "http://www.bikemi.com"}}, {"type": "Feature", "id": 1748324486, "geometry": {"type": "Point", "coordinates": [9.2067123, 45.4499017]}, "properties": {"amenity": "bicycle_rental"}}, {"type": "Feature", "id": 1748324499, "geometry": {"type": "Point", "coordinates": [9.2033435, 45.4516242]}, "properties": {"amenity": "bicycle_rental", "capacity": "18", "operator": "BikeMi", "ref": "71"}}, {"type": "Feature", "id": 1836668334, "geometry": {"type": "Point", "coordinates": [9.1883418, 45.4855442]}, "properties": {"amenity": "bicycle_rental", "network": "BikeMi", "source_ref": "http://www.bikemi.com"}}, {"type": "Feature", "id": 1894711761, "geometry": {"type": "Point", "coordinates": [9.185116, 45.4687483]}, "properties": {"amenity": "bicycle_rental", "capacity": "24", "operator": "BikeMi", "ref": "75", "source_ref": "http://www.bikemi.com"}}, {"type": "Feature", "id": 1911379580, "geometry": {"type": "Point", "coordinates": [9.1667709, 45.4794602]}, "properties": {"amenity": "bicycle_rental", "operator": "BikeMi", "source": "survey", "website": "http://www.bikemi.it"}}, {"type": "Feature", "id": 1938081116, "geometry": {"type": "Point", "coordinates": [9.1763368, 45.4781051]}, "properties": {"amenity": "bicycle_rental", "name": "Santissima Trinit\u00e0", "operator": "BikeMi", "ref": "185", "source": "survey", "website": "http://www.bikemi.it"}}, {"type": "Feature", "id": 1973121538, "geometry": {"type": "Point", "coordinates": [9.2066382, 45.4497749]}, "properties": {"amenity": "bicycle_rental", "capacity": "21", "operator": "BikeMi", "ref": "143"}}, {"type": "Feature", "id": 1973121541, "geometry": {"type": "Point", "coordinates": [9.1905434, 45.4510667]}, "properties": {"amenity": "bicycle_rental", "capacity": "33", "operator": "BikeMi", "ref": "148"}}, {"type": "Feature", "id": 1973121544, "geometry": {"type": "Point", "coordinates": [9.2041135, 45.4512349]}, "properties": {"amenity": "bicycle_rental", "capacity": "21", "operator": "BikeMi", "ref": "22"}}, {"type": "Feature", "id": 1973121546, "geometry": {"type": "Point", "coordinates": [9.1845328, 45.4518597]}, "properties": {"amenity": "bicycle_rental", "capacity": "36", "operator": "BikeMi", "ref": "192"}}, {"type": "Feature", "id": 1973121551, "geometry": {"type": "Point", "coordinates": [9.1974644, 45.4522215]}, "properties": {"amenity": "bicycle_rental", "capacity": "24", "operator": "BikeMi", "ref": "88"}}, {"type": "Feature", "id": 1973121561, "geometry": {"type": "Point", "coordinates": [9.1773149, 45.4523444]}, "properties": {"amenity": "bicycle_rental", "capacity": "21", "note": "attenzione: esistono DUE stalli a breve distanza. Non \u00e8 un errore. Non cancellare", "operator": "BikeMi", "ref": "48", "website": "https://www.bikemi.com/"}}, {"type": "Feature", "id": 1973121562, "geometry": {"type": "Point", "coordinates": [9.1696715, 45.4529589]}, "properties": {"amenity": "bicycle_rental", "capacity": "27", "operator": "BikeMi", "ref": "87"}}, {"type": "Feature", "id": 1973121566, "geometry": {"type": "Point", "coordinates": [9.2029327, 45.455143]}, "properties": {"amenity": "bicycle_rental", "capacity": "24", "operator": "BikeMi", "ref": "141"}}, {"type": "Feature", "id": 1973121574, "geometry": {"type": "Point", "coordinates": [9.2006126, 45.4581035]}, "properties": {"amenity": "bicycle_rental", "capacity": "24", "name": "Dell'Umanitaria", "operator": "BikeMi", "ref": "82"}}, {"type": "Feature", "id": 1973121577, "geometry": {"type": "Point", "coordinates": [9.1926554, 45.4582905]}, "properties": {"amenity": "bicycle_rental", "capacity": "12", "name": "San Nazaro in Brolo", "operator": "BikeMi", "ref": "69"}}, {"type": "Feature", "id": 1973121590, "geometry": {"type": "Point", "coordinates": [9.2076571, 45.4601302]}, "properties": {"amenity": "bicycle_rental", "capacity": "27", "operator": "BikeMi", "ref": "136"}}, {"type": "Feature", "id": 1973121596, "geometry": {"type": "Point", "coordinates": [9.1634466, 45.4608486]}, "properties": {"amenity": "bicycle_rental", "capacity": "24", "operator": "BikeMi", "ref": "78"}}, {"type": "Feature", "id": 1973121598, "geometry": {"type": "Point", "coordinates": [9.191476, 45.4620583]}, "properties": {"amenity": "bicycle_rental", "capacity": "24", "operator": "BikeMi", "ref": "83"}}, {"type": "Feature", "id": 1973121601, "geometry": {"type": "Point", "coordinates": [9.2124871, 45.4621603]}, "properties": {"amenity": "bicycle_rental", "capacity": "130", "operator": "BikeMi", "ref": "130"}}, {"type": "Feature", "id": 1973121603, "geometry": {"type": "Point", "coordinates": [9.163594, 45.4634771]}, "properties": {"amenity": "bicycle_rental", "capacity": "33", "operator": "BikeMi", "ref": "170"}}, {"type": "Feature", "id": 1973121605, "geometry": {"type": "Point", "coordinates": [9.2030901, 45.465394]}, "properties": {"amenity": "bicycle_rental", "capacity": "24", "name": "Mascagni", "operator": "BikeMi", "ref": "86"}}, {"type": "Feature", "id": 1973121608, "geometry": {"type": "Point", "coordinates": [9.1855415, 45.4654981]}, "properties": {"amenity": "bicycle_rental", "capacity": "30", "operator": "BikeMi", "ref": "92"}}, {"type": "Feature", "id": 1973121610, "geometry": {"type": "Point", "coordinates": [9.19963, 45.465857]}, "properties": {"amenity": "bicycle_rental", "capacity": "30", "name": "Borgogna", "operator": "BikeMi", "ref": "93"}}, {"type": "Feature", "id": 1973121613, "geometry": {"type": "Point", "coordinates": [9.1840711, 45.4670656]}, "properties": {"amenity": "bicycle_rental", "capacity": "9", "name": "Dante San Tomaso", "operator": "BikeMi", "ref": "74"}}, {"type": "Feature", "id": 1973121616, "geometry": {"type": "Point", "coordinates": [9.2044618, 45.4673693]}, "properties": {"amenity": "bicycle_rental", "capacity": "24", "name": "Donizetti \"Provincia\"", "operator": "BikeMi", "ref": "96"}}, {"type": "Feature", "id": 1973121618, "geometry": {"type": "Point", "coordinates": [9.1756193, 45.4700677]}, "properties": {"amenity": "bicycle_rental", "capacity": "36", "name": "Gadio", "note:it": "6 posizioni riservate a bici per bambini", "operator": "BikeMi", "ref": "101"}}, {"type": "Feature", "id": 1973121625, "geometry": {"type": "Point", "coordinates": [9.204995, 45.4714918]}, "properties": {"amenity": "bicycle_rental", "capacity": "24", "name": "Majno", "operator": "BikeMi", "ref": "73"}}, {"type": "Feature", "id": 1973121626, "geometry": {"type": "Point", "coordinates": [9.1677406, 45.4722573]}, "properties": {"amenity": "bicycle_rental", "capacity": "30", "name": "BikeMi - V Alpini", "operator": "BikeMi", "ref": "178"}}, {"type": "Feature", "id": 1973121628, "geometry": {"type": "Point", "coordinates": [9.1682949, 45.4754105]}, "properties": {"amenity": "bicycle_rental", "capacity": "30", "operator": "BikeMi", "ref": "180"}}, {"type": "Feature", "id": 1973121629, "geometry": {"type": "Point", "coordinates": [9.1917869, 45.476712]}, "properties": {"amenity": "bicycle_rental", "capacity": "24", "name": "77 - Sant'Angelo - Porta Nuova", "operator": "BikeMi", "ref": "77"}}, {"type": "Feature", "id": 1973121630, "geometry": {"type": "Point", "coordinates": [9.1845366, 45.4775461]}, "properties": {"amenity": "bicycle_rental", "capacity": "24", "operator": "BikeMi", "ref": "16"}}, {"type": "Feature", "id": 1973121633, "geometry": {"type": "Point", "coordinates": [9.172932, 45.4783104]}, "properties": {"amenity": "bicycle_rental", "capacity": "36", "name": "Melzi D'Eril Cagnola", "operator": "BikeMi", "ref": "182"}}, {"type": "Feature", "id": 1973121638, "geometry": {"type": "Point", "coordinates": [9.201525, 45.4789813]}, "properties": {"amenity": "bicycle_rental", "capacity": "27", "name": "108 - Tunisia - Cozzi", "operator": "BikeMi", "ref": "108"}}, {"type": "Feature", "id": 1973121641, "geometry": {"type": "Point", "coordinates": [9.1823077, 45.4801834]}, "properties": {"amenity": "bicycle_rental", "capacity": "33", "name": "Porta Volta", "operator": "BikeMi", "ref": "184"}}, {"type": "Feature", "id": 1973121643, "geometry": {"type": "Point", "coordinates": [9.2032546, 45.4824189]}, "properties": {"amenity": "bicycle_rental", "capacity": "36", "operator": "BikeMi", "ref": "112"}}, {"type": "Feature", "id": 1973121646, "geometry": {"type": "Point", "coordinates": [9.200452, 45.4843959]}, "properties": {"amenity": "bicycle_rental", "capacity": "30", "operator": "BikeMi", "ref": "120"}}, {"type": "Feature", "id": 1973121652, "geometry": {"type": "Point", "coordinates": [9.1947328, 45.4846499]}, "properties": {"amenity": "bicycle_rental", "capacity": "24", "operator": "BikeMi", "ref": "90"}}, {"type": "Feature", "id": 1973121653, "geometry": {"type": "Point", "coordinates": [9.2060545, 45.4849253]}, "properties": {"amenity": "bicycle_rental", "capacity": "36", "name": "BikeMi - P.zza Luigi di Savoia", "operator": "BikeMi", "ref": "200"}}, {"type": "Feature", "id": 1973121654, "geometry": {"type": "Point", "coordinates": [9.1968895, 45.486218]}, "properties": {"amenity": "bicycle_rental", "capacity": "36", "operator": "BikeMi", "ref": "104"}}, {"type": "Feature", "id": 1973121658, "geometry": {"type": "Point", "coordinates": [9.1991839, 45.4925677]}, "properties": {"amenity": "bicycle_rental", "operator": "BikeMi", "ref": "168"}}, {"type": "Feature", "id": 1992077978, "geometry": {"type": "Point", "coordinates": [9.1908414, 45.4890834]}, "properties": {"amenity": "bicycle_rental", "network": "BikeMi"}}, {"type": "Feature", "id": 2093480206, "geometry": {"type": "Point", "coordinates": [9.1850287, 45.4866961]}, "properties": {"amenity": "bicycle_rental", "operator": "BikeMi", "ref": "193"}}, {"type": "Feature", "id": 2112862535, "geometry": {"type": "Point", "coordinates": [9.1511918, 45.4500075]}, "properties": {"access": "customers", "amenity": "bicycle_rental", "bicycle_parking": "lockers", "capacity": "25", "fixme": "Posizione corretta BikeMi", "operator": "BikeMi"}}, {"type": "Feature", "id": 2129727461, "geometry": {"type": "Point", "coordinates": [9.1642326, 45.4748871]}, "properties": {"amenity": "bicycle_rental", "capacity": "34", "operator": "BikeMi", "ref": "179", "source": "survey", "website": "http://www.bikemi.it"}}, {"type": "Feature", "id": 2149471909, "geometry": {"type": "Point", "coordinates": [9.1861165, 45.4483345]}, "properties": {"amenity": "bicycle_rental", "operator": "BikeMi", "source": "survey", "source_ref": "http://www.bikemi.com"}}, {"type": "Feature", "id": 2185719198, "geometry": {"type": "Point", "coordinates": [9.2119156, 45.4778312]}, "properties": {"amenity": "bicycle_rental", "capacity": "24", "name": "Morgagni - Redi", "network": "bikemi", "ref": "116", "source": "survey"}}, {"type": "Feature", "id": 2222467283, "geometry": {"type": "Point", "coordinates": [9.1979372, 45.4866645]}, "properties": {"amenity": "bicycle_rental", "capacity": "27", "name": "Galvani M. Gioia", "operator": "bikeMi", "ref": "121"}}, {"type": "Feature", "id": 2325726419, "geometry": {"type": "Point", "coordinates": [9.1918902, 45.4915607]}, "properties": {"amenity": "bicycle_rental", "capacity": "36", "name": "Zara M3", "network": "BikeMi", "ref": "160"}}, {"type": "Feature", "id": 2482599778, "geometry": {"type": "Point", "coordinates": [9.1674082, 45.4498274]}, "properties": {"amenity": "bicycle_rental", "capacity": "32", "name": "Bikemi 158 Naviglio G.Valenza", "network": "Bicycle rental"}}, {"type": "Feature", "id": 2482607744, "geometry": {"type": "Point", "coordinates": [9.1726828, 45.4456161]}, "properties": {"amenity": "bicycle_rental", "capacity": "26", "name": "Bikemi 153 - Via Segantini via Darwin", "network": "Bikemi"}}, {"type": "Feature", "id": 2515145577, "geometry": {"type": "Point", "coordinates": [9.2147675, 45.4838459]}, "properties": {"amenity": "bicycle_rental", "name": "114 - Buenos Aires - Argentina"}}, {"type": "Feature", "id": 2533853431, "geometry": {"type": "Point", "coordinates": [9.2047256, 45.4773991]}, "properties": {"amenity": "bicycle_rental", "name": "Tunisia Lecco Bellintani", "operator": "BikeMi", "ref": "109"}}, {"type": "Feature", "id": 2547632949, "geometry": {"type": "Point", "coordinates": [9.2149262, 45.4814325]}, "properties": {"amenity": "bicycle_rental", "name": "117 - Bacone - Monteverdi"}}, {"type": "Feature", "id": 2569991782, "geometry": {"type": "Point", "coordinates": [9.2091786, 45.485284]}, "properties": {"amenity": "bicycle_rental", "name": "Caiazzo", "operator": "BikeMi", "ref": "115"}}, {"type": "Feature", "id": 2604178464, "geometry": {"type": "Point", "coordinates": [9.2111645, 45.4750532]}, "properties": {"amenity": "bicycle_rental", "capacity": "38", "name": "bikemi 118"}}, {"type": "Feature", "id": 2604181869, "geometry": {"type": "Point", "coordinates": [9.2108739, 45.4681408]}, "properties": {"amenity": "bicycle_rental"}}, {"type": "Feature", "id": 2606044608, "geometry": {"type": "Point", "coordinates": [9.1970916, 45.4809051]}, "properties": {"amenity": "bicycle_rental"}}, {"type": "Feature", "id": 2606044693, "geometry": {"type": "Point", "coordinates": [9.1977344, 45.4812464]}, "properties": {"amenity": "bicycle_rental", "name": "107 - San Gioachimo", "ref": "107"}}, {"type": "Feature", "id": 2609805216, "geometry": {"type": "Point", "coordinates": [9.1727529, 45.4496586]}, "properties": {"amenity": "bicycle_rental", "capacity": "36", "name": "156 Arcole - Argelati", "operator": "Bikemi Comune Milano"}}, {"type": "Feature", "id": 2612142431, "geometry": {"type": "Point", "coordinates": [9.2075014, 45.4801976]}, "properties": {"amenity": "bicycle_rental", "name": "111 - B.Marcello - Boscovich", "operator": "BikeMi", "ref": "111"}}, {"type": "Feature", "id": 2794659306, "geometry": {"type": "Point", "coordinates": [9.2243323, 45.4764753]}, "properties": {"addr:city": "Milano", "addr:housenumber": "54", "addr:postcode": "20133", "addr:street": "Via Giovanni Pascoli", "amenity": "bicycle_rental", "capacity": "34", "name": "Romagna - Pascoli", "network": "BikeMi", "ref": "216"}}, {"type": "Feature", "id": 2808243170, "geometry": {"type": "Point", "coordinates": [9.2261817, 45.4786583]}, "properties": {"addr:city": "Milano", "addr:postcode": "20133", "addr:street": "Piazza Leonardo da Vinci", "amenity": "bicycle_rental", "capacity": "35", "name": "Politecnico", "network": "BikeMi", "ref": "215"}}, {"type": "Feature", "id": 2914344012, "geometry": {"type": "Point", "coordinates": [9.2193718, 45.4840766]}, "properties": {"amenity": "bicycle_rental"}}, {"type": "Feature", "id": 2944545694, "geometry": {"type": "Point", "coordinates": [9.2203052, 45.4708194]}, "properties": {"amenity": "bicycle_rental"}}, {"type": "Feature", "id": 3019045522, "geometry": {"type": "Point", "coordinates": [9.2193436, 45.4426806]}, "properties": {"amenity": "bicycle_rental", "capacity": "36", "operator": "BikeMi", "ref": "31", "source": "survey; ref and capacity from website", "source_ref": "http://www.bikemi.com"}}, {"type": "Feature", "id": 3147983559, "geometry": {"type": "Point", "coordinates": [9.1763735, 45.4442125]}, "properties": {"amenity": "bicycle_rental", "capacity": "36", "name": "Naviglio Pavese - Torricelli", "operator": "BikeMi", "ref": "155"}}, {"type": "Feature", "id": 3439388536, "geometry": {"type": "Point", "coordinates": [9.1795038, 45.4522378]}, "properties": {"amenity": "bicycle_rental"}}, {"type": "Feature", "id": 3455795415, "geometry": {"type": "Point", "coordinates": [9.224043, 45.4688132]}, "properties": {"addr:city": "Milano", "addr:postcode": "20133", "addr:street": "Piazzale Susa", "amenity": "bicycle_rental", "capacity": "33", "name": "Susa - Sidoli", "network": "BikeMi", "ref": "214"}}, {"type": "Feature", "id": 3517151671, "geometry": {"type": "Point", "coordinates": [9.2237305, 45.4840333]}, "properties": {"addr:city": "Milano", "addr:housenumber": "32", "addr:postcode": "20131", "addr:street": "Viale Lombardia", "amenity": "bicycle_rental", "capacity": "28", "name": "Lombardia - Vallazze", "operator": "BikeMi", "ref": "145"}}, {"type": "Feature", "id": 3546749920, "geometry": {"type": "Point", "coordinates": [9.1609374, 45.5027658]}, "properties": {"amenity": "bicycle_rental", "wheelchair": "yes"}}, {"type": "Feature", "id": 3605729565, "geometry": {"type": "Point", "coordinates": [9.1822098, 45.4839436]}, "properties": {"amenity": "bicycle_rental", "operator": "BikeMi", "ref": "191"}}, {"type": "Feature", "id": 3611302819, "geometry": {"type": "Point", "coordinates": [9.1547979, 45.4545889]}, "properties": {"amenity": "bicycle_rental", "capacity": "35", "name": "BikeMi - Napoli", "operator": "BikeMi", "ref": "172", "website": "https://www.bikemi.com"}}, {"type": "Feature", "id": 3693529468, "geometry": {"type": "Point", "coordinates": [9.2160594, 45.462406]}, "properties": {"amenity": "bicycle_rental", "name": "Emilia", "operator": "BikeMI", "ref": "131"}}, {"type": "Feature", "id": 3699125090, "geometry": {"type": "Point", "coordinates": [9.2080626, 45.4552569]}, "properties": {"amenity": "bicycle_rental", "name": "139"}}, {"type": "Feature", "id": 3699746576, "geometry": {"type": "Point", "coordinates": [9.2106077, 45.4746488]}, "properties": {"amenity": "bicycle_rental"}}, {"type": "Feature", "id": 3717599463, "geometry": {"type": "Point", "coordinates": [9.2085099, 45.4763917]}, "properties": {"amenity": "bicycle_rental", "capacity": "33", "name": "Santa Francesca Romana", "operator": "BikeMi", "ref": "110"}}, {"type": "Feature", "id": 3726692885, "geometry": {"type": "Point", "coordinates": [9.1799001, 45.5053715]}, "properties": {"amenity": "bicycle_rental", "name": "Imbonati - Dergano M3", "network": "BikeMi"}}, {"type": "Feature", "id": 3730491994, "geometry": {"type": "Point", "coordinates": [9.1453965, 45.4716656]}, "properties": {"amenity": "bicycle_rental"}}, {"type": "Feature", "id": 3758912401, "geometry": {"type": "Point", "coordinates": [9.1967664, 45.4876447]}, "properties": {"amenity": "bicycle_rental", "name": "Galvani Restelli", "operator": "BikeMi", "ref": "199"}}, {"type": "Feature", "id": 3772012542, "geometry": {"type": "Point", "coordinates": [9.1915233, 45.4669154]}, "properties": {"amenity": "bicycle_rental", "capacity": "30", "name": "BikeMi - Palazzo Marino", "operator": "BikeMi", "ref": "100"}}, {"type": "Feature", "id": 3860879193, "geometry": {"type": "Point", "coordinates": [9.202747, 45.4480746]}, "properties": {"amenity": "bicycle_rental", "capacity": "30", "operator": "BikeMi", "ref": "146"}}, {"type": "Feature", "id": 3910296475, "geometry": {"type": "Point", "coordinates": [9.1772921, 45.4839249]}, "properties": {"amenity": "bicycle_rental", "operator": "BikeMi", "source": "survey", "website": "http://www.bikemi.it"}}, {"type": "Feature", "id": 3911250730, "geometry": {"type": "Point", "coordinates": [9.2146393, 45.4725451]}, "properties": {"amenity": "bicycle_rental"}}, {"type": "Feature", "id": 3931406937, "geometry": {"type": "Point", "coordinates": [9.2743746, 45.5200741]}, "properties": {"amenity": "bicycle_rental"}}, {"type": "Feature", "id": 3935587731, "geometry": {"type": "Point", "coordinates": [9.1983267, 45.5017091]}, "properties": {"amenity": "bicycle_rental", "name": "Istria M5 Fulvio Testi", "operator": "BikeMi", "ref": "310"}}, {"type": "Feature", "id": 4041813345, "geometry": {"type": "Point", "coordinates": [9.2036744, 45.4872753]}, "properties": {"amenity": "bicycle_rental", "operator": "BikeMi", "ref": "201", "wheelchair": "yes"}}, {"type": "Feature", "id": 4062349327, "geometry": {"type": "Point", "coordinates": [9.1972411, 45.4488069]}, "properties": {"amenity": "bicycle_rental"}}, {"type": "Feature", "id": 4087871250, "geometry": {"type": "Point", "coordinates": [9.2113198, 45.5033367]}, "properties": {"amenity": "bicycle_rental", "operator": "BikeMi", "ref": "312"}}, {"type": "Feature", "id": 4105412297, "geometry": {"type": "Point", "coordinates": [9.1650578, 45.4523857]}, "properties": {"amenity": "bicycle_rental", "name": "Bergognone - Tortona", "operator": "BikeMi", "ref": "164"}}, {"type": "Feature", "id": 4142386593, "geometry": {"type": "Point", "coordinates": [9.2107325, 45.5113412]}, "properties": {"amenity": "bicycle_rental", "name": "Temolo Innovazione", "operator": "BikeMi", "ref": "323"}}, {"type": "Feature", "id": 4142386749, "geometry": {"type": "Point", "coordinates": [9.1938239, 45.4907652]}, "properties": {"amenity": "bicycle_rental", "name": "Taramelli Regione Lombardia", "operator": "BikeMi", "ref": "203"}}, {"type": "Feature", "id": 4142387313, "geometry": {"type": "Point", "coordinates": [9.1810278, 45.4945101]}, "properties": {"amenity": "bicycle_rental", "name": "Piazzi Bernina", "operator": "BikeMi", "ref": "307"}}, {"type": "Feature", "id": 4142387316, "geometry": {"type": "Point", "coordinates": [9.1824584, 45.4930892]}, "properties": {"amenity": "bicycle_rental", "name": "Valtellina Aprica", "operator": "BikeMi", "ref": "257"}}, {"type": "Feature", "id": 4142388097, "geometry": {"type": "Point", "coordinates": [9.2135425, 45.5127864]}, "properties": {"amenity": "bicycle_rental", "name": "Stazione Greco Pirelli", "operator": "BikeMi", "ref": "314"}}, {"type": "Feature", "id": 4163387889, "geometry": {"type": "Point", "coordinates": [9.1517508, 45.4736194]}, "properties": {"amenity": "bicycle_rental"}}, {"type": "Feature", "id": 4207082863, "geometry": {"type": "Point", "coordinates": [9.1884247, 45.4837301]}, "properties": {"amenity": "bicycle_rental", "capacity": "27", "name": "Garibaldi Sturzo", "operator": "BikeMi", "ref": "197"}}, {"type": "Feature", "id": 4207083826, "geometry": {"type": "Point", "coordinates": [9.1689773, 45.4883593]}, "properties": {"amenity": "bicycle_rental", "capacity": "27", "name": "Govone Borgese", "operator": "BikeMi", "ref": "238"}}, {"type": "Feature", "id": 4365961789, "geometry": {"type": "Point", "coordinates": [9.158552, 45.5021311]}, "properties": {"amenity": "bicycle_rental", "website": "https://wap.bikemi.com", "wheelchair": "yes"}}, {"type": "Feature", "id": 4387397610, "geometry": {"type": "Point", "coordinates": [9.2055777, 45.514126]}, "properties": {"amenity": "bicycle_rental", "capacity": "32", "name": "Bicocca M5 - Pulci", "network": "BikeMi", "operator": "BikeMi", "ref": "322"}}, {"type": "Feature", "id": 4436568478, "geometry": {"type": "Point", "coordinates": [9.270006, 45.4231605]}, "properties": {"amenity": "bicycle_rental", "operator": "in bici \u00e8 meglio"}}, {"type": "Feature", "id": 4436573361, "geometry": {"type": "Point", "coordinates": [9.2758681, 45.4127529]}, "properties": {"amenity": "bicycle_rental", "operator": "BIci in Citt\u00e0"}}, {"type": "Feature", "id": 4437680300, "geometry": {"type": "Point", "coordinates": [9.2589323, 45.4242161]}, "properties": {"amenity": "bicycle_rental", "capacity": "8", "network": "In bici \u00e8 meglio", "operator": "In bici \u00e8 meglio", "rental": "bike"}}, {"type": "Feature", "id": 4458780796, "geometry": {"type": "Point", "coordinates": [9.2166399, 45.4684415]}, "properties": {"amenity": "bicycle_rental", "name": "Dateo", "operator": "BikeMI", "ref": "133"}}, {"type": "Feature", "id": 4458805689, "geometry": {"type": "Point", "coordinates": [9.2136403, 45.4548329]}, "properties": {"amenity": "bicycle_rental", "name": "Friuli", "operator": "BikeMI", "ref": "206"}}, {"type": "Feature", "id": 4528886799, "geometry": {"type": "Point", "coordinates": [9.2103517, 45.4705442]}, "properties": {"amenity": "bicycle_rental"}}, {"type": "Feature", "id": 4530929156, "geometry": {"type": "Point", "coordinates": [9.2196925, 45.4733005]}, "properties": {"amenity": "bicycle_rental"}}, {"type": "Feature", "id": 4547684770, "geometry": {"type": "Point", "coordinates": [9.2128182, 45.5185307]}, "properties": {"amenity": "bicycle_rental", "operator": "Atm"}}, {"type": "Feature", "id": 4547857883, "geometry": {"type": "Point", "coordinates": [9.2028556, 45.4968641]}, "properties": {"amenity": "bicycle_rental"}}, {"type": "Feature", "id": 4555795352, "geometry": {"type": "Point", "coordinates": [9.1799175, 45.448898]}, "properties": {"amenity": "bicycle_rental"}}, {"type": "Feature", "id": 4563578549, "geometry": {"type": "Point", "coordinates": [9.2113655, 45.4803643]}, "properties": {"amenity": "bicycle_rental", "capacity": "23", "name": "Buenos Aires - Lima", "operator": "BikeMi", "ref": "113"}}, {"type": "Feature", "id": 4563722461, "geometry": {"type": "Point", "coordinates": [9.1778812, 45.4473303]}, "properties": {"amenity": "bicycle_rental"}}, {"type": "Feature", "id": 4571432800, "geometry": {"type": "Point", "coordinates": [9.2661401, 45.4161498]}, "properties": {"amenity": "bicycle_rental", "operator": "bici in citt\u00e0"}}, {"type": "Feature", "id": 4572043280, "geometry": {"type": "Point", "coordinates": [9.1856719, 45.491013]}, "properties": {"amenity": "bicycle_rental"}}, {"type": "Feature", "id": 4588164280, "geometry": {"type": "Point", "coordinates": [9.1692348, 45.5034933]}, "properties": {"amenity": "bicycle_rental", "operator": "BikeMi", "website": "https://www.bikemi.com/"}}, {"type": "Feature", "id": 4590670121, "geometry": {"type": "Point", "coordinates": [9.1932649, 45.4890856]}, "properties": {"amenity": "bicycle_rental"}}, {"type": "Feature", "id": 4592685372, "geometry": {"type": "Point", "coordinates": [9.1553969, 45.4670149]}, "properties": {"amenity": "bicycle_rental"}}, {"type": "Feature", "id": 4596180322, "geometry": {"type": "Point", "coordinates": [9.1573711, 45.4632961]}, "properties": {"amenity": "bicycle_rental"}}, {"type": "Feature", "id": 4690870517, "geometry": {"type": "Point", "coordinates": [9.1628129, 45.4803512]}, "properties": {"amenity": "bicycle_rental", "capacity": "36", "name": "Domodossola FNM Fielfo", "operator": "BikeMi", "ref": "183"}}, {"type": "Feature", "id": 4699054764, "geometry": {"type": "Point", "coordinates": [9.1648535, 45.5025802]}, "properties": {"amenity": "bicycle_rental", "name": "254 - Bausan - Brofferio", "operator": "BikeMi", "website": "https://www.bikemi.com/"}}, {"type": "Feature", "id": 4719125132, "geometry": {"type": "Point", "coordinates": [9.1984425, 45.4433288]}, "properties": {"amenity": "bicycle_rental", "operator": "BikeMi"}}, {"type": "Feature", "id": 4742642628, "geometry": {"type": "Point", "coordinates": [9.1627501, 45.4548492]}, "properties": {"amenity": "bicycle_rental", "capacity": "36", "operator": "BikeMi", "ref": "163", "wheelchair": "yes"}}, {"type": "Feature", "id": 4781364641, "geometry": {"type": "Point", "coordinates": [9.1661428, 45.4863258]}, "properties": {"amenity": "bicycle_rental", "capacity": "30", "name": "Marussig Castelvetro", "operator": "BikeMi", "ref": "239"}}, {"type": "Feature", "id": 4802177049, "geometry": {"type": "Point", "coordinates": [9.2133031, 45.4407012]}, "properties": {"amenity": "bicycle_rental", "capacity": "20", "name": "BikeMi - Bonomelli", "operator": "BikeMi", "ref": "200"}}, {"type": "Feature", "id": 4802183496, "geometry": {"type": "Point", "coordinates": [9.2193012, 45.4426884]}, "properties": {"amenity": "bicycle_rental", "capacity": "21", "name": "BikeMi -Brenta MM", "operator": "BikeMi", "ref": "31"}}, {"type": "Feature", "id": 4802183497, "geometry": {"type": "Point", "coordinates": [9.2119469, 45.4444356]}, "properties": {"amenity": "bicycle_rental", "capacity": "11", "name": "BikeMi - Benaco - Brembo", "operator": "BikeMi", "ref": "303"}}, {"type": "Feature", "id": 5107518687, "geometry": {"type": "Point", "coordinates": [9.2030711, 45.4437952]}, "properties": {"amenity": "bicycle_rental", "name": "BikeMI - Adamello", "operator": "BikeMI"}}, {"type": "Feature", "id": 5254825100, "geometry": {"type": "Point", "coordinates": [9.2826478, 45.4182595]}, "properties": {"amenity": "bicycle_rental", "network": "bici in citt\u00e0", "rental": "bicycle"}}, {"type": "Feature", "id": 5300922930, "geometry": {"type": "Point", "coordinates": [9.1888177, 45.5033825]}, "properties": {"amenity": "bicycle_rental", "designation": "Stazione BikeMi 321 - Piazza Nizza", "source": "survey"}}, {"type": "Feature", "id": 5300933691, "geometry": {"type": "Point", "coordinates": [9.1907327, 45.4995258]}, "properties": {"amenity": "bicycle_rental", "designation": "Stazione BikeMi 280 - Murat - Villani - Milano Sport", "source": "surwey"}}, {"type": "Feature", "id": 5309216366, "geometry": {"type": "Point", "coordinates": [9.2023332, 45.4907877]}, "properties": {"amenity": "bicycle_rental", "operator": "BikeMi", "ref": "318"}}, {"type": "Feature", "id": 5382583791, "geometry": {"type": "Point", "coordinates": [9.1679916, 45.4570508]}, "properties": {"amenity": "bicycle_rental", "capacity": "36", "name": "Coni Zugna Solari", "operator": "BikeMi", "ref": "161"}}, {"type": "Feature", "id": 5407305726, "geometry": {"type": "Point", "coordinates": [9.2258834, 45.4707597]}, "properties": {"amenity": "bicycle_rental"}}, {"type": "Feature", "id": 5643307670, "geometry": {"type": "Point", "coordinates": [9.1603902, 45.4768568]}, "properties": {"amenity": "bicycle_rental", "capacity": "30", "name": "6 Febbraio", "operator": "BikeMi", "ref": "224"}}, {"type": "Feature", "id": 5659087438, "geometry": {"type": "Point", "coordinates": [9.2081732, 45.496624]}, "properties": {"amenity": "bicycle_rental", "name": "BikeMi"}}, {"type": "Feature", "id": 5700426264, "geometry": {"type": "Point", "coordinates": [9.2349304, 45.4809348]}, "properties": {"addr:city": "Milano", "addr:housenumber": "40", "addr:postcode": "20133", "addr:street": "Via Edoardo Bassini", "amenity": "bicycle_rental", "capacity": "35", "name": "Bassini - Grossich", "network": "BikeMi", "ref": "122"}}, {"type": "Feature", "id": 5700426265, "geometry": {"type": "Point", "coordinates": [9.2300089, 45.4828151]}, "properties": {"addr:city": "Milano", "addr:housenumber": "10", "addr:postcode": "20131", "addr:street": "Via Teodosio", "amenity": "bicycle_rental", "capacity": "23", "name": "Teodosio - Pacini", "network": "BikeMi", "ref": "205"}}, {"type": "Feature", "id": 5700426266, "geometry": {"type": "Point", "coordinates": [9.2306942, 45.4733998]}, "properties": {"addr:city": "Milano", "addr:housenumber": "8", "addr:postcode": "20133", "addr:street": "Via Gaetano Strambio", "amenity": "bicycle_rental", "capacity": "31", "name": "Gorini - Strambio", "network": "BikeMi", "ref": "159"}}, {"type": "Feature", "id": 5700426267, "geometry": {"type": "Point", "coordinates": [9.2236308, 45.4726448]}, "properties": {"addr:city": "Milano", "addr:postcode": "20133", "addr:street": "Viale Romagna", "amenity": "bicycle_rental", "capacity": "24", "name": "Rio De Janeiro - Sarto", "network": "BikeMi", "ref": "264"}}, {"type": "Feature", "id": 5700426268, "geometry": {"type": "Point", "coordinates": [9.224702, 45.4806786]}, "properties": {"addr:city": "Milano", "addr:housenumber": "3", "addr:postcode": "20131", "addr:street": "Via Giovanni Pacini", "amenity": "bicycle_rental", "capacity": "35", "name": "Piola", "network": "BikeMi", "ref": "162"}}, {"type": "Feature", "id": 5700426269, "geometry": {"type": "Point", "coordinates": [9.2217935, 45.478727]}, "properties": {"addr:city": "Milano", "addr:housenumber": "2", "addr:postcode": "20133", "addr:street": "Via Renato Fucini", "amenity": "bicycle_rental", "capacity": "26", "name": "Bernini", "network": "BikeMi", "ref": "211"}}, {"type": "Feature", "id": 5719646407, "geometry": {"type": "Point", "coordinates": [9.2588632, 45.4241913]}, "properties": {"amenity": "bicycle_rental", "capacity": "10", "name": "Via Fabiani", "network": "bici in citt\u00e0"}}, {"type": "Feature", "id": 5719656928, "geometry": {"type": "Point", "coordinates": [9.2560662, 45.4243982]}, "properties": {"amenity": "bicycle_rental", "name": "Via Salvo", "network": "Bici in citt\u00e0"}}, {"type": "Feature", "id": 5719677227, "geometry": {"type": "Point", "coordinates": [9.2562021, 45.421987]}, "properties": {"amenity": "bicycle_rental", "capacity": "10", "name": "Via Emilia", "network": "Bici in citt\u00e0"}}, {"type": "Feature", "id": 5719684063, "geometry": {"type": "Point", "coordinates": [9.2667594, 45.4056345]}, "properties": {"amenity": "bicycle_rental", "capacity": "10", "name": "Via di Vittorio", "network": "Bici in citt\u00e0"}}, {"type": "Feature", "id": 5719686747, "geometry": {"type": "Point", "coordinates": [9.2568248, 45.4183557]}, "properties": {"amenity": "bicycle_rental", "capacity": "10", "name": "Unipol", "network": "Bici in citt\u00e0"}}, {"type": "Feature", "id": 5793443472, "geometry": {"type": "Point", "coordinates": [9.2300232, 45.4862392]}, "properties": {"amenity": "bicycle_rental", "capacity": "20", "network": "BikeMi"}}, {"type": "Feature", "id": 5921468891, "geometry": {"type": "Point", "coordinates": [9.2175501, 45.4371115]}, "properties": {"amenity": "bicycle_rental", "capacity": "30", "name": "Bikemi 383 - Angilberto - Comacchio", "operator": "Bikemi"}}, {"type": "Feature", "id": 6051104304, "geometry": {"type": "Point", "coordinates": [9.0847687, 45.4642964]}, "properties": {"amenity": "bicycle_rental", "capacity": "10"}}, {"type": "Feature", "id": 6306288045, "geometry": {"type": "Point", "coordinates": [9.2004055, 45.4388599]}, "properties": {"amenity": "bicycle_rental", "capacity": "20", "fee": "no", "name": "Bikemi 343 - Ortles - Ripamonti", "operator": "Bikemi"}}, {"type": "Feature", "id": 6306298538, "geometry": {"type": "Point", "coordinates": [9.2062411, 45.4398941]}, "properties": {"amenity": "bicycle_rental", "capacity": "30", "name": "Bikemi 385 - Ortles - Orobia", "operator": "Bikemi"}}, {"type": "Feature", "id": 6307700564, "geometry": {"type": "Point", "coordinates": [9.2238224, 45.4397339]}, "properties": {"amenity": "bicycle_rental", "capacity": "30", "name": "340 - Corvetto - Polesine", "operator": "Bikemi"}}, {"type": "Feature", "id": 6307712625, "geometry": {"type": "Point", "coordinates": [9.2241581, 45.4371477]}, "properties": {"amenity": "bicycle_rental", "capacity": "30", "name": "Bikemi 384 - Gabrio Rosa", "operator": "Bikemi"}}, {"type": "Feature", "id": 6324213047, "geometry": {"type": "Point", "coordinates": [9.269028, 45.4088741]}, "properties": {"amenity": "bicycle_rental", "name": "Certosa", "operator": "BIci in citt\u00e0"}}, {"type": "Feature", "id": 6388759179, "geometry": {"type": "Point", "coordinates": [9.1684401, 45.4820346]}, "properties": {"amenity": "bicycle_rental"}}, {"type": "Feature", "id": 6388759180, "geometry": {"type": "Point", "coordinates": [9.1682228, 45.4818823]}, "properties": {"amenity": "bicycle_rental"}}, {"type": "Feature", "id": 6416703970, "geometry": {"type": "Point", "coordinates": [9.155817, 45.4873618]}, "properties": {"amenity": "bicycle_rental"}}, {"type": "Feature", "id": 6522167651, "geometry": {"type": "Point", "coordinates": [9.1558492, 45.4815265]}, "properties": {"amenity": "bicycle_rental"}}, {"type": "Feature", "id": 204554203, "geometry": {"type": "Point", "coordinates": [9.1558492, 45.4815265]}, "properties": {"amenity": "bicycle_rental", "capacity": "24", "name": "San Marco", "operator": "BikeMi", "ref": "98"}}, {"type": "Feature", "id": 359885143, "geometry": {"type": "Point", "coordinates": [9.1558492, 45.4815265]}, "properties": {"amenity": "bicycle_rental", "capacity": "16", "covered": "yes", "operator": "in bici \u00e8 meglio"}}, {"type": "Feature", "id": 498092226, "geometry": {"type": "Point", "coordinates": [9.1558492, 45.4815265]}, "properties": {"amenity": "bicycle_rental", "name": "BIKO"}}, {"type": "Feature", "id": 527214801, "geometry": {"type": "Point", "coordinates": [9.1558492, 45.4815265]}, "properties": {"amenity": "bicycle_rental", "name": "BIKO"}}, {"type": "Feature", "id": 527215126, "geometry": {"type": "Point", "coordinates": [9.1558492, 45.4815265]}, "properties": {"amenity": "bicycle_rental", "name": "BIKO"}}, {"type": "Feature", "id": 627095690, "geometry": {"type": "Point", "coordinates": [9.1558492, 45.4815265]}, "properties": {"amenity": "bicycle_rental", "fixme": "Aggiungere numero di riferimento", "name": "Pizza Dergano", "operator": "BikeMi"}}, {"type": "Feature", "id": 629122170, "geometry": {"type": "Point", "coordinates": [9.1558492, 45.4815265]}, "properties": {"amenity": "bicycle_rental", "name": "Call a Bike", "operator": "ATM MI"}}, {"type": "Feature", "id": 292674378, "geometry": {"type": "Point", "coordinates": [9.1525322, 45.502376]}, "properties": {"amenity": "bicycle_rental", "operator": "ATM", "wheelchair": "yes"}}, {"type": "Feature", "id": 316535130, "geometry": {"type": "Point", "coordinates": [9.1891099, 45.464741]}, "properties": {"amenity": "bicycle_rental", "capacity": "24", "name": "BikeMi - Duomo", "operator": "BikeMi", "ref": "1"}}, {"type": "Feature", "id": 316535131, "geometry": {"type": "Point", "coordinates": [9.1975911, 45.4663424]}, "properties": {"amenity": "bicycle_rental", "capacity": "24", "name": "San Babila", "operator": "BikeMi", "ref": "2", "source_ref": "http://www.bikemi.com"}}, {"type": "Feature", "id": 316535132, "geometry": {"type": "Point", "coordinates": [9.1756337, 45.4679467]}, "properties": {"amenity": "bicycle_rental", "capacity": "21", "name": "Cadorna 1", "operator": "BikeMi", "ref": "3"}}, {"type": "Feature", "id": 316535133, "geometry": {"type": "Point", "coordinates": [9.1819739, 45.4723381]}, "properties": {"amenity": "bicycle_rental", "capacity": "24", "name": "04 - Lanza", "operator": "BikeMi", "ref": "4", "source_ref": "http://www.bikemi.com"}}, {"type": "Feature", "id": 316535134, "geometry": {"type": "Point", "coordinates": [9.1764459, 45.4630673]}, "properties": {"amenity": "bicycle_rental", "capacity": "24", "operator": "BikeMi", "ref": "5", "source_ref": "http://www.bikemi.com"}}, {"type": "Feature", "id": 316535135, "geometry": {"type": "Point", "coordinates": [9.1836194, 45.4608677]}, "properties": {"amenity": "bicycle_rental", "capacity": "24", "operator": "BikeMi", "ref": "6"}}, {"type": "Feature", "id": 316535136, "geometry": {"type": "Point", "coordinates": [9.1867496, 45.4627785]}, "properties": {"amenity": "bicycle_rental", "capacity": "24", "operator": "BikeMi", "ref": "7"}}, {"type": "Feature", "id": 316535137, "geometry": {"type": "Point", "coordinates": [9.1902164, 45.4600479]}, "properties": {"amenity": "bicycle_rental", "capacity": "24", "name": "Velasca", "operator": "BikeMi", "ref": "8", "source_ref": "http://www.bikemi.com"}}, {"type": "Feature", "id": 316535138, "geometry": {"type": "Point", "coordinates": [9.1953077, 45.4623693]}, "properties": {"amenity": "bicycle_rental", "capacity": "18", "name": "Santo Stefano", "operator": "BikeMi", "ref": "9", "source_ref": "http://www.bikemi.com"}}, {"type": "Feature", "id": 316535139, "geometry": {"type": "Point", "coordinates": [9.1883214, 45.4613253]}, "properties": {"amenity": "bicycle_rental", "capacity": "21", "operator": "BikeMi", "ref": "10", "source_ref": "http://www.bikemi.com"}}, {"type": "Feature", "id": 316535140, "geometry": {"type": "Point", "coordinates": [9.1795106, 45.4724844]}, "properties": {"amenity": "bicycle_rental", "capacity": "18", "operator": "BikeMi", "ref": "11", "source_ref": "http://www.bikemi.com", "wheelchair": "yes"}}, {"type": "Feature", "id": 316535141, "geometry": {"type": "Point", "coordinates": [9.1814563, 45.4585992]}, "properties": {"amenity": "bicycle_rental", "capacity": "24", "operator": "BikeMi", "ref": "12", "source_ref": "http://www.bikemi.com"}}, {"type": "Feature", "id": 316535142, "geometry": {"type": "Point", "coordinates": [9.1976032, 45.470444]}, "properties": {"amenity": "bicycle_rental", "capacity": "18", "operator": "BikeMi", "ref": "13", "source_ref": "http://www.bikemi.com"}}, {"type": "Feature", "id": 316535143, "geometry": {"type": "Point", "coordinates": [9.198499, 45.4595192]}, "properties": {"amenity": "bicycle_rental", "capacity": "21", "operator": "BikeMi", "ref": "14", "source_ref": "http://www.bikemi.com"}}, {"type": "Feature", "id": 316535144, "geometry": {"type": "Point", "coordinates": [9.1728029, 45.4558105]}, "properties": {"amenity": "bicycle_rental", "capacity": "24", "operator": "BikeMi", "ref": "15"}}, {"type": "Feature", "id": 316535145, "geometry": {"type": "Point", "coordinates": [9.1809171, 45.4770524]}, "properties": {"amenity": "bicycle_rental", "capacity": "18", "name": "17 - Legnano Arena civica", "operator": "BikeMi", "ref": "17", "source_ref": "http://www.bikemi.com"}}, {"type": "Feature", "id": 316535146, "geometry": {"type": "Point", "coordinates": [9.166566, 45.4694678]}, "properties": {"amenity": "bicycle_rental", "capacity": "24", "name": "Tommaseo", "operator": "BikeMi", "ref": "18", "source_ref": "http://www.bikemi.com"}}, {"type": "Feature", "id": 316535148, "geometry": {"type": "Point", "coordinates": [9.1897416, 45.4591269]}, "properties": {"amenity": "bicycle_rental", "capacity": "21", "operator": "BikeMi", "ref": "20", "source_ref": "http://www.bikemi.com"}}, {"type": "Feature", "id": 316535149, "geometry": {"type": "Point", "coordinates": [9.1904115, 45.4485585]}, "properties": {"amenity": "bicycle_rental", "capacity": "24", "name": "Bocconi 1", "operator": "BikeMi", "ref": "21", "source": "www.bikemi.com", "source_ref": "http://www.bikemi.com"}}, {"type": "Feature", "id": 316535151, "geometry": {"type": "Point", "coordinates": [9.2052971, 45.4582267]}, "properties": {"amenity": "bicycle_rental", "capacity": "24", "operator": "BikeMi", "ref": "23", "source_ref": "http://www.bikemi.com"}}, {"type": "Feature", "id": 316535153, "geometry": {"type": "Point", "coordinates": [9.2025511, 45.4854583]}, "properties": {"amenity": "bicycle_rental", "capacity": "24", "name": "BikeMi - Centrale 1", "operator": "BikeMi", "ref": "25", "source_ref": "http://www.bikemi.com"}}, {"type": "Feature", "id": 316535154, "geometry": {"type": "Point", "coordinates": [9.204302, 45.4846069]}, "properties": {"amenity": "bicycle_rental", "capacity": "24", "name": "BikeMi - Centrale 2", "operator": "BikeMi", "ref": "26", "source_ref": "http://www.bikemi.com"}}, {"type": "Feature", "id": 316535155, "geometry": {"type": "Point", "coordinates": [9.2045327, 45.4746262]}, "properties": {"amenity": "bicycle_rental", "capacity": "24", "name": "27 - Porta Venezia", "operator": "BikeMi", "ref": "27", "source_ref": "http://www.bikemi.com"}}, {"type": "Feature", "id": 316535156, "geometry": {"type": "Point", "coordinates": [9.181381, 45.4676281]}, "properties": {"amenity": "bicycle_rental", "capacity": "24", "network": "BikeMi", "ref": "28"}}, {"type": "Feature", "id": 316535157, "geometry": {"type": "Point", "coordinates": [9.2012832, 45.4623863]}, "properties": {"amenity": "bicycle_rental", "capacity": "24", "operator": "BikeMi", "ref": "29", "source_ref": "http://www.bikemi.com"}}, {"type": "Feature", "id": 316535158, "geometry": {"type": "Point", "coordinates": [9.1957806, 45.456159]}, "properties": {"amenity": "bicycle_rental", "capacity": "21", "operator": "BikeMi", "ref": "30", "source_ref": "http://www.bikemi.com"}}, {"type": "Feature", "id": 316535160, "geometry": {"type": "Point", "coordinates": [9.1982831, 45.4768512]}, "properties": {"amenity": "bicycle_rental", "capacity": "30", "name": "BikeMi - Manin - Bastioni", "operator": "BikeMi", "ref": "32", "source_ref": "http://www.bikemi.com"}}, {"type": "Feature", "id": 316535161, "geometry": {"type": "Point", "coordinates": [9.1734995, 45.471778]}, "properties": {"amenity": "bicycle_rental", "capacity": "24", "operator": "BikeMi", "ref": "33", "source_ref": "http://www.bikemi.com"}}, {"type": "Feature", "id": 316535162, "geometry": {"type": "Point", "coordinates": [9.1823101, 45.4677507]}, "properties": {"amenity": "bicycle_rental", "capacity": "21", "network": "BikeMi", "ref": "34", "source_ref": "http://www.bikemi.com"}}, {"type": "Feature", "id": 316535163, "geometry": {"type": "Point", "coordinates": [9.1818802, 45.4604912]}, "properties": {"amenity": "bicycle_rental", "capacity": "21", "operator": "BikeMi", "ref": "35"}}, {"type": "Feature", "id": 316535164, "geometry": {"type": "Point", "coordinates": [9.1837643, 45.4592314]}, "properties": {"amenity": "bicycle_rental", "capacity": "24", "operator": "BikeMi", "ref": "36", "source_ref": "http://www.bikemi.com"}}, {"type": "Feature", "id": 316535167, "geometry": {"type": "Point", "coordinates": [9.1867205, 45.4801965]}, "properties": {"amenity": "bicycle_rental", "capacity": "24", "name": "XXV Aprile", "operator": "BikeMi", "ref": "39", "source_ref": "http://www.bikemi.com"}}, {"type": "Feature", "id": 316535168, "geometry": {"type": "Point", "coordinates": [9.1688727, 45.4638978]}, "properties": {"amenity": "bicycle_rental", "capacity": "24", "name": "Morozzo della Rocca", "operator": "BikeMi", "ref": "40", "source_ref": "http://www.bikemi.com"}}, {"type": "Feature", "id": 316535169, "geometry": {"type": "Point", "coordinates": [9.1669428, 45.4676827]}, "properties": {"amenity": "bicycle_rental", "capacity": "18", "name": "Conciliazione", "operator": "BikeMi", "ref": "41", "source_ref": "http://www.bikemi.com"}}, {"type": "Feature", "id": 316535170, "geometry": {"type": "Point", "coordinates": [9.1956507, 45.4661258]}, "properties": {"amenity": "bicycle_rental", "capacity": "24", "operator": "BikeMi", "ref": "42", "source_ref": "http://www.bikemi.com"}}, {"type": "Feature", "id": 316535171, "geometry": {"type": "Point", "coordinates": [9.1948617, 45.4613642]}, "properties": {"amenity": "bicycle_rental", "capacity": "24", "operator": "BikeMi", "ref": "43", "source_ref": "http://www.bikemi.com"}}, {"type": "Feature", "id": 316535172, "geometry": {"type": "Point", "coordinates": [9.1929334, 45.4593687]}, "properties": {"amenity": "bicycle_rental", "capacity": "24", "operator": "BikeMi", "ref": "44", "source_ref": "http://www.bikemi.com"}}, {"type": "Feature", "id": 316535173, "geometry": {"type": "Point", "coordinates": [9.1867, 45.4642167]}, "properties": {"amenity": "bicycle_rental", "capacity": "21", "operator": "BikeMi", "ref": "45", "source_ref": "http://www.bikemi.com"}}, {"type": "Feature", "id": 316535174, "geometry": {"type": "Point", "coordinates": [9.1928141, 45.4799468]}, "properties": {"amenity": "bicycle_rental", "capacity": "24", "operator": "BikeMi", "ref": "46", "source_ref": "http://www.bikemi.com"}}, {"type": "Feature", "id": 316535175, "geometry": {"type": "Point", "coordinates": [9.1774633, 45.4523315]}, "properties": {"amenity": "bicycle_rental", "capacity": "24", "note": "attenzione: esistono DUE stalli a breve distanza. Non \u00e8 un errore. Non cancellare", "operator": "BikeMi", "ref": "47", "website": "https://www.bikemi.com/"}}, {"type": "Feature", "id": 316535177, "geometry": {"type": "Point", "coordinates": [9.1929951, 45.4664684]}, "properties": {"amenity": "bicycle_rental", "capacity": "24", "operator": "BikeMi", "ref": "49", "source_ref": "http://www.bikemi.com"}}, {"type": "Feature", "id": 316535178, "geometry": {"type": "Point", "coordinates": [9.1946286, 45.4644048]}, "properties": {"amenity": "bicycle_rental", "capacity": "24", "operator": "BikeMi", "ref": "50", "source_ref": "http://www.bikemi.com"}}, {"type": "Feature", "id": 316535179, "geometry": {"type": "Point", "coordinates": [9.1696197, 45.4667149]}, "properties": {"amenity": "bicycle_rental", "capacity": "24", "operator": "BikeMi", "ref": "51", "source_ref": "http://www.bikemi.com"}}, {"type": "Feature", "id": 316535180, "geometry": {"type": "Point", "coordinates": [9.1991481, 45.4804283]}, "properties": {"amenity": "bicycle_rental", "capacity": "24", "name": "52 - Vittor Pisani", "operator": "BikeMi", "ref": "52", "source_ref": "http://www.bikemi.com"}}, {"type": "Feature", "id": 316535181, "geometry": {"type": "Point", "coordinates": [9.2015675, 45.4724143]}, "properties": {"amenity": "bicycle_rental", "capacity": "24", "name": "Palestro 2", "operator": "BikeMi", "ref": "59", "source_ref": "http://www.bikemi.com"}}, {"type": "Feature", "id": 316535182, "geometry": {"type": "Point", "coordinates": [9.1806999, 45.4551995]}, "properties": {"amenity": "bicycle_rental", "capacity": "24", "operator": "BikeMi", "ref": "54", "source_ref": "http://www.bikemi.com"}}, {"type": "Feature", "id": 316535183, "geometry": {"type": "Point", "coordinates": [9.2068648, 45.4626591]}, "properties": {"amenity": "bicycle_rental", "capacity": "24", "operator": "BikeMi", "ref": "55", "source_ref": "http://www.bikemi.com"}}, {"type": "Feature", "id": 316535184, "geometry": {"type": "Point", "coordinates": [9.2005509, 45.4759428]}, "properties": {"amenity": "bicycle_rental", "capacity": "24", "name": "56 - Bastioni di Porta Venezia", "operator": "BikeMi", "ref": "56", "source_ref": "http://www.bikemi.com"}}, {"type": "Feature", "id": 316535186, "geometry": {"type": "Point", "coordinates": [9.1695553, 45.4588927]}, "properties": {"amenity": "bicycle_rental", "capacity": "24", "name": "Sant'Agostino", "operator": "BikeMi", "ref": "58", "source_ref": "http://www.bikemi.com"}}, {"type": "Feature", "id": 316535187, "geometry": {"type": "Point", "coordinates": [9.2017968, 45.4723043]}, "properties": {"amenity": "bicycle_rental", "capacity": "24", "name": "Palestro 1", "operator": "BikeMi", "ref": "53", "source_ref": "http://www.bikemi.com"}}, {"type": "Feature", "id": 316535188, "geometry": {"type": "Point", "coordinates": [9.183645, 45.4643503]}, "properties": {"amenity": "bicycle_rental", "capacity": "24", "operator": "BikeMi", "ref": "60", "source_ref": "http://www.bikemi.com"}}, {"type": "Feature", "id": 316535190, "geometry": {"type": "Point", "coordinates": [9.1867322, 45.4750748]}, "properties": {"amenity": "bicycle_rental", "capacity": "24", "name": "Treves", "operator": "BikeMi", "ref": "62", "source_ref": "http://www.bikemi.com"}}, {"type": "Feature", "id": 316535191, "geometry": {"type": "Point", "coordinates": [9.1742161, 45.4619144]}, "properties": {"amenity": "bicycle_rental", "capacity": "24", "operator": "BikeMi", "ref": "63", "source_ref": "http://www.bikemi.com"}}, {"type": "Feature", "id": 316535192, "geometry": {"type": "Point", "coordinates": [9.1898867, 45.4630945]}, "properties": {"amenity": "bicycle_rental", "capacity": "33", "operator": "BikeMi", "ref": "64", "source_ref": "http://www.bikemi.com"}}, {"type": "Feature", "id": 316535193, "geometry": {"type": "Point", "coordinates": [9.1875342, 45.4585296]}, "properties": {"amenity": "bicycle_rental", "capacity": "24", "operator": "BikeMi", "ref": "65", "source_ref": "http://www.bikemi.com"}}, {"type": "Feature", "id": 316535194, "geometry": {"type": "Point", "coordinates": [9.1963532, 45.4729993]}, "properties": {"amenity": "bicycle_rental", "capacity": "27", "operator": "BikeMi", "ref": "66"}}, {"type": "Feature", "id": 316535195, "geometry": {"type": "Point", "coordinates": [9.196569, 45.4789563]}, "properties": {"amenity": "bicycle_rental", "capacity": "24", "name": "67 - Repubblica", "operator": "BikeMi", "ref": "67"}}, {"type": "Feature", "id": 316535196, "geometry": {"type": "Point", "coordinates": [9.2054419, 45.4606019]}, "properties": {"amenity": "bicycle_rental", "capacity": "24", "operator": "BikeMi", "ref": "68", "source_ref": "http://www.bikemi.com"}}, {"type": "Feature", "id": 316535197, "geometry": {"type": "Point", "coordinates": [9.1899964, 45.473129]}, "properties": {"amenity": "bicycle_rental", "capacity": "33", "operator": "BikeMi", "ref": "70", "source_ref": "http://www.bikemi.com"}}, {"type": "Feature", "id": 316535198, "geometry": {"type": "Point", "coordinates": [9.1926977, 45.4566148]}, "properties": {"amenity": "bicycle_rental", "capacity": "21", "name": "Cardinal Ferrari", "operator": "BikeMi", "ref": "72", "source_ref": "http://www.bikemi.com"}}, {"type": "Feature", "id": 442046928, "geometry": {"type": "Point", "coordinates": [9.1924351, 45.4711606]}, "properties": {"amenity": "bicycle_rental", "capacity": "24", "name": "Manzoni", "operator": "BikeMi", "ref": "80", "source_ref": "http://www.bikemi.com"}}, {"type": "Feature", "id": 478857805, "geometry": {"type": "Point", "coordinates": [9.1908277, 45.4484196]}, "properties": {"amenity": "bicycle_rental", "capacity": "30", "name": "Bocconi 2", "operator": "BikeMi", "ref": "81", "source": "www.bikemi.com"}}, {"type": "Feature", "id": 506106822, "geometry": {"type": "Point", "coordinates": [9.1941967, 45.4511099]}, "properties": {"amenity": "bicycle_rental", "capacity": "24", "name": "Vittadini Bligny", "operator": "BikeMi", "ref": "89"}}, {"type": "Feature", "id": 506107306, "geometry": {"type": "Point", "coordinates": [9.1869676, 45.452914]}, "properties": {"amenity": "bicycle_rental", "capacity": "24", "name": "Corso Italia", "operator": "BikeMi", "ref": "37"}}, {"type": "Feature", "id": 611065015, "geometry": {"type": "Point", "coordinates": [9.193062, 45.463784]}, "properties": {"amenity": "bicycle_rental", "capacity": "30", "name": "Arcivescovado", "operator": "BikeMi", "ref": "102", "website": "https://www.bikemi.com/"}}, {"type": "Feature", "id": 726880692, "geometry": {"type": "Point", "coordinates": [9.1762297, 45.4690383]}, "properties": {"amenity": "bicycle_rental", "capacity": "30", "name": "Cadorna 2", "operator": "BikeMi", "ref": "84"}}, {"type": "Feature", "id": 1003844789, "geometry": {"type": "Point", "coordinates": [9.1819515, 45.461766]}, "properties": {"amenity": "bicycle_rental", "capacity": "24", "name": "Mentana", "operator": "BikeMi", "ref": "76"}}, {"type": "Feature", "id": 1272557596, "geometry": {"type": "Point", "coordinates": [9.2098749, 45.4477483]}, "properties": {"amenity": "bicycle_rental", "capacity": "33", "operator": "BikeMi", "ref": "105"}}, {"type": "Feature", "id": 1274238543, "geometry": {"type": "Point", "coordinates": [9.172271, 45.4810058]}, "properties": {"amenity": "bicycle_rental", "capacity": "24", "operator": "BikeMi", "ref": "187", "source": "survey", "website": "http://www.bikemi.it"}}, {"type": "Feature", "id": 1274238546, "geometry": {"type": "Point", "coordinates": [9.1735016, 45.4762185]}, "properties": {"amenity": "bicycle_rental", "capacity": "24", "name": "BikeMi - Arco della Pace 1", "operator": "BikeMi", "ref": "99", "source": "survey", "website": "http://www.bikemi.it"}}, {"type": "Feature", "id": 1274238550, "geometry": {"type": "Point", "coordinates": [9.1716669, 45.4750035]}, "properties": {"amenity": "bicycle_rental", "capacity": "24", "name": "BikeMi - Arco della Pace 2", "operator": "BikeMi", "ref": "103", "source": "survey", "website": "http://www.bikemi.it"}}, {"type": "Feature", "id": 1274238553, "geometry": {"type": "Point", "coordinates": [9.1697854, 45.4777906]}, "properties": {"amenity": "bicycle_rental", "capacity": "27", "operator": "BikeMi", "ref": "181", "source": "survey", "website": "http://www.bikemi.it"}}, {"type": "Feature", "id": 1276981428, "geometry": {"type": "Point", "coordinates": [9.1958492, 45.4840439]}, "properties": {"amenity": "bicycle_rental", "capacity": "24", "name": "Gioia - Pirelli", "operator": "BikeMi", "ref": "91", "source_ref": "www.bikemi.it"}}, {"type": "Feature", "id": 1281290152, "geometry": {"type": "Point", "coordinates": [9.1783142, 45.481617]}, "properties": {"amenity": "bicycle_rental", "capacity": "24", "name": "188 - Sarpi Niccolini", "operator": "BikeMi", "ref": "188", "source": "survey", "website": "http://www.bikemi.it"}}, {"type": "Feature", "id": 1300460885, "geometry": {"type": "Point", "coordinates": [9.1604802, 45.4681941]}, "properties": {"amenity": "bicycle_rental", "capacity": "36", "operator": "BikeMi", "ref": "175", "source": "survey"}}, {"type": "Feature", "id": 1322862738, "geometry": {"type": "Point", "coordinates": [9.1650658, 45.4664718]}, "properties": {"amenity": "bicycle_rental", "capacity": "24", "name": "Baracca", "operator": "BikeMi", "ref": "79"}}, {"type": "Feature", "id": 1699886621, "geometry": {"type": "Point", "coordinates": [9.1758064, 45.4657163]}, "properties": {"amenity": "bicycle_rental", "capacity": "21", "operator": "BikeMi", "ref": "85"}}, {"type": "Feature", "id": 1704066497, "geometry": {"type": "Point", "coordinates": [9.1826856, 45.4445375]}, "properties": {"amenity": "bicycle_rental", "capacity": "36", "operator": "BikeMi", "ref": "51"}}, {"type": "Feature", "id": 1726657294, "geometry": {"type": "Point", "coordinates": [9.1875914, 45.4716239]}, "properties": {"amenity": "bicycle_rental", "capacity": "24", "operator": "BikeMi", "ref": "57", "source_ref": "http://www.bikemi.com"}}, {"type": "Feature", "id": 1748324486, "geometry": {"type": "Point", "coordinates": [9.2067123, 45.4499017]}, "properties": {"amenity": "bicycle_rental"}}, {"type": "Feature", "id": 1748324499, "geometry": {"type": "Point", "coordinates": [9.2033435, 45.4516242]}, "properties": {"amenity": "bicycle_rental", "capacity": "18", "operator": "BikeMi", "ref": "71"}}, {"type": "Feature", "id": 1836668334, "geometry": {"type": "Point", "coordinates": [9.1883418, 45.4855442]}, "properties": {"amenity": "bicycle_rental", "network": "BikeMi", "source_ref": "http://www.bikemi.com"}}, {"type": "Feature", "id": 1894711761, "geometry": {"type": "Point", "coordinates": [9.185116, 45.4687483]}, "properties": {"amenity": "bicycle_rental", "capacity": "24", "operator": "BikeMi", "ref": "75", "source_ref": "http://www.bikemi.com"}}, {"type": "Feature", "id": 1911379580, "geometry": {"type": "Point", "coordinates": [9.1667709, 45.4794602]}, "properties": {"amenity": "bicycle_rental", "operator": "BikeMi", "source": "survey", "website": "http://www.bikemi.it"}}, {"type": "Feature", "id": 1938081116, "geometry": {"type": "Point", "coordinates": [9.1763368, 45.4781051]}, "properties": {"amenity": "bicycle_rental", "name": "Santissima Trinit\u00e0", "operator": "BikeMi", "ref": "185", "source": "survey", "website": "http://www.bikemi.it"}}, {"type": "Feature", "id": 1973121538, "geometry": {"type": "Point", "coordinates": [9.2066382, 45.4497749]}, "properties": {"amenity": "bicycle_rental", "capacity": "21", "operator": "BikeMi", "ref": "143"}}, {"type": "Feature", "id": 1973121541, "geometry": {"type": "Point", "coordinates": [9.1905434, 45.4510667]}, "properties": {"amenity": "bicycle_rental", "capacity": "33", "operator": "BikeMi", "ref": "148"}}, {"type": "Feature", "id": 1973121544, "geometry": {"type": "Point", "coordinates": [9.2041135, 45.4512349]}, "properties": {"amenity": "bicycle_rental", "capacity": "21", "operator": "BikeMi", "ref": "22"}}, {"type": "Feature", "id": 1973121546, "geometry": {"type": "Point", "coordinates": [9.1845328, 45.4518597]}, "properties": {"amenity": "bicycle_rental", "capacity": "36", "operator": "BikeMi", "ref": "192"}}, {"type": "Feature", "id": 1973121551, "geometry": {"type": "Point", "coordinates": [9.1974644, 45.4522215]}, "properties": {"amenity": "bicycle_rental", "capacity": "24", "operator": "BikeMi", "ref": "88"}}, {"type": "Feature", "id": 1973121561, "geometry": {"type": "Point", "coordinates": [9.1773149, 45.4523444]}, "properties": {"amenity": "bicycle_rental", "capacity": "21", "note": "attenzione: esistono DUE stalli a breve distanza. Non \u00e8 un errore. Non cancellare", "operator": "BikeMi", "ref": "48", "website": "https://www.bikemi.com/"}}, {"type": "Feature", "id": 1973121562, "geometry": {"type": "Point", "coordinates": [9.1696715, 45.4529589]}, "properties": {"amenity": "bicycle_rental", "capacity": "27", "operator": "BikeMi", "ref": "87"}}, {"type": "Feature", "id": 1973121566, "geometry": {"type": "Point", "coordinates": [9.2029327, 45.455143]}, "properties": {"amenity": "bicycle_rental", "capacity": "24", "operator": "BikeMi", "ref": "141"}}, {"type": "Feature", "id": 1973121574, "geometry": {"type": "Point", "coordinates": [9.2006126, 45.4581035]}, "properties": {"amenity": "bicycle_rental", "capacity": "24", "name": "Dell'Umanitaria", "operator": "BikeMi", "ref": "82"}}, {"type": "Feature", "id": 1973121577, "geometry": {"type": "Point", "coordinates": [9.1926554, 45.4582905]}, "properties": {"amenity": "bicycle_rental", "capacity": "12", "name": "San Nazaro in Brolo", "operator": "BikeMi", "ref": "69"}}, {"type": "Feature", "id": 1973121590, "geometry": {"type": "Point", "coordinates": [9.2076571, 45.4601302]}, "properties": {"amenity": "bicycle_rental", "capacity": "27", "operator": "BikeMi", "ref": "136"}}, {"type": "Feature", "id": 1973121596, "geometry": {"type": "Point", "coordinates": [9.1634466, 45.4608486]}, "properties": {"amenity": "bicycle_rental", "capacity": "24", "operator": "BikeMi", "ref": "78"}}, {"type": "Feature", "id": 1973121598, "geometry": {"type": "Point", "coordinates": [9.191476, 45.4620583]}, "properties": {"amenity": "bicycle_rental", "capacity": "24", "operator": "BikeMi", "ref": "83"}}, {"type": "Feature", "id": 1973121601, "geometry": {"type": "Point", "coordinates": [9.2124871, 45.4621603]}, "properties": {"amenity": "bicycle_rental", "capacity": "130", "operator": "BikeMi", "ref": "130"}}, {"type": "Feature", "id": 1973121603, "geometry": {"type": "Point", "coordinates": [9.163594, 45.4634771]}, "properties": {"amenity": "bicycle_rental", "capacity": "33", "operator": "BikeMi", "ref": "170"}}, {"type": "Feature", "id": 1973121605, "geometry": {"type": "Point", "coordinates": [9.2030901, 45.465394]}, "properties": {"amenity": "bicycle_rental", "capacity": "24", "name": "Mascagni", "operator": "BikeMi", "ref": "86"}}, {"type": "Feature", "id": 1973121608, "geometry": {"type": "Point", "coordinates": [9.1855415, 45.4654981]}, "properties": {"amenity": "bicycle_rental", "capacity": "30", "operator": "BikeMi", "ref": "92"}}, {"type": "Feature", "id": 1973121610, "geometry": {"type": "Point", "coordinates": [9.19963, 45.465857]}, "properties": {"amenity": "bicycle_rental", "capacity": "30", "name": "Borgogna", "operator": "BikeMi", "ref": "93"}}, {"type": "Feature", "id": 1973121613, "geometry": {"type": "Point", "coordinates": [9.1840711, 45.4670656]}, "properties": {"amenity": "bicycle_rental", "capacity": "9", "name": "Dante San Tomaso", "operator": "BikeMi", "ref": "74"}}, {"type": "Feature", "id": 1973121616, "geometry": {"type": "Point", "coordinates": [9.2044618, 45.4673693]}, "properties": {"amenity": "bicycle_rental", "capacity": "24", "name": "Donizetti \"Provincia\"", "operator": "BikeMi", "ref": "96"}}, {"type": "Feature", "id": 1973121618, "geometry": {"type": "Point", "coordinates": [9.1756193, 45.4700677]}, "properties": {"amenity": "bicycle_rental", "capacity": "36", "name": "Gadio", "note:it": "6 posizioni riservate a bici per bambini", "operator": "BikeMi", "ref": "101"}}, {"type": "Feature", "id": 1973121625, "geometry": {"type": "Point", "coordinates": [9.204995, 45.4714918]}, "properties": {"amenity": "bicycle_rental", "capacity": "24", "name": "Majno", "operator": "BikeMi", "ref": "73"}}, {"type": "Feature", "id": 1973121626, "geometry": {"type": "Point", "coordinates": [9.1677406, 45.4722573]}, "properties": {"amenity": "bicycle_rental", "capacity": "30", "name": "BikeMi - V Alpini", "operator": "BikeMi", "ref": "178"}}, {"type": "Feature", "id": 1973121628, "geometry": {"type": "Point", "coordinates": [9.1682949, 45.4754105]}, "properties": {"amenity": "bicycle_rental", "capacity": "30", "operator": "BikeMi", "ref": "180"}}, {"type": "Feature", "id": 1973121629, "geometry": {"type": "Point", "coordinates": [9.1917869, 45.476712]}, "properties": {"amenity": "bicycle_rental", "capacity": "24", "name": "77 - Sant'Angelo - Porta Nuova", "operator": "BikeMi", "ref": "77"}}, {"type": "Feature", "id": 1973121630, "geometry": {"type": "Point", "coordinates": [9.1845366, 45.4775461]}, "properties": {"amenity": "bicycle_rental", "capacity": "24", "operator": "BikeMi", "ref": "16"}}, {"type": "Feature", "id": 1973121633, "geometry": {"type": "Point", "coordinates": [9.172932, 45.4783104]}, "properties": {"amenity": "bicycle_rental", "capacity": "36", "name": "Melzi D'Eril Cagnola", "operator": "BikeMi", "ref": "182"}}, {"type": "Feature", "id": 1973121638, "geometry": {"type": "Point", "coordinates": [9.201525, 45.4789813]}, "properties": {"amenity": "bicycle_rental", "capacity": "27", "name": "108 - Tunisia - Cozzi", "operator": "BikeMi", "ref": "108"}}, {"type": "Feature", "id": 1973121641, "geometry": {"type": "Point", "coordinates": [9.1823077, 45.4801834]}, "properties": {"amenity": "bicycle_rental", "capacity": "33", "name": "Porta Volta", "operator": "BikeMi", "ref": "184"}}, {"type": "Feature", "id": 1973121643, "geometry": {"type": "Point", "coordinates": [9.2032546, 45.4824189]}, "properties": {"amenity": "bicycle_rental", "capacity": "36", "operator": "BikeMi", "ref": "112"}}, {"type": "Feature", "id": 1973121646, "geometry": {"type": "Point", "coordinates": [9.200452, 45.4843959]}, "properties": {"amenity": "bicycle_rental", "capacity": "30", "operator": "BikeMi", "ref": "120"}}, {"type": "Feature", "id": 1973121652, "geometry": {"type": "Point", "coordinates": [9.1947328, 45.4846499]}, "properties": {"amenity": "bicycle_rental", "capacity": "24", "operator": "BikeMi", "ref": "90"}}, {"type": "Feature", "id": 1973121653, "geometry": {"type": "Point", "coordinates": [9.2060545, 45.4849253]}, "properties": {"amenity": "bicycle_rental", "capacity": "36", "name": "BikeMi - P.zza Luigi di Savoia", "operator": "BikeMi", "ref": "200"}}, {"type": "Feature", "id": 1973121654, "geometry": {"type": "Point", "coordinates": [9.1968895, 45.486218]}, "properties": {"amenity": "bicycle_rental", "capacity": "36", "operator": "BikeMi", "ref": "104"}}, {"type": "Feature", "id": 1973121658, "geometry": {"type": "Point", "coordinates": [9.1991839, 45.4925677]}, "properties": {"amenity": "bicycle_rental", "operator": "BikeMi", "ref": "168"}}, {"type": "Feature", "id": 1992077978, "geometry": {"type": "Point", "coordinates": [9.1908414, 45.4890834]}, "properties": {"amenity": "bicycle_rental", "network": "BikeMi"}}, {"type": "Feature", "id": 2093480206, "geometry": {"type": "Point", "coordinates": [9.1850287, 45.4866961]}, "properties": {"amenity": "bicycle_rental", "operator": "BikeMi", "ref": "193"}}, {"type": "Feature", "id": 2112862535, "geometry": {"type": "Point", "coordinates": [9.1511918, 45.4500075]}, "properties": {"access": "customers", "amenity": "bicycle_rental", "bicycle_parking": "lockers", "capacity": "25", "fixme": "Posizione corretta BikeMi", "operator": "BikeMi"}}, {"type": "Feature", "id": 2129727461, "geometry": {"type": "Point", "coordinates": [9.1642326, 45.4748871]}, "properties": {"amenity": "bicycle_rental", "capacity": "34", "operator": "BikeMi", "ref": "179", "source": "survey", "website": "http://www.bikemi.it"}}, {"type": "Feature", "id": 2149471909, "geometry": {"type": "Point", "coordinates": [9.1861165, 45.4483345]}, "properties": {"amenity": "bicycle_rental", "operator": "BikeMi", "source": "survey", "source_ref": "http://www.bikemi.com"}}, {"type": "Feature", "id": 2185719198, "geometry": {"type": "Point", "coordinates": [9.2119156, 45.4778312]}, "properties": {"amenity": "bicycle_rental", "capacity": "24", "name": "Morgagni - Redi", "network": "bikemi", "ref": "116", "source": "survey"}}, {"type": "Feature", "id": 2222467283, "geometry": {"type": "Point", "coordinates": [9.1979372, 45.4866645]}, "properties": {"amenity": "bicycle_rental", "capacity": "27", "name": "Galvani M. Gioia", "operator": "bikeMi", "ref": "121"}}, {"type": "Feature", "id": 2325726419, "geometry": {"type": "Point", "coordinates": [9.1918902, 45.4915607]}, "properties": {"amenity": "bicycle_rental", "capacity": "36", "name": "Zara M3", "network": "BikeMi", "ref": "160"}}, {"type": "Feature", "id": 2482599778, "geometry": {"type": "Point", "coordinates": [9.1674082, 45.4498274]}, "properties": {"amenity": "bicycle_rental", "capacity": "32", "name": "Bikemi 158 Naviglio G.Valenza", "network": "Bicycle rental"}}, {"type": "Feature", "id": 2482607744, "geometry": {"type": "Point", "coordinates": [9.1726828, 45.4456161]}, "properties": {"amenity": "bicycle_rental", "capacity": "26", "name": "Bikemi 153 - Via Segantini via Darwin", "network": "Bikemi"}}, {"type": "Feature", "id": 2515145577, "geometry": {"type": "Point", "coordinates": [9.2147675, 45.4838459]}, "properties": {"amenity": "bicycle_rental", "name": "114 - Buenos Aires - Argentina"}}, {"type": "Feature", "id": 2533853431, "geometry": {"type": "Point", "coordinates": [9.2047256, 45.4773991]}, "properties": {"amenity": "bicycle_rental", "name": "Tunisia Lecco Bellintani", "operator": "BikeMi", "ref": "109"}}, {"type": "Feature", "id": 2547632949, "geometry": {"type": "Point", "coordinates": [9.2149262, 45.4814325]}, "properties": {"amenity": "bicycle_rental", "name": "117 - Bacone - Monteverdi"}}, {"type": "Feature", "id": 2569991782, "geometry": {"type": "Point", "coordinates": [9.2091786, 45.485284]}, "properties": {"amenity": "bicycle_rental", "name": "Caiazzo", "operator": "BikeMi", "ref": "115"}}, {"type": "Feature", "id": 2604178464, "geometry": {"type": "Point", "coordinates": [9.2111645, 45.4750532]}, "properties": {"amenity": "bicycle_rental", "capacity": "38", "name": "bikemi 118"}}, {"type": "Feature", "id": 2604181869, "geometry": {"type": "Point", "coordinates": [9.2108739, 45.4681408]}, "properties": {"amenity": "bicycle_rental"}}, {"type": "Feature", "id": 2606044608, "geometry": {"type": "Point", "coordinates": [9.1970916, 45.4809051]}, "properties": {"amenity": "bicycle_rental"}}, {"type": "Feature", "id": 2606044693, "geometry": {"type": "Point", "coordinates": [9.1977344, 45.4812464]}, "properties": {"amenity": "bicycle_rental", "name": "107 - San Gioachimo", "ref": "107"}}, {"type": "Feature", "id": 2609805216, "geometry": {"type": "Point", "coordinates": [9.1727529, 45.4496586]}, "properties": {"amenity": "bicycle_rental", "capacity": "36", "name": "156 Arcole - Argelati", "operator": "Bikemi Comune Milano"}}, {"type": "Feature", "id": 2612142431, "geometry": {"type": "Point", "coordinates": [9.2075014, 45.4801976]}, "properties": {"amenity": "bicycle_rental", "name": "111 - B.Marcello - Boscovich", "operator": "BikeMi", "ref": "111"}}, {"type": "Feature", "id": 2794659306, "geometry": {"type": "Point", "coordinates": [9.2243323, 45.4764753]}, "properties": {"addr:city": "Milano", "addr:housenumber": "54", "addr:postcode": "20133", "addr:street": "Via Giovanni Pascoli", "amenity": "bicycle_rental", "capacity": "34", "name": "Romagna - Pascoli", "network": "BikeMi", "ref": "216"}}, {"type": "Feature", "id": 2808243170, "geometry": {"type": "Point", "coordinates": [9.2261817, 45.4786583]}, "properties": {"addr:city": "Milano", "addr:postcode": "20133", "addr:street": "Piazza Leonardo da Vinci", "amenity": "bicycle_rental", "capacity": "35", "name": "Politecnico", "network": "BikeMi", "ref": "215"}}, {"type": "Feature", "id": 2914344012, "geometry": {"type": "Point", "coordinates": [9.2193718, 45.4840766]}, "properties": {"amenity": "bicycle_rental"}}, {"type": "Feature", "id": 2944545694, "geometry": {"type": "Point", "coordinates": [9.2203052, 45.4708194]}, "properties": {"amenity": "bicycle_rental"}}, {"type": "Feature", "id": 3019045522, "geometry": {"type": "Point", "coordinates": [9.2193436, 45.4426806]}, "properties": {"amenity": "bicycle_rental", "capacity": "36", "operator": "BikeMi", "ref": "31", "source": "survey; ref and capacity from website", "source_ref": "http://www.bikemi.com"}}, {"type": "Feature", "id": 3147983559, "geometry": {"type": "Point", "coordinates": [9.1763735, 45.4442125]}, "properties": {"amenity": "bicycle_rental", "capacity": "36", "name": "Naviglio Pavese - Torricelli", "operator": "BikeMi", "ref": "155"}}, {"type": "Feature", "id": 3439388536, "geometry": {"type": "Point", "coordinates": [9.1795038, 45.4522378]}, "properties": {"amenity": "bicycle_rental"}}, {"type": "Feature", "id": 3455795415, "geometry": {"type": "Point", "coordinates": [9.224043, 45.4688132]}, "properties": {"addr:city": "Milano", "addr:postcode": "20133", "addr:street": "Piazzale Susa", "amenity": "bicycle_rental", "capacity": "33", "name": "Susa - Sidoli", "network": "BikeMi", "ref": "214"}}, {"type": "Feature", "id": 3517151671, "geometry": {"type": "Point", "coordinates": [9.2237305, 45.4840333]}, "properties": {"addr:city": "Milano", "addr:housenumber": "32", "addr:postcode": "20131", "addr:street": "Viale Lombardia", "amenity": "bicycle_rental", "capacity": "28", "name": "Lombardia - Vallazze", "operator": "BikeMi", "ref": "145"}}, {"type": "Feature", "id": 3546749920, "geometry": {"type": "Point", "coordinates": [9.1609374, 45.5027658]}, "properties": {"amenity": "bicycle_rental", "wheelchair": "yes"}}, {"type": "Feature", "id": 3605729565, "geometry": {"type": "Point", "coordinates": [9.1822098, 45.4839436]}, "properties": {"amenity": "bicycle_rental", "operator": "BikeMi", "ref": "191"}}, {"type": "Feature", "id": 3611302819, "geometry": {"type": "Point", "coordinates": [9.1547979, 45.4545889]}, "properties": {"amenity": "bicycle_rental", "capacity": "35", "name": "BikeMi - Napoli", "operator": "BikeMi", "ref": "172", "website": "https://www.bikemi.com"}}, {"type": "Feature", "id": 3693529468, "geometry": {"type": "Point", "coordinates": [9.2160594, 45.462406]}, "properties": {"amenity": "bicycle_rental", "name": "Emilia", "operator": "BikeMI", "ref": "131"}}, {"type": "Feature", "id": 3699125090, "geometry": {"type": "Point", "coordinates": [9.2080626, 45.4552569]}, "properties": {"amenity": "bicycle_rental", "name": "139"}}, {"type": "Feature", "id": 3699746576, "geometry": {"type": "Point", "coordinates": [9.2106077, 45.4746488]}, "properties": {"amenity": "bicycle_rental"}}, {"type": "Feature", "id": 3717599463, "geometry": {"type": "Point", "coordinates": [9.2085099, 45.4763917]}, "properties": {"amenity": "bicycle_rental", "capacity": "33", "name": "Santa Francesca Romana", "operator": "BikeMi", "ref": "110"}}, {"type": "Feature", "id": 3726692885, "geometry": {"type": "Point", "coordinates": [9.1799001, 45.5053715]}, "properties": {"amenity": "bicycle_rental", "name": "Imbonati - Dergano M3", "network": "BikeMi"}}, {"type": "Feature", "id": 3730491994, "geometry": {"type": "Point", "coordinates": [9.1453965, 45.4716656]}, "properties": {"amenity": "bicycle_rental"}}, {"type": "Feature", "id": 3758912401, "geometry": {"type": "Point", "coordinates": [9.1967664, 45.4876447]}, "properties": {"amenity": "bicycle_rental", "name": "Galvani Restelli", "operator": "BikeMi", "ref": "199"}}, {"type": "Feature", "id": 3772012542, "geometry": {"type": "Point", "coordinates": [9.1915233, 45.4669154]}, "properties": {"amenity": "bicycle_rental", "capacity": "30", "name": "BikeMi - Palazzo Marino", "operator": "BikeMi", "ref": "100"}}, {"type": "Feature", "id": 3860879193, "geometry": {"type": "Point", "coordinates": [9.202747, 45.4480746]}, "properties": {"amenity": "bicycle_rental", "capacity": "30", "operator": "BikeMi", "ref": "146"}}, {"type": "Feature", "id": 3910296475, "geometry": {"type": "Point", "coordinates": [9.1772921, 45.4839249]}, "properties": {"amenity": "bicycle_rental", "operator": "BikeMi", "source": "survey", "website": "http://www.bikemi.it"}}, {"type": "Feature", "id": 3911250730, "geometry": {"type": "Point", "coordinates": [9.2146393, 45.4725451]}, "properties": {"amenity": "bicycle_rental"}}, {"type": "Feature", "id": 3931406937, "geometry": {"type": "Point", "coordinates": [9.2743746, 45.5200741]}, "properties": {"amenity": "bicycle_rental"}}, {"type": "Feature", "id": 3935587731, "geometry": {"type": "Point", "coordinates": [9.1983267, 45.5017091]}, "properties": {"amenity": "bicycle_rental", "name": "Istria M5 Fulvio Testi", "operator": "BikeMi", "ref": "310"}}, {"type": "Feature", "id": 4041813345, "geometry": {"type": "Point", "coordinates": [9.2036744, 45.4872753]}, "properties": {"amenity": "bicycle_rental", "operator": "BikeMi", "ref": "201", "wheelchair": "yes"}}, {"type": "Feature", "id": 4062349327, "geometry": {"type": "Point", "coordinates": [9.1972411, 45.4488069]}, "properties": {"amenity": "bicycle_rental"}}, {"type": "Feature", "id": 4087871250, "geometry": {"type": "Point", "coordinates": [9.2113198, 45.5033367]}, "properties": {"amenity": "bicycle_rental", "operator": "BikeMi", "ref": "312"}}, {"type": "Feature", "id": 4105412297, "geometry": {"type": "Point", "coordinates": [9.1650578, 45.4523857]}, "properties": {"amenity": "bicycle_rental", "name": "Bergognone - Tortona", "operator": "BikeMi", "ref": "164"}}, {"type": "Feature", "id": 4142386593, "geometry": {"type": "Point", "coordinates": [9.2107325, 45.5113412]}, "properties": {"amenity": "bicycle_rental", "name": "Temolo Innovazione", "operator": "BikeMi", "ref": "323"}}, {"type": "Feature", "id": 4142386749, "geometry": {"type": "Point", "coordinates": [9.1938239, 45.4907652]}, "properties": {"amenity": "bicycle_rental", "name": "Taramelli Regione Lombardia", "operator": "BikeMi", "ref": "203"}}, {"type": "Feature", "id": 4142387313, "geometry": {"type": "Point", "coordinates": [9.1810278, 45.4945101]}, "properties": {"amenity": "bicycle_rental", "name": "Piazzi Bernina", "operator": "BikeMi", "ref": "307"}}, {"type": "Feature", "id": 4142387316, "geometry": {"type": "Point", "coordinates": [9.1824584, 45.4930892]}, "properties": {"amenity": "bicycle_rental", "name": "Valtellina Aprica", "operator": "BikeMi", "ref": "257"}}, {"type": "Feature", "id": 4142388097, "geometry": {"type": "Point", "coordinates": [9.2135425, 45.5127864]}, "properties": {"amenity": "bicycle_rental", "name": "Stazione Greco Pirelli", "operator": "BikeMi", "ref": "314"}}, {"type": "Feature", "id": 4163387889, "geometry": {"type": "Point", "coordinates": [9.1517508, 45.4736194]}, "properties": {"amenity": "bicycle_rental"}}, {"type": "Feature", "id": 4207082863, "geometry": {"type": "Point", "coordinates": [9.1884247, 45.4837301]}, "properties": {"amenity": "bicycle_rental", "capacity": "27", "name": "Garibaldi Sturzo", "operator": "BikeMi", "ref": "197"}}, {"type": "Feature", "id": 4207083826, "geometry": {"type": "Point", "coordinates": [9.1689773, 45.4883593]}, "properties": {"amenity": "bicycle_rental", "capacity": "27", "name": "Govone Borgese", "operator": "BikeMi", "ref": "238"}}, {"type": "Feature", "id": 4365961789, "geometry": {"type": "Point", "coordinates": [9.158552, 45.5021311]}, "properties": {"amenity": "bicycle_rental", "website": "https://wap.bikemi.com", "wheelchair": "yes"}}, {"type": "Feature", "id": 4387397610, "geometry": {"type": "Point", "coordinates": [9.2055777, 45.514126]}, "properties": {"amenity": "bicycle_rental", "capacity": "32", "name": "Bicocca M5 - Pulci", "network": "BikeMi", "operator": "BikeMi", "ref": "322"}}, {"type": "Feature", "id": 4436568478, "geometry": {"type": "Point", "coordinates": [9.270006, 45.4231605]}, "properties": {"amenity": "bicycle_rental", "operator": "in bici \u00e8 meglio"}}, {"type": "Feature", "id": 4436573361, "geometry": {"type": "Point", "coordinates": [9.2758681, 45.4127529]}, "properties": {"amenity": "bicycle_rental", "operator": "BIci in Citt\u00e0"}}, {"type": "Feature", "id": 4437680300, "geometry": {"type": "Point", "coordinates": [9.2589323, 45.4242161]}, "properties": {"amenity": "bicycle_rental", "capacity": "8", "network": "In bici \u00e8 meglio", "operator": "In bici \u00e8 meglio", "rental": "bike"}}, {"type": "Feature", "id": 4458780796, "geometry": {"type": "Point", "coordinates": [9.2166399, 45.4684415]}, "properties": {"amenity": "bicycle_rental", "name": "Dateo", "operator": "BikeMI", "ref": "133"}}, {"type": "Feature", "id": 4458805689, "geometry": {"type": "Point", "coordinates": [9.2136403, 45.4548329]}, "properties": {"amenity": "bicycle_rental", "name": "Friuli", "operator": "BikeMI", "ref": "206"}}, {"type": "Feature", "id": 4528886799, "geometry": {"type": "Point", "coordinates": [9.2103517, 45.4705442]}, "properties": {"amenity": "bicycle_rental"}}, {"type": "Feature", "id": 4530929156, "geometry": {"type": "Point", "coordinates": [9.2196925, 45.4733005]}, "properties": {"amenity": "bicycle_rental"}}, {"type": "Feature", "id": 4547684770, "geometry": {"type": "Point", "coordinates": [9.2128182, 45.5185307]}, "properties": {"amenity": "bicycle_rental", "operator": "Atm"}}, {"type": "Feature", "id": 4547857883, "geometry": {"type": "Point", "coordinates": [9.2028556, 45.4968641]}, "properties": {"amenity": "bicycle_rental"}}, {"type": "Feature", "id": 4555795352, "geometry": {"type": "Point", "coordinates": [9.1799175, 45.448898]}, "properties": {"amenity": "bicycle_rental"}}, {"type": "Feature", "id": 4563578549, "geometry": {"type": "Point", "coordinates": [9.2113655, 45.4803643]}, "properties": {"amenity": "bicycle_rental", "capacity": "23", "name": "Buenos Aires - Lima", "operator": "BikeMi", "ref": "113"}}, {"type": "Feature", "id": 4563722461, "geometry": {"type": "Point", "coordinates": [9.1778812, 45.4473303]}, "properties": {"amenity": "bicycle_rental"}}, {"type": "Feature", "id": 4571432800, "geometry": {"type": "Point", "coordinates": [9.2661401, 45.4161498]}, "properties": {"amenity": "bicycle_rental", "operator": "bici in citt\u00e0"}}, {"type": "Feature", "id": 4572043280, "geometry": {"type": "Point", "coordinates": [9.1856719, 45.491013]}, "properties": {"amenity": "bicycle_rental"}}, {"type": "Feature", "id": 4588164280, "geometry": {"type": "Point", "coordinates": [9.1692348, 45.5034933]}, "properties": {"amenity": "bicycle_rental", "operator": "BikeMi", "website": "https://www.bikemi.com/"}}, {"type": "Feature", "id": 4590670121, "geometry": {"type": "Point", "coordinates": [9.1932649, 45.4890856]}, "properties": {"amenity": "bicycle_rental"}}, {"type": "Feature", "id": 4592685372, "geometry": {"type": "Point", "coordinates": [9.1553969, 45.4670149]}, "properties": {"amenity": "bicycle_rental"}}, {"type": "Feature", "id": 4596180322, "geometry": {"type": "Point", "coordinates": [9.1573711, 45.4632961]}, "properties": {"amenity": "bicycle_rental"}}, {"type": "Feature", "id": 4690870517, "geometry": {"type": "Point", "coordinates": [9.1628129, 45.4803512]}, "properties": {"amenity": "bicycle_rental", "capacity": "36", "name": "Domodossola FNM Fielfo", "operator": "BikeMi", "ref": "183"}}, {"type": "Feature", "id": 4699054764, "geometry": {"type": "Point", "coordinates": [9.1648535, 45.5025802]}, "properties": {"amenity": "bicycle_rental", "name": "254 - Bausan - Brofferio", "operator": "BikeMi", "website": "https://www.bikemi.com/"}}, {"type": "Feature", "id": 4719125132, "geometry": {"type": "Point", "coordinates": [9.1984425, 45.4433288]}, "properties": {"amenity": "bicycle_rental", "operator": "BikeMi"}}, {"type": "Feature", "id": 4742642628, "geometry": {"type": "Point", "coordinates": [9.1627501, 45.4548492]}, "properties": {"amenity": "bicycle_rental", "capacity": "36", "operator": "BikeMi", "ref": "163", "wheelchair": "yes"}}, {"type": "Feature", "id": 4781364641, "geometry": {"type": "Point", "coordinates": [9.1661428, 45.4863258]}, "properties": {"amenity": "bicycle_rental", "capacity": "30", "name": "Marussig Castelvetro", "operator": "BikeMi", "ref": "239"}}, {"type": "Feature", "id": 4802177049, "geometry": {"type": "Point", "coordinates": [9.2133031, 45.4407012]}, "properties": {"amenity": "bicycle_rental", "capacity": "20", "name": "BikeMi - Bonomelli", "operator": "BikeMi", "ref": "200"}}, {"type": "Feature", "id": 4802183496, "geometry": {"type": "Point", "coordinates": [9.2193012, 45.4426884]}, "properties": {"amenity": "bicycle_rental", "capacity": "21", "name": "BikeMi -Brenta MM", "operator": "BikeMi", "ref": "31"}}, {"type": "Feature", "id": 4802183497, "geometry": {"type": "Point", "coordinates": [9.2119469, 45.4444356]}, "properties": {"amenity": "bicycle_rental", "capacity": "11", "name": "BikeMi - Benaco - Brembo", "operator": "BikeMi", "ref": "303"}}, {"type": "Feature", "id": 5107518687, "geometry": {"type": "Point", "coordinates": [9.2030711, 45.4437952]}, "properties": {"amenity": "bicycle_rental", "name": "BikeMI - Adamello", "operator": "BikeMI"}}, {"type": "Feature", "id": 5254825100, "geometry": {"type": "Point", "coordinates": [9.2826478, 45.4182595]}, "properties": {"amenity": "bicycle_rental", "network": "bici in citt\u00e0", "rental": "bicycle"}}, {"type": "Feature", "id": 5300922930, "geometry": {"type": "Point", "coordinates": [9.1888177, 45.5033825]}, "properties": {"amenity": "bicycle_rental", "designation": "Stazione BikeMi 321 - Piazza Nizza", "source": "survey"}}, {"type": "Feature", "id": 5300933691, "geometry": {"type": "Point", "coordinates": [9.1907327, 45.4995258]}, "properties": {"amenity": "bicycle_rental", "designation": "Stazione BikeMi 280 - Murat - Villani - Milano Sport", "source": "surwey"}}, {"type": "Feature", "id": 5309216366, "geometry": {"type": "Point", "coordinates": [9.2023332, 45.4907877]}, "properties": {"amenity": "bicycle_rental", "operator": "BikeMi", "ref": "318"}}, {"type": "Feature", "id": 5382583791, "geometry": {"type": "Point", "coordinates": [9.1679916, 45.4570508]}, "properties": {"amenity": "bicycle_rental", "capacity": "36", "name": "Coni Zugna Solari", "operator": "BikeMi", "ref": "161"}}, {"type": "Feature", "id": 5407305726, "geometry": {"type": "Point", "coordinates": [9.2258834, 45.4707597]}, "properties": {"amenity": "bicycle_rental"}}, {"type": "Feature", "id": 5643307670, "geometry": {"type": "Point", "coordinates": [9.1603902, 45.4768568]}, "properties": {"amenity": "bicycle_rental", "capacity": "30", "name": "6 Febbraio", "operator": "BikeMi", "ref": "224"}}, {"type": "Feature", "id": 5659087438, "geometry": {"type": "Point", "coordinates": [9.2081732, 45.496624]}, "properties": {"amenity": "bicycle_rental", "name": "BikeMi"}}, {"type": "Feature", "id": 5700426264, "geometry": {"type": "Point", "coordinates": [9.2349304, 45.4809348]}, "properties": {"addr:city": "Milano", "addr:housenumber": "40", "addr:postcode": "20133", "addr:street": "Via Edoardo Bassini", "amenity": "bicycle_rental", "capacity": "35", "name": "Bassini - Grossich", "network": "BikeMi", "ref": "122"}}, {"type": "Feature", "id": 5700426265, "geometry": {"type": "Point", "coordinates": [9.2300089, 45.4828151]}, "properties": {"addr:city": "Milano", "addr:housenumber": "10", "addr:postcode": "20131", "addr:street": "Via Teodosio", "amenity": "bicycle_rental", "capacity": "23", "name": "Teodosio - Pacini", "network": "BikeMi", "ref": "205"}}, {"type": "Feature", "id": 5700426266, "geometry": {"type": "Point", "coordinates": [9.2306942, 45.4733998]}, "properties": {"addr:city": "Milano", "addr:housenumber": "8", "addr:postcode": "20133", "addr:street": "Via Gaetano Strambio", "amenity": "bicycle_rental", "capacity": "31", "name": "Gorini - Strambio", "network": "BikeMi", "ref": "159"}}, {"type": "Feature", "id": 5700426267, "geometry": {"type": "Point", "coordinates": [9.2236308, 45.4726448]}, "properties": {"addr:city": "Milano", "addr:postcode": "20133", "addr:street": "Viale Romagna", "amenity": "bicycle_rental", "capacity": "24", "name": "Rio De Janeiro - Sarto", "network": "BikeMi", "ref": "264"}}, {"type": "Feature", "id": 5700426268, "geometry": {"type": "Point", "coordinates": [9.224702, 45.4806786]}, "properties": {"addr:city": "Milano", "addr:housenumber": "3", "addr:postcode": "20131", "addr:street": "Via Giovanni Pacini", "amenity": "bicycle_rental", "capacity": "35", "name": "Piola", "network": "BikeMi", "ref": "162"}}, {"type": "Feature", "id": 5700426269, "geometry": {"type": "Point", "coordinates": [9.2217935, 45.478727]}, "properties": {"addr:city": "Milano", "addr:housenumber": "2", "addr:postcode": "20133", "addr:street": "Via Renato Fucini", "amenity": "bicycle_rental", "capacity": "26", "name": "Bernini", "network": "BikeMi", "ref": "211"}}, {"type": "Feature", "id": 5719646407, "geometry": {"type": "Point", "coordinates": [9.2588632, 45.4241913]}, "properties": {"amenity": "bicycle_rental", "capacity": "10", "name": "Via Fabiani", "network": "bici in citt\u00e0"}}, {"type": "Feature", "id": 5719656928, "geometry": {"type": "Point", "coordinates": [9.2560662, 45.4243982]}, "properties": {"amenity": "bicycle_rental", "name": "Via Salvo", "network": "Bici in citt\u00e0"}}, {"type": "Feature", "id": 5719677227, "geometry": {"type": "Point", "coordinates": [9.2562021, 45.421987]}, "properties": {"amenity": "bicycle_rental", "capacity": "10", "name": "Via Emilia", "network": "Bici in citt\u00e0"}}, {"type": "Feature", "id": 5719684063, "geometry": {"type": "Point", "coordinates": [9.2667594, 45.4056345]}, "properties": {"amenity": "bicycle_rental", "capacity": "10", "name": "Via di Vittorio", "network": "Bici in citt\u00e0"}}, {"type": "Feature", "id": 5719686747, "geometry": {"type": "Point", "coordinates": [9.2568248, 45.4183557]}, "properties": {"amenity": "bicycle_rental", "capacity": "10", "name": "Unipol", "network": "Bici in citt\u00e0"}}, {"type": "Feature", "id": 5793443472, "geometry": {"type": "Point", "coordinates": [9.2300232, 45.4862392]}, "properties": {"amenity": "bicycle_rental", "capacity": "20", "network": "BikeMi"}}, {"type": "Feature", "id": 5921468891, "geometry": {"type": "Point", "coordinates": [9.2175501, 45.4371115]}, "properties": {"amenity": "bicycle_rental", "capacity": "30", "name": "Bikemi 383 - Angilberto - Comacchio", "operator": "Bikemi"}}, {"type": "Feature", "id": 6051104304, "geometry": {"type": "Point", "coordinates": [9.0847687, 45.4642964]}, "properties": {"amenity": "bicycle_rental", "capacity": "10"}}, {"type": "Feature", "id": 6306288045, "geometry": {"type": "Point", "coordinates": [9.2004055, 45.4388599]}, "properties": {"amenity": "bicycle_rental", "capacity": "20", "fee": "no", "name": "Bikemi 343 - Ortles - Ripamonti", "operator": "Bikemi"}}, {"type": "Feature", "id": 6306298538, "geometry": {"type": "Point", "coordinates": [9.2062411, 45.4398941]}, "properties": {"amenity": "bicycle_rental", "capacity": "30", "name": "Bikemi 385 - Ortles - Orobia", "operator": "Bikemi"}}, {"type": "Feature", "id": 6307700564, "geometry": {"type": "Point", "coordinates": [9.2238224, 45.4397339]}, "properties": {"amenity": "bicycle_rental", "capacity": "30", "name": "340 - Corvetto - Polesine", "operator": "Bikemi"}}, {"type": "Feature", "id": 6307712625, "geometry": {"type": "Point", "coordinates": [9.2241581, 45.4371477]}, "properties": {"amenity": "bicycle_rental", "capacity": "30", "name": "Bikemi 384 - Gabrio Rosa", "operator": "Bikemi"}}, {"type": "Feature", "id": 6324213047, "geometry": {"type": "Point", "coordinates": [9.269028, 45.4088741]}, "properties": {"amenity": "bicycle_rental", "name": "Certosa", "operator": "BIci in citt\u00e0"}}, {"type": "Feature", "id": 6388759179, "geometry": {"type": "Point", "coordinates": [9.1684401, 45.4820346]}, "properties": {"amenity": "bicycle_rental"}}, {"type": "Feature", "id": 6388759180, "geometry": {"type": "Point", "coordinates": [9.1682228, 45.4818823]}, "properties": {"amenity": "bicycle_rental"}}, {"type": "Feature", "id": 6416703970, "geometry": {"type": "Point", "coordinates": [9.155817, 45.4873618]}, "properties": {"amenity": "bicycle_rental"}}, {"type": "Feature", "id": 6522167651, "geometry": {"type": "Point", "coordinates": [9.1558492, 45.4815265]}, "properties": {"amenity": "bicycle_rental"}}, {"type": "Feature", "id": 204554203, "geometry": {"type": "Point", "coordinates": [9.1558492, 45.4815265]}, "properties": {"amenity": "bicycle_rental", "capacity": "24", "name": "San Marco", "operator": "BikeMi", "ref": "98"}}, {"type": "Feature", "id": 359885143, "geometry": {"type": "Point", "coordinates": [9.1558492, 45.4815265]}, "properties": {"amenity": "bicycle_rental", "capacity": "16", "covered": "yes", "operator": "in bici \u00e8 meglio"}}, {"type": "Feature", "id": 498092226, "geometry": {"type": "Point", "coordinates": [9.1558492, 45.4815265]}, "properties": {"amenity": "bicycle_rental", "name": "BIKO"}}, {"type": "Feature", "id": 527214801, "geometry": {"type": "Point", "coordinates": [9.1558492, 45.4815265]}, "properties": {"amenity": "bicycle_rental", "name": "BIKO"}}, {"type": "Feature", "id": 527215126, "geometry": {"type": "Point", "coordinates": [9.1558492, 45.4815265]}, "properties": {"amenity": "bicycle_rental", "name": "BIKO"}}, {"type": "Feature", "id": 627095690, "geometry": {"type": "Point", "coordinates": [9.1558492, 45.4815265]}, "properties": {"amenity": "bicycle_rental", "fixme": "Aggiungere numero di riferimento", "name": "Pizza Dergano", "operator": "BikeMi"}}, {"type": "Feature", "id": 629122170, "geometry": {"type": "Point", "coordinates": [9.1558492, 45.4815265]}, "properties": {"amenity": "bicycle_rental", "name": "Call a Bike", "operator": "ATM MI"}}]}