{"type": "FeatureCollection", "features": [{"type": "Feature", "id": 607976734, "geometry": {"type": "Point", "coordinates": [9.1818061, 45.438561]}, "properties": {"addr:street": "Via Francesco Brioschi", "amenity": "car_sharing", "description": "Micra", "name": "Autorimessa Stracuzzi", "operator": "Carsharing Milano", "website": "http://www.milanocarsharing.it"}}, {"type": "Feature", "id": 611595782, "geometry": {"type": "Point", "coordinates": [9.1791729, 45.445472]}, "properties": {"amenity": "car_sharing", "description": "Ford Ka", "name": "Garage Bertoglio", "website": "http://www.milanocarsharing.it"}}, {"type": "Feature", "id": 2257692518, "geometry": {"type": "Point", "coordinates": [9.1596153, 45.5020581]}, "properties": {"amenity": "car_sharing", "capacity": "2", "operator": "e-vai", "wheelchair": "yes"}}, {"type": "Feature", "id": 2554728941, "geometry": {"type": "Point", "coordinates": [9.2262483, 45.4768008]}, "properties": {"amenity": "car_sharing", "capacity": "2", "operator": "GuidaMi", "website": "http://www.atm.it/it/guidami"}}, {"type": "Feature", "id": 2609312512, "geometry": {"type": "Point", "coordinates": [9.2152697, 45.486178]}, "properties": {"amenity": "car_sharing", "operator": "GuidaMi", "website": "http://www.atm.it/it/GuidaMi/INostriParcheggi/Zona3/Pagine/Loreto.aspx"}}, {"type": "Feature", "id": 4056315443, "geometry": {"type": "Point", "coordinates": [9.2386318, 45.5411315]}, "properties": {"amenity": "car_sharing", "operator": "Enjoy"}}, {"type": "Feature", "id": 416169840, "geometry": {"type": "Point", "coordinates": [9.2386318, 45.5411315]}, "properties": {"amenity": "car_sharing", "operator": "Share'ngo"}}, {"type": "Feature", "id": 607976734, "geometry": {"type": "Point", "coordinates": [9.1818061, 45.438561]}, "properties": {"addr:street": "Via Francesco Brioschi", "amenity": "car_sharing", "description": "Micra", "name": "Autorimessa Stracuzzi", "operator": "Carsharing Milano", "website": "http://www.milanocarsharing.it"}}, {"type": "Feature", "id": 611595782, "geometry": {"type": "Point", "coordinates": [9.1791729, 45.445472]}, "properties": {"amenity": "car_sharing", "description": "Ford Ka", "name": "Garage Bertoglio", "website": "http://www.milanocarsharing.it"}}, {"type": "Feature", "id": 2257692518, "geometry": {"type": "Point", "coordinates": [9.1596153, 45.5020581]}, "properties": {"amenity": "car_sharing", "capacity": "2", "operator": "e-vai", "wheelchair": "yes"}}, {"type": "Feature", "id": 2554728941, "geometry": {"type": "Point", "coordinates": [9.2262483, 45.4768008]}, "properties": {"amenity": "car_sharing", "capacity": "2", "operator": "GuidaMi", "website": "http://www.atm.it/it/guidami"}}, {"type": "Feature", "id": 2609312512, "geometry": {"type": "Point", "coordinates": [9.2152697, 45.486178]}, "properties": {"amenity": "car_sharing", "operator": "GuidaMi", "website": "http://www.atm.it/it/GuidaMi/INostriParcheggi/Zona3/Pagine/Loreto.aspx"}}, {"type": "Feature", "id": 4056315443, "geometry": {"type": "Point", "coordinates": [9.2386318, 45.5411315]}, "properties": {"amenity": "car_sharing", "operator": "Enjoy"}}, {"type": "Feature", "id": 416169840, "geometry": {"type": "Point", "coordinates": [9.2386318, 45.5411315]}, "properties": {"amenity": "car_sharing", "operator": "Share'ngo"}}]}