{"type": "FeatureCollection", "features": [{"type": "Feature", "id": 245056043, "geometry": {"type": "Point", "coordinates": [9.138043, 45.4616341]}, "properties": {"amenity": "pub", "name": "La Pazzeria"}}, {"type": "Feature", "id": 258035689, "geometry": {"type": "Point", "coordinates": [9.2037648, 45.4506704]}, "properties": {"amenity": "pub", "created_by": "JOSM", "name": "Pogue Mahone's", "toilets:wheelchair": "no", "wheelchair": "limited"}}, {"type": "Feature", "id": 269924613, "geometry": {"type": "Point", "coordinates": [9.1850601, 45.4784549]}, "properties": {"addr:city": "Milano", "addr:country": "IT", "addr:housenumber": "5", "addr:postcode": "20121", "addr:street": "Largo La Foppa", "amenity": "pub", "email": "radetzkycafe@libero.it", "name": "Radetzky Caf\u00e9", "operator": "La Foppa s.r.l.", "phone": "+39 02 6572645", "ref:vatin": "IT09240200155", "website": "http://www.radetzky.it/"}}, {"type": "Feature", "id": 269924649, "geometry": {"type": "Point", "coordinates": [9.1832687, 45.4799222]}, "properties": {"addr:city": "Milano", "addr:country": "IT", "addr:housenumber": "13", "addr:postcode": "20121", "addr:street": "Via Alessandro Volta", "amenity": "pub", "name": "Scott Duff", "website": "http://www.scottduff.it"}}, {"type": "Feature", "id": 269924846, "geometry": {"type": "Point", "coordinates": [9.1889733, 45.4797332]}, "properties": {"addr:city": "Milano", "addr:housenumber": "56", "addr:street": "Via Solferino", "amenity": "pub", "name": "Baladin Milano"}}, {"type": "Feature", "id": 272876491, "geometry": {"type": "Point", "coordinates": [9.1707677, 45.4588109]}, "properties": {"addr:city": "Milano", "addr:country": "IT", "addr:housenumber": "21", "addr:street": "Via Cesare da Sesto", "amenity": "pub", "contact:phone": "+39 02 89402662", "name": "The Old Fox Pub", "operator": "Rustrad s.r.l.", "ref:vatin": "IT10704220150"}}, {"type": "Feature", "id": 281593280, "geometry": {"type": "Point", "coordinates": [9.1523306, 45.466786]}, "properties": {"addr:city": "Milano", "addr:country": "IT", "addr:housenumber": "37", "addr:postcode": "20149", "addr:street": "Via Marghera", "amenity": "pub", "name": "Marghera 37"}}, {"type": "Feature", "id": 281819167, "geometry": {"type": "Point", "coordinates": [9.198145, 45.4949167]}, "properties": {"amenity": "pub", "name": "Il gatto e la volpe"}}, {"type": "Feature", "id": 281819170, "geometry": {"type": "Point", "coordinates": [9.197087, 45.4950751]}, "properties": {"amenity": "pub", "created_by": "JOSM", "name": "Tequila"}}, {"type": "Feature", "id": 281819178, "geometry": {"type": "Point", "coordinates": [9.1888396, 45.4893238]}, "properties": {"addr:city": "Milano", "addr:country": "IT", "addr:housenumber": "35", "addr:postcode": "20159", "addr:street": "Via Pietro Borsieri", "amenity": "pub", "name": "Nordest", "opening_hours": "08:00 - 01:00", "outdoor_seating": "yes", "phone": "+39 02 6900 1910", "smoking": "outside"}}, {"type": "Feature", "id": 281828130, "geometry": {"type": "Point", "coordinates": [9.208342, 45.5141993]}, "properties": {"addr:city": "Milano", "addr:housenumber": "12", "addr:street": "Via Nicol\u00f2 Fortiguerra", "amenity": "pub", "name": "Tempi moderni"}}, {"type": "Feature", "id": 282646785, "geometry": {"type": "Point", "coordinates": [9.1528367, 45.4609976]}, "properties": {"amenity": "pub", "name": "Il Tombino"}}, {"type": "Feature", "id": 290993216, "geometry": {"type": "Point", "coordinates": [9.2064151, 45.4596135]}, "properties": {"amenity": "pub", "name": "Hop"}}, {"type": "Feature", "id": 301979235, "geometry": {"type": "Point", "coordinates": [9.1692728, 45.450409]}, "properties": {"amenity": "pub", "created_by": "Potlatch 0.10c", "name": "Wizard"}}, {"type": "Feature", "id": 301979316, "geometry": {"type": "Point", "coordinates": [9.17768, 45.4518459]}, "properties": {"amenity": "pub", "name": "Le Fontanelle"}}, {"type": "Feature", "id": 304775595, "geometry": {"type": "Point", "coordinates": [9.175656, 45.465692]}, "properties": {"addr:city": "Milano", "addr:country": "IT", "addr:housenumber": "13", "addr:postcode": "20123", "addr:street": "Via Giosu\u00e8 Carducci", "amenity": "pub", "cuisine": "italian", "email": "info@barmagenta.it", "food": "yes", "name": "Bar Magenta", "opening_hours": "Mo-Su 07:30-02:00", "outdoor_seating": "yes", "phone": "+39 02 8053808", "smoking": "outside", "website": "http://barmagenta.it/"}}, {"type": "Feature", "id": 310072010, "geometry": {"type": "Point", "coordinates": [9.2233689, 45.4757092]}, "properties": {"amenity": "pub", "name": "Matricola", "wheelchair": "no"}}, {"type": "Feature", "id": 313056102, "geometry": {"type": "Point", "coordinates": [9.2015922, 45.4801747]}, "properties": {"amenity": "pub", "name": "Sohos"}}, {"type": "Feature", "id": 313056107, "geometry": {"type": "Point", "coordinates": [9.2016606, 45.4803007]}, "properties": {"amenity": "pub", "name": "Outback caf\u00e9"}}, {"type": "Feature", "id": 316123729, "geometry": {"type": "Point", "coordinates": [9.141827, 45.4445967]}, "properties": {"amenity": "pub", "name": "Camarillo Brillo"}}, {"type": "Feature", "id": 318431242, "geometry": {"type": "Point", "coordinates": [9.1446995, 45.4451996]}, "properties": {"amenity": "pub", "name": "Tin Whistle"}}, {"type": "Feature", "id": 320363956, "geometry": {"type": "Point", "coordinates": [9.2164769, 45.4547927]}, "properties": {"amenity": "pub", "created_by": "Potlatch 0.10f", "name": "Batik"}}, {"type": "Feature", "id": 324191045, "geometry": {"type": "Point", "coordinates": [9.1759075, 45.5484668]}, "properties": {"addr:city": "Cusano Milanino", "addr:country": "IT", "addr:district": "Cusano", "addr:housenumber": "9", "addr:postcode": "20095", "addr:street": "Via Omodei", "amenity": "pub", "name": "Place's Pub"}}, {"type": "Feature", "id": 333755292, "geometry": {"type": "Point", "coordinates": [9.2280645, 45.4696964]}, "properties": {"amenity": "pub", "name": "Murphy's Pub", "wheelchair": "no"}}, {"type": "Feature", "id": 333755293, "geometry": {"type": "Point", "coordinates": [9.2268801, 45.470509]}, "properties": {"addr:city": "Milano", "addr:housenumber": "13", "addr:postcode": "20133", "addr:street": "Piazza Francesco Guardi", "amenity": "pub", "name": "Le Coq"}}, {"type": "Feature", "id": 340096546, "geometry": {"type": "Point", "coordinates": [9.187111, 45.4887512]}, "properties": {"addr:city": "Milano", "addr:housenumber": "3", "addr:postcode": "20159", "addr:street": "Via Antonio Pollaiuolo", "amenity": "pub", "name": "Frida", "opening_hours": "Mo-Fr 10:00-15:00,18:00-02:00; Sa 16:00-02:00; Su 12:00-01:00", "phone": "+39 02 680260", "smoking": "outside", "website": "http://www.fridaisola.it/", "wheelchair": "limited"}}, {"type": "Feature", "id": 345599465, "geometry": {"type": "Point", "coordinates": [9.2061643, 45.4587087]}, "properties": {"amenity": "pub", "name": "Mom"}}, {"type": "Feature", "id": 370260488, "geometry": {"type": "Point", "coordinates": [9.1980977, 45.536514]}, "properties": {"amenity": "pub", "name": "Officina della Birra"}}, {"type": "Feature", "id": 374411346, "geometry": {"type": "Point", "coordinates": [9.1841339, 45.4790873]}, "properties": {"addr:city": "Milano", "addr:country": "IT", "addr:housenumber": "4", "addr:postcode": "20121", "addr:street": "Via Alessandro Volta", "amenity": "pub", "name": "The Manhattan"}}, {"type": "Feature", "id": 392260544, "geometry": {"type": "Point", "coordinates": [9.1677301, 45.4894039]}, "properties": {"amenity": "pub", "name": "Mulligan's"}}, {"type": "Feature", "id": 392260637, "geometry": {"type": "Point", "coordinates": [9.1675217, 45.4890802]}, "properties": {"amenity": "pub", "name": "The Saints and the Scholars"}}, {"type": "Feature", "id": 408781426, "geometry": {"type": "Point", "coordinates": [9.1553746, 45.4474586]}, "properties": {"amenity": "pub", "name": "Woodstock"}}, {"type": "Feature", "id": 411816864, "geometry": {"type": "Point", "coordinates": [9.1286846, 45.4802593]}, "properties": {"amenity": "pub", "name": "Chiringuito"}}, {"type": "Feature", "id": 411817076, "geometry": {"type": "Point", "coordinates": [9.1648819, 45.4865484]}, "properties": {"addr:city": "Milano", "addr:country": "IT", "addr:housenumber": "36", "addr:postcode": "20154", "addr:street": "Via Losanna", "amenity": "pub", "email": "bqdenott@gmail.com", "name": "BQ", "phone": "+39 338 9116065", "website": "http://www.bqmilano.it/004/"}}, {"type": "Feature", "id": 413453163, "geometry": {"type": "Point", "coordinates": [9.2810819, 45.524925]}, "properties": {"amenity": "pub"}}, {"type": "Feature", "id": 418360920, "geometry": {"type": "Point", "coordinates": [9.1805976, 45.446903]}, "properties": {"addr:city": "Milano", "addr:housenumber": "7", "addr:postcode": "20136", "addr:street": "Via Francesco Brioschi", "amenity": "pub", "brewery": "Tennents;Kilkenny;Guinness", "kitchen": "regional;hamburger", "motorcycle:theme": "yes", "name": "Blues Bikers Pub", "opening_hours": "Tu-Su 19:00-02:00; Mo off", "opening_hours:kitchen": "Tu-Su 19:30-01:30; Mo off", "website": "http://www.bluesbikerspub.com"}}, {"type": "Feature", "id": 506110369, "geometry": {"type": "Point", "coordinates": [9.1802826, 45.443783]}, "properties": {"amenity": "pub"}}, {"type": "Feature", "id": 506114631, "geometry": {"type": "Point", "coordinates": [9.1897242, 45.451173]}, "properties": {"amenity": "pub", "name": "Taxi Blues"}}, {"type": "Feature", "id": 524320493, "geometry": {"type": "Point", "coordinates": [9.2315149, 45.4857051]}, "properties": {"addr:city": "Milano", "addr:housenumber": "5", "addr:postcode": "20131", "addr:street": "Via Privata Adelchi", "amenity": "pub", "microbrewery": "yes", "name": "Birrificio Lambrate", "opening_hours": "Mo 00:00-02:30; Tu 18:00-24:00; We-Su 00:00-02:30,18:00-24:00", "phone": "+39 02 70638678", "smoking": "no", "website": "http://www.birrificiolambrate.com/", "wikidata": "Q24702775", "wikipedia": "en:Birrificio Lambrate"}}, {"type": "Feature", "id": 528848408, "geometry": {"type": "Point", "coordinates": [9.1706728, 45.4565354]}, "properties": {"addr:city": "Milano", "addr:country": "IT", "addr:housenumber": "59", "addr:street": "Viale Coni Zugna", "amenity": "pub", "name": "Al Confine"}}, {"type": "Feature", "id": 534340615, "geometry": {"type": "Point", "coordinates": [9.2342317, 45.4736675]}, "properties": {"addr:city": "Milano", "addr:housenumber": "29", "addr:postcode": "20133", "addr:street": "Via Gaetano Strambio", "amenity": "pub", "name": "Au Vieux Strasbourg", "opening_hours": "Mo-Sa 07:00-02:00; Su 18:00-00:00", "phone": "+39 02 70630062"}}, {"type": "Feature", "id": 539125787, "geometry": {"type": "Point", "coordinates": [9.1602382, 45.4867785]}, "properties": {"amenity": "pub", "name": "Stalingrado"}}, {"type": "Feature", "id": 539236919, "geometry": {"type": "Point", "coordinates": [9.2111879, 45.5146215]}, "properties": {"amenity": "pub", "name": "Osteria delle Erbe"}}, {"type": "Feature", "id": 541052316, "geometry": {"type": "Point", "coordinates": [9.1671499, 45.4871573]}, "properties": {"addr:city": "Milano", "addr:country": "IT", "addr:housenumber": "37", "addr:postcode": "20154", "addr:street": "Via Cenisio", "amenity": "pub", "name": "Malt"}}, {"type": "Feature", "id": 543398353, "geometry": {"type": "Point", "coordinates": [9.1640946, 45.4831171]}, "properties": {"amenity": "pub", "name": "Whisky Bar"}}, {"type": "Feature", "id": 559731761, "geometry": {"type": "Point", "coordinates": [9.1786259, 45.4458102]}, "properties": {"amenity": "pub", "name": "Nox"}}, {"type": "Feature", "id": 559731854, "geometry": {"type": "Point", "coordinates": [9.178355, 45.4455769]}, "properties": {"addr:city": "Milano", "addr:country": "IT", "addr:housenumber": "5", "addr:postcode": "20136", "addr:street": "Via Evangelista Torricelli", "amenity": "pub", "name": "Frizzi & Lazzi"}}, {"type": "Feature", "id": 567547732, "geometry": {"type": "Point", "coordinates": [9.2364606, 45.4807579]}, "properties": {"amenity": "pub", "name": "Neon"}}, {"type": "Feature", "id": 593509312, "geometry": {"type": "Point", "coordinates": [9.1944915, 45.4510576]}, "properties": {"amenity": "pub", "name": "Volo"}}, {"type": "Feature", "id": 613614569, "geometry": {"type": "Point", "coordinates": [9.2352638, 45.4811644]}, "properties": {"amenity": "pub", "name": "JJ's corner", "phone": "+39 02 70600004"}}, {"type": "Feature", "id": 614695445, "geometry": {"type": "Point", "coordinates": [9.2282944, 45.470696]}, "properties": {"addr:city": "Milano", "addr:housenumber": "9", "addr:postcode": "20133", "addr:street": "Via Giovanni Briosi", "amenity": "pub", "name": "Barbarian's"}}, {"type": "Feature", "id": 660684257, "geometry": {"type": "Point", "coordinates": [9.1874477, 45.5425071]}, "properties": {"amenity": "pub", "name": "Pollicino"}}, {"type": "Feature", "id": 661079651, "geometry": {"type": "Point", "coordinates": [9.1780228, 45.4507319]}, "properties": {"addr:housenumber": "9", "addr:postcode": "20136", "addr:street": "Via Ascanio Sforza", "amenity": "pub", "name": "Slice Caf\u00e8", "opening_hours": "Mo-Su 18:00-02:00"}}, {"type": "Feature", "id": 662838605, "geometry": {"type": "Point", "coordinates": [9.1776263, 45.4520811]}, "properties": {"addr:city": "Milano", "addr:country": "IT", "addr:housenumber": "2", "addr:street": "Alzaia Naviglio Pavese", "amenity": "pub", "name": "Al Coccio", "operator": "Pontell S.r.l.", "ref:vatin": "IT12942650156"}}, {"type": "Feature", "id": 667274860, "geometry": {"type": "Point", "coordinates": [9.1792204, 45.4462528]}, "properties": {"amenity": "pub", "name": "La Belle Alliance"}}, {"type": "Feature", "id": 672888406, "geometry": {"type": "Point", "coordinates": [9.2127528, 45.377352]}, "properties": {"amenity": "pub", "name": "American Bar", "wheelchair": "no"}}, {"type": "Feature", "id": 672889143, "geometry": {"type": "Point", "coordinates": [9.2118945, 45.3776986]}, "properties": {"amenity": "pub"}}, {"type": "Feature", "id": 730982996, "geometry": {"type": "Point", "coordinates": [9.1730117, 45.4575857]}, "properties": {"amenity": "pub", "name": "La bottega del caffe' (Marinella)"}}, {"type": "Feature", "id": 746952033, "geometry": {"type": "Point", "coordinates": [9.1751395, 45.4532362]}, "properties": {"amenity": "pub", "name": "Red Dragon"}}, {"type": "Feature", "id": 915433043, "geometry": {"type": "Point", "coordinates": [9.2712574, 45.5245539]}, "properties": {"amenity": "pub", "name": "Lord Byron"}}, {"type": "Feature", "id": 995633483, "geometry": {"type": "Point", "coordinates": [9.1522944, 45.4673931]}, "properties": {"amenity": "pub"}}, {"type": "Feature", "id": 1003136479, "geometry": {"type": "Point", "coordinates": [9.1429441, 45.4727012]}, "properties": {"amenity": "pub"}}, {"type": "Feature", "id": 1476116765, "geometry": {"type": "Point", "coordinates": [9.2436236, 45.4380288]}, "properties": {"addr:city": "Milano", "addr:housenumber": "25", "addr:postcode": "20138", "addr:street": "Via Bruno Cassinari", "amenity": "pub", "email": "nuovamilano09cafe@yahoo.it", "name": "Nuova Milano 09", "phone": "+39 02 5162 1588", "wheelchair": "yes"}}, {"type": "Feature", "id": 1650252755, "geometry": {"type": "Point", "coordinates": [9.2262905, 45.4685247]}, "properties": {"amenity": "pub", "name": "Birreria Stella"}}, {"type": "Feature", "id": 1669463936, "geometry": {"type": "Point", "coordinates": [9.2596577, 45.4188143]}, "properties": {"addr:city": "San Donato Milanese", "addr:housenumber": "7", "addr:postcode": "20097", "addr:street": "Via Gaetano Salvemini", "amenity": "pub", "name": "il Cedro"}}, {"type": "Feature", "id": 1679694028, "geometry": {"type": "Point", "coordinates": [9.2344504, 45.4796769]}, "properties": {"addr:city": "Milano", "addr:housenumber": "60", "addr:postcode": "20133", "addr:street": "Via Camillo Golgi", "amenity": "pub", "brewery": "yes;various", "contact:email": "golgi@birrificiolambrate.com", "contact:facebook": "https://www.facebook.com/BirrificioLambrate/", "contact:instagram": "https://www.instagram.com/birrificiolambrate/", "contact:website": "http://birrificiolambrate.com", "name": "Birrificio Lambrate", "opening_hours": "Mo-Fr 12:00-02:00; Sa 19:00-02:00", "phone": "+39 02 84961890", "wheelchair": "yes", "wifi": "no"}}, {"type": "Feature", "id": 1679695858, "geometry": {"type": "Point", "coordinates": [9.2255218, 45.4772546]}, "properties": {"addr:city": "Milano", "addr:housenumber": "10", "addr:street": "Piazza Leonardo da Vinci", "amenity": "pub", "name": "Harp Pub", "phone": "+39 02 36686194", "wheelchair": "no", "wifi": "no"}}, {"type": "Feature", "id": 1726715782, "geometry": {"type": "Point", "coordinates": [9.1879899, 45.4696072]}, "properties": {"addr:housenumber": "3", "addr:street": "Via Brera", "amenity": "pub", "name": "O' Connell Country Pub", "operator": "Caff\u00e8 Milano srl", "phone": "+39 02 72094888", "ref:vatin": "IT05595890962"}}, {"type": "Feature", "id": 1758176372, "geometry": {"type": "Point", "coordinates": [9.254188, 45.4883457]}, "properties": {"amenity": "pub", "name": "East End"}}, {"type": "Feature", "id": 1780898658, "geometry": {"type": "Point", "coordinates": [9.2543569, 45.4190665]}, "properties": {"amenity": "pub", "name": "Stoker"}}, {"type": "Feature", "id": 1901845023, "geometry": {"type": "Point", "coordinates": [9.2247833, 45.490367]}, "properties": {"amenity": "pub", "name": "Leoncavallo"}}, {"type": "Feature", "id": 1921825115, "geometry": {"type": "Point", "coordinates": [9.2360635, 45.4831972]}, "properties": {"amenity": "pub", "name": "L'osteria di Lambrate"}}, {"type": "Feature", "id": 1922469810, "geometry": {"type": "Point", "coordinates": [9.2585807, 45.4204047]}, "properties": {"addr:city": "San Donato Milanese", "addr:housenumber": "2", "addr:postcode": "20097", "addr:street": "Piazza Supercortemaggiore", "amenity": "pub", "name": "Bunshee"}}, {"type": "Feature", "id": 1922482663, "geometry": {"type": "Point", "coordinates": [9.2652156, 45.4232725]}, "properties": {"amenity": "pub", "name": "Mulberry St"}}, {"type": "Feature", "id": 1923630892, "geometry": {"type": "Point", "coordinates": [9.2235692, 45.4686909]}, "properties": {"addr:housenumber": "7", "addr:street": "Piazzale Susa", "amenity": "pub", "contact:phone": "+39 02 7490200", "name": "Blender", "operator": "Bandello 22 srl", "ref:vatin": "12649500159"}}, {"type": "Feature", "id": 1923838407, "geometry": {"type": "Point", "coordinates": [9.2167302, 45.4787442]}, "properties": {"addr:housenumber": "33", "addr:street": "Viale Abruzzi", "amenity": "pub", "name": "Brasserie Bruxelles", "opening_hours": "Mo-Su 17:00-02:00", "website": "http://www.brasseriebruxelles.eu/"}}, {"type": "Feature", "id": 1969467067, "geometry": {"type": "Point", "coordinates": [9.214541, 45.4719305]}, "properties": {"addr:city": "Milano", "addr:country": "IT", "addr:housenumber": "1", "addr:postcode": "20129", "addr:street": "Via privata Giuseppe Abamonti", "amenity": "pub", "name": "La Belle Aurore", "wheelchair": "limited"}}, {"type": "Feature", "id": 1982605428, "geometry": {"type": "Point", "coordinates": [9.249968, 45.5264662]}, "properties": {"amenity": "pub", "name": "la baracca"}}, {"type": "Feature", "id": 2034349326, "geometry": {"type": "Point", "coordinates": [9.2315908, 45.4850744]}, "properties": {"amenity": "pub", "name": "Hemingway Caf\u00e9"}}, {"type": "Feature", "id": 2064483949, "geometry": {"type": "Point", "coordinates": [9.2146671, 45.4523978]}, "properties": {"addr:housenumber": "4", "addr:street": "Via Tito Livio", "amenity": "pub", "email": "info@kkofler.com", "name": "Kofler", "phone": "+39 02 54072997", "website": "https://kkofler.com/milano-2/"}}, {"type": "Feature", "id": 2074601161, "geometry": {"type": "Point", "coordinates": [9.2278901, 45.4819379]}, "properties": {"amenity": "pub", "name": "JustCaf\u00e9"}}, {"type": "Feature", "id": 2106515265, "geometry": {"type": "Point", "coordinates": [9.1853194, 45.4897114]}, "properties": {"addr:city": "Milano", "addr:country": "IT", "addr:housenumber": "18", "addr:postcode": "20159", "addr:street": "Via Medardo Rosso", "amenity": "pub", "name": "Isola Della Birra", "website": "http://www.isoladellabirra.com", "wifi": "free"}}, {"type": "Feature", "id": 2183326683, "geometry": {"type": "Point", "coordinates": [9.2675445, 45.5180943]}, "properties": {"addr:city": "Cologno Monzese", "addr:country": "IT", "addr:housenumber": "151", "addr:postcode": "20093", "addr:street": "Via Milano", "amenity": "pub", "name": "Big Murphy's"}}, {"type": "Feature", "id": 2226433641, "geometry": {"type": "Point", "coordinates": [9.2230517, 45.4676716]}, "properties": {"amenity": "pub", "name": "Cambridge"}}, {"type": "Feature", "id": 2226705927, "geometry": {"type": "Point", "coordinates": [9.177841, 45.4500031]}, "properties": {"amenity": "pub", "name": "camillo's Pub"}}, {"type": "Feature", "id": 2226705938, "geometry": {"type": "Point", "coordinates": [9.176693, 45.4452423]}, "properties": {"amenity": "pub", "name": "Gecho's pub"}}, {"type": "Feature", "id": 2226705950, "geometry": {"type": "Point", "coordinates": [9.1762958, 45.4456224]}, "properties": {"amenity": "pub", "name": "Mayflower pub"}}, {"type": "Feature", "id": 2226705962, "geometry": {"type": "Point", "coordinates": [9.1771597, 45.4492053]}, "properties": {"amenity": "pub", "name": "Ponte Vecchio Pub"}}, {"type": "Feature", "id": 2237701014, "geometry": {"type": "Point", "coordinates": [9.2118674, 45.5095876]}, "properties": {"addr:city": "Milano", "addr:country": "IT", "addr:housenumber": "50", "addr:postcode": "20125", "addr:street": "Via Roberto Cozzi", "amenity": "pub", "name": "Maga Furla"}}, {"type": "Feature", "id": 2239150621, "geometry": {"type": "Point", "coordinates": [9.1707302, 45.5003025]}, "properties": {"addr:city": "Milano", "addr:housenumber": "18", "addr:postcode": "20158", "addr:street": "Via Camillo Ugoni", "amenity": "pub", "end_date": "2016", "name": "Fermento Art&Pub", "website": "http://www.fermentoaep.com/"}}, {"type": "Feature", "id": 2262460459, "geometry": {"type": "Point", "coordinates": [9.1772402, 45.4520986]}, "properties": {"amenity": "pub", "name": "La Ringhiera"}}, {"type": "Feature", "id": 2263327147, "geometry": {"type": "Point", "coordinates": [9.215598, 45.4536701]}, "properties": {"addr:city": "Milano", "addr:country": "IT", "addr:housenumber": "58", "addr:street": "Viale Umbria", "amenity": "pub", "name": "Diana Pub", "postal_code": "20135", "ref:vatin": "IT06108860963"}}, {"type": "Feature", "id": 2404012459, "geometry": {"type": "Point", "coordinates": [9.1666413, 45.4550413]}, "properties": {"addr:city": "Milano", "addr:housenumber": "3", "addr:street": "Via Montevideo", "amenity": "pub", "level": "0", "name": "Murphy's Law", "outdoor_seating": "yes", "phone": "+390283242151"}}, {"type": "Feature", "id": 2416148107, "geometry": {"type": "Point", "coordinates": [9.1852718, 45.4805274]}, "properties": {"amenity": "pub", "name": "Jutland Pub"}}, {"type": "Feature", "id": 2438877458, "geometry": {"type": "Point", "coordinates": [9.1891153, 45.488411]}, "properties": {"addr:city": "Milano", "addr:country": "IT", "addr:housenumber": "24", "addr:postcode": "20159", "addr:street": "Via Pietro Borsieri", "amenity": "pub", "name": "Pub24"}}, {"type": "Feature", "id": 2461220919, "geometry": {"type": "Point", "coordinates": [9.2300155, 45.4648651]}, "properties": {"amenity": "pub", "name": "Paperoga"}}, {"type": "Feature", "id": 2479398382, "geometry": {"type": "Point", "coordinates": [9.188807, 45.4869267]}, "properties": {"addr:city": "Milano", "addr:country": "IT", "addr:housenumber": "16", "addr:postcode": "20159", "addr:street": "Via Pietro Borsieri", "amenity": "pub", "name": "Rosso Borsieri", "website": "http://www.rossoborsieri.it/"}}, {"type": "Feature", "id": 2482369389, "geometry": {"type": "Point", "coordinates": [9.1717146, 45.4512767]}, "properties": {"addr:city": "Milano", "addr:housenumber": "62", "addr:street": "Alzaia Naviglio Grande", "amenity": "pub", "name": "BQ - Birra artigianale"}}, {"type": "Feature", "id": 2744645396, "geometry": {"type": "Point", "coordinates": [9.1702028, 45.4509778]}, "properties": {"amenity": "pub", "name": "BQ - Pub"}}, {"type": "Feature", "id": 2744645399, "geometry": {"type": "Point", "coordinates": [9.1712214, 45.4512295]}, "properties": {"amenity": "pub", "name": "Indiana Post"}}, {"type": "Feature", "id": 2758108713, "geometry": {"type": "Point", "coordinates": [9.1713435, 45.4508611]}, "properties": {"addr:housenumber": "2", "addr:street": "Via Pasquale Paoli", "alt_name": "Bond Milano", "amenity": "pub", "contact:phone": "+39 02 87235881", "name": "Bond", "operator": "Crea Milano srl", "ref:vatin": "IT08384050962", "website": "http://www.bondmilano.it"}}, {"type": "Feature", "id": 2758108717, "geometry": {"type": "Point", "coordinates": [9.1710331, 45.4508194]}, "properties": {"amenity": "pub", "name": "Concordia Enoteca"}}, {"type": "Feature", "id": 2774913913, "geometry": {"type": "Point", "coordinates": [9.1708129, 45.4516102]}, "properties": {"amenity": "pub", "name": "Blues Canal"}}, {"type": "Feature", "id": 2943323660, "geometry": {"type": "Point", "coordinates": [9.1278585, 45.4803853]}, "properties": {"amenity": "pub"}}, {"type": "Feature", "id": 2954036032, "geometry": {"type": "Point", "coordinates": [9.2122145, 45.5148526]}, "properties": {"addr:city": "Milano", "addr:country": "IT", "addr:housenumber": "4a", "addr:street": "Piazza della Trivulziana", "amenity": "pub", "name": "Je suis Jambon", "smoking": "outside"}}, {"type": "Feature", "id": 2964293266, "geometry": {"type": "Point", "coordinates": [9.187804, 45.4896876]}, "properties": {"addr:city": "Milano", "addr:housenumber": "8", "addr:postcode": "20159", "addr:street": "Via Antonio Pollaiuolo", "amenity": "pub", "name": "Wasabi", "opening_hours": "21:00 - 2:00", "smoking": "no", "wheelchair": "limited"}}, {"type": "Feature", "id": 3049189423, "geometry": {"type": "Point", "coordinates": [9.1811925, 45.4835535]}, "properties": {"addr:city": "Milano", "addr:country": "IT", "addr:housenumber": "4", "addr:postcode": "20154", "addr:street": "Via Ceresio", "amenity": "pub", "name": "Biffi", "note:it": "accesso sia da Via Ceresio che da Via Farini"}}, {"type": "Feature", "id": 3051686250, "geometry": {"type": "Point", "coordinates": [9.1875031, 45.4877272]}, "properties": {"amenity": "pub", "name": "Vinyl", "phone": "+39 348 808 4916", "smoking": "outside"}}, {"type": "Feature", "id": 3078972718, "geometry": {"type": "Point", "coordinates": [9.1887328, 45.4809224]}, "properties": {"addr:city": "Milano", "addr:country": "IT", "addr:housenumber": "18", "addr:postcode": "20124", "addr:street": "Viale Monte Grappa", "amenity": "pub", "name": "Lucky Actors"}}, {"type": "Feature", "id": 3086120710, "geometry": {"type": "Point", "coordinates": [9.180703, 45.4452563]}, "properties": {"addr:city": "Milano", "addr:housenumber": "32", "addr:street": "Via Francesco Brioschi", "amenity": "pub", "contact:email": "info@tipota.net", "contact:facebook": "https://www.facebook.com/pages/Tipota-Pub/110774758949396", "name": "Tipota Pub", "opening_hours": "18:00 - 2:00", "phone": "+39 02 835 7777", "source": "https://www.facebook.com/pages/Tipota-Pub/110774758949396?sk=info", "website": "http://www.tipota.net/"}}, {"type": "Feature", "id": 3188691739, "geometry": {"type": "Point", "coordinates": [9.1762839, 45.4490246]}, "properties": {"addr:housenumber": "12", "addr:postcode": "20143", "addr:street": "Via Emilio Gola", "alt_name": "Nibida Theatre Live Music", "amenity": "pub", "contact:phone": "+39 339 3477512", "contact:website": "http://www.nidaba.it/", "fixme": "Position estimated", "name": "Nibida Theatre", "ref:vatin": "IT11464280152"}}, {"type": "Feature", "id": 3259520916, "geometry": {"type": "Point", "coordinates": [9.2075644, 45.4925338]}, "properties": {"addr:city": "Milano", "addr:housenumber": "11", "addr:postcode": "20125", "addr:street": "Via Giuseppe Bruschetti", "amenity": "pub", "name": "Rock'n'Roll Milano"}}, {"type": "Feature", "id": 3309054561, "geometry": {"type": "Point", "coordinates": [9.2201308, 45.5357949]}, "properties": {"addr:city": "Sesto San Giovanni", "addr:housenumber": "280", "addr:place": "Madrigal Pub", "addr:postcode": "20099", "addr:street": "Via Giuseppe Rovani", "amenity": "pub", "name": "Madrigal Irish Pub", "smoking": "no"}}, {"type": "Feature", "id": 3320456610, "geometry": {"type": "Point", "coordinates": [9.2222331, 45.5358515]}, "properties": {"addr:city": "Sesto San Giovanni", "addr:housenumber": "10", "addr:postcode": "20099", "addr:street": "Via Vincenzo Gioberti", "amenity": "pub", "name": "Consorzio Birre Pub", "opening_hours": "18:30-02:00", "phone": "+39 388 9822718", "smoking": "no"}}, {"type": "Feature", "id": 3351978678, "geometry": {"type": "Point", "coordinates": [9.1704697, 45.4507167]}, "properties": {"amenity": "pub", "name": "Pinch"}}, {"type": "Feature", "id": 3377195208, "geometry": {"type": "Point", "coordinates": [9.2234256, 45.4742999]}, "properties": {"amenity": "pub", "name": "Mind the Step"}}, {"type": "Feature", "id": 3386281235, "geometry": {"type": "Point", "coordinates": [9.1831976, 45.4892647]}, "properties": {"addr:city": "Milano", "addr:country": "IT", "addr:housenumber": "30", "addr:postcode": "20159", "addr:street": "Via Carlo Farini", "amenity": "pub", "name": "The Good Life"}}, {"type": "Feature", "id": 3446519536, "geometry": {"type": "Point", "coordinates": [9.1716692, 45.4512755]}, "properties": {"amenity": "pub", "name": "Banco"}}, {"type": "Feature", "id": 3472127842, "geometry": {"type": "Point", "coordinates": [9.1814693, 45.4409249]}, "properties": {"amenity": "pub", "name": "Abnormal"}}, {"type": "Feature", "id": 3523785342, "geometry": {"type": "Point", "coordinates": [9.237054, 45.5319312]}, "properties": {"addr:city": "Sesto San Giovanni", "addr:country": "IT", "addr:housenumber": "226", "addr:postcode": "20099", "addr:street": "Via Felice Cavallotti", "amenity": "pub", "name": "Mir"}}, {"type": "Feature", "id": 3578954006, "geometry": {"type": "Point", "coordinates": [9.2086831, 45.4975736]}, "properties": {"addr:housenumber": "194", "addr:postcode": "20125", "addr:street": "Via Melchiorre Gioia", "amenity": "pub", "name": "La buttega beer room", "opening_hours": "Mo-Fr 17:00-02:00; Sa-Su 15:00-02:00", "website": "http://www.labuttiga.it"}}, {"type": "Feature", "id": 3605721829, "geometry": {"type": "Point", "coordinates": [9.1811537, 45.4823676]}, "properties": {"addr:city": "Milano", "addr:country": "IT", "addr:housenumber": "3", "addr:postcode": "20154", "addr:street": "Piazzale Antonio Baiamonti", "amenity": "pub", "name": "Drago Verde"}}, {"type": "Feature", "id": 3661352945, "geometry": {"type": "Point", "coordinates": [9.1925759, 45.5238074]}, "properties": {"amenity": "pub", "name": "Tardis", "smoking": "outside"}}, {"type": "Feature", "id": 3753376616, "geometry": {"type": "Point", "coordinates": [9.2134173, 45.4541396]}, "properties": {"addr:housenumber": "46", "addr:street": "Via Friuli", "amenity": "pub", "name": "Lambiczoon", "opening_hours": "Mo-Su 18:30-2:00, Sa 12:30-2:00"}}, {"type": "Feature", "id": 3813651277, "geometry": {"type": "Point", "coordinates": [9.1448249, 45.4452238]}, "properties": {"addr:city": "Milano", "addr:housenumber": "53", "addr:street": "Via Lodovico il Moro", "amenity": "pub", "contact:email": "gurupubmilano@gmail.com", "name": "Guru Pub", "opening_hours": "Mo-Su 19:30-02:00", "smoking": "outside", "source": "survey", "website": "gurupubmilano.com"}}, {"type": "Feature", "id": 3976146298, "geometry": {"type": "Point", "coordinates": [9.1847285, 45.4914095]}, "properties": {"addr:city": "Milano", "addr:country": "IT", "addr:housenumber": "3", "addr:postcode": "20159", "addr:street": "Via Alserio", "amenity": "pub", "name": "Zhizun Pub"}}, {"type": "Feature", "id": 4026674089, "geometry": {"type": "Point", "coordinates": [9.2079204, 45.4577567]}, "properties": {"addr:city": "Milano", "addr:housenumber": "12", "addr:postcode": "20135", "addr:street": "Via Andrea Maffei", "amenity": "pub", "name": "Prog"}}, {"type": "Feature", "id": 4031499530, "geometry": {"type": "Point", "coordinates": [9.202606, 45.456213]}, "properties": {"amenity": "pub", "name": "Mind the GAP"}}, {"type": "Feature", "id": 4111425391, "geometry": {"type": "Point", "coordinates": [9.1807356, 45.4578194]}, "properties": {"amenity": "pub", "name": "Ralph's"}}, {"type": "Feature", "id": 4228804762, "geometry": {"type": "Point", "coordinates": [9.2094733, 45.4576105]}, "properties": {"addr:city": "Milano", "addr:housenumber": "23", "addr:postcode": "20135", "addr:street": "Via Antonio Fogazzaro", "amenity": "pub", "email": "milano@birreriespiller.it", "name": "Birreria Spiller", "opening_hours": "Mo-Th 12:00-14:30,18:00-00:00, Fr 12:00-14:30,18:00-02:00, Sa 18:00-02:00, Su 12:00-15:00,18:00-00:00", "phone": "+39 02 551 4532", "website": "http://www.spillerbirrerie.it/milano/"}}, {"type": "Feature", "id": 4243123595, "geometry": {"type": "Point", "coordinates": [9.2105485, 45.4446317]}, "properties": {"addr:city": "Milano", "addr:housenumber": "7", "addr:postcode": "20139", "addr:street": "Via Brembo", "amenity": "pub", "email": "info@thewhiteflag.it", "name": "The White Flag", "opening_hours": "Mo-Su 17:30-02:00", "outdoor_seating": "no", "phone": "+39 340 176 7631", "smoking": "outside", "toilets:wheelchair": "no", "website": "http://www.thewhiteflag.it", "wheelchair": "limited"}}, {"type": "Feature", "id": 4303400472, "geometry": {"type": "Point", "coordinates": [9.1853897, 45.4620417]}, "properties": {"addr:city": "Milano", "addr:housenumber": "5", "addr:postcode": "20123", "addr:street": "Via Valpetrosa", "amenity": "pub", "cuisine": "burger", "food": "yes", "name": "The English Football Pub", "opening_hours": "Mo-Fr 12:00-15:00,17:00-02:00; Sa 13:00-02:00; Su 15:00-00:00", "phone": "+39 02 864464"}}, {"type": "Feature", "id": 4318412829, "geometry": {"type": "Point", "coordinates": [9.1768673, 45.445785]}, "properties": {"amenity": "pub", "name": "Sacrestia"}}, {"type": "Feature", "id": 4318773483, "geometry": {"type": "Point", "coordinates": [9.149288, 45.4585878]}, "properties": {"addr:city": "Milano", "addr:housenumber": "7", "addr:street": "Piazzale Tripoli", "amenity": "pub", "contact:facebook": "https://www.facebook.com/Cambusa-20-803592193018648/", "contact:foursquare": "https://it.foursquare.com/v/cambusa-20/4fe0ed38e4b0604389108c87", "contact:phone": "+39 02 48951361", "contact:tripadvisor": "https://www.tripadvisor.it/Restaurant_Review-g187849-d7706883-Reviews-Cambusa_2_0-Milan_Lombardy.html", "contact:yelp": "https://www.yelp.it/biz/cambusa-2-0-milano", "name": "Cambusa 2.0", "operator": "Rustrad Due SrL", "ref:vatin": "IT06818280965", "smoking": "outside"}}, {"type": "Feature", "id": 4361682690, "geometry": {"type": "Point", "coordinates": [9.1734324, 45.4439991]}, "properties": {"amenity": "pub"}}, {"type": "Feature", "id": 4400710065, "geometry": {"type": "Point", "coordinates": [9.169909, 45.4561919]}, "properties": {"amenity": "pub", "name": "Birreria Al panino 900"}}, {"type": "Feature", "id": 4449004403, "geometry": {"type": "Point", "coordinates": [9.1934014, 45.4801903]}, "properties": {"amenity": "pub", "brewery": "various", "email": "info@thefriendspubmilano.it", "internet_access": "wlan", "internet_access:fee": "customers", "name": "The Friends", "opening_hours": "Mo-Sa 12:00-02:00, Su 18:00-02:00", "phone": "+39 02 2900 5315", "website": "https://www.thefriendspubmilano.it"}}, {"type": "Feature", "id": 4526133386, "geometry": {"type": "Point", "coordinates": [9.2460207, 45.4706518]}, "properties": {"addr:city": "Milano", "addr:housenumber": "56", "addr:postcode": "20134", "addr:street": "Via Tucidide", "amenity": "pub", "name": "Impronta Birraia", "opening_hours": "Mo-Fr 12:00-15:00,18:00-24:00; Sa 18:00-02:00; Su 12:00-24:00", "website": "http://www.improntabirraia.it/"}}, {"type": "Feature", "id": 4537487029, "geometry": {"type": "Point", "coordinates": [9.1764585, 45.4657555]}, "properties": {"addr:city": "Milano", "addr:country": "IT", "addr:housenumber": "1", "addr:postcode": "20123", "addr:street": "Via Terraggio", "amenity": "pub", "name": "Ai Tre Morsi"}}, {"type": "Feature", "id": 4558507269, "geometry": {"type": "Point", "coordinates": [9.1434607, 45.4935031]}, "properties": {"addr:city": "Milano", "addr:housenumber": "89", "addr:street": "Viale Certosa", "amenity": "pub", "description": "Irish Pub", "name": "Black Bull", "phone": "+39 02 33003073", "ref:vatin": "IT07395510964"}}, {"type": "Feature", "id": 4617967833, "geometry": {"type": "Point", "coordinates": [9.1776717, 45.4777017]}, "properties": {"addr:city": "Milano", "addr:postcode": "20154", "amenity": "pub", "name": "Caf\u00e9 Etniko", "outdoor_seating": "no", "smoking": "outside", "wheelchair": "no"}}, {"type": "Feature", "id": 4640831794, "geometry": {"type": "Point", "coordinates": [9.170259, 45.4810185]}, "properties": {"addr:city": "Milano", "addr:country": "IT", "addr:housenumber": "64", "addr:postcode": "20154", "addr:street": "Via Paolo Sarpi", "amenity": "pub", "name": "Birrificio artigianale La Buttiga"}}, {"type": "Feature", "id": 4708357239, "geometry": {"type": "Point", "coordinates": [9.2037822, 45.4903659]}, "properties": {"addr:city": "Milano", "addr:housenumber": "14", "addr:postcode": "20125", "addr:street": "Via Giovanni Schiaparelli", "amenity": "pub", "currency:XBT": "yes", "name": "Nik's & Co", "opening_hours": "Mo-Sa 07:00-02:00", "payment:bitcoin": "yes", "payment:bitcoin:operator": "inbitcoin.it", "website": "http://niksandco.it/"}}, {"type": "Feature", "id": 4770096721, "geometry": {"type": "Point", "coordinates": [9.1756177, 45.4527235]}, "properties": {"addr:city": "Milano", "addr:housenumber": "3", "addr:postcode": "20144", "addr:street": "Via Vigevano", "amenity": "pub", "name": "Cape Town Cafe", "opening_hours": "Mo-Su 18:00-02:00", "phone": "+39 02 89403053", "ref:vatin": "IT12840810159", "website": "http://capetowncafe.it"}}, {"type": "Feature", "id": 4916936129, "geometry": {"type": "Point", "coordinates": [9.1820534, 45.4520993]}, "properties": {"addr:city": "Milano", "addr:housenumber": "4", "addr:street": "Viale Col di Lana", "amenity": "pub", "contact:phone": "+39 02 8373335", "name": "Hernry's Caf\u00e8", "phone": "+39 02 837 3335", "ref:vatin": "IT02634250159"}}, {"type": "Feature", "id": 4949740193, "geometry": {"type": "Point", "coordinates": [9.1845842, 45.4382102]}, "properties": {"addr:city": "Milano", "addr:housenumber": "14", "addr:postcode": "20141", "addr:street": "Via privata Sant'Ampellio", "amenity": "pub", "contact:facebook": "https://www.facebook.com/LaBirrofila", "name": "La Birrofila", "phone": "+39 02 3672 3336", "website": "http://labirrofila.com"}}, {"type": "Feature", "id": 4985228946, "geometry": {"type": "Point", "coordinates": [9.1935316, 45.4984325]}, "properties": {"addr:city": "Milano", "addr:country": "IT", "addr:housenumber": "5", "addr:postcode": "20159", "addr:street": "Largo Vulci", "amenity": "pub", "name": "Birreria Okey"}}, {"type": "Feature", "id": 4985229451, "geometry": {"type": "Point", "coordinates": [9.1922736, 45.4965543]}, "properties": {"addr:city": "Milano", "addr:country": "IT", "addr:housenumber": "2", "addr:postcode": "20159", "addr:street": "Via Gioacchino Murat", "alt_name": "La Miniera", "amenity": "pub", "email": "info@bedahouse.it", "name": "Beda House", "phone": "+39 02 603282", "website": "http://www.bedahouse.it/"}}, {"type": "Feature", "id": 5122368869, "geometry": {"type": "Point", "coordinates": [9.2006239, 45.5111924]}, "properties": {"amenity": "pub", "name": "Sporting Pub"}}, {"type": "Feature", "id": 5154117623, "geometry": {"type": "Point", "coordinates": [9.2052687, 45.4480409]}, "properties": {"amenity": "pub", "name": "Bere Buona Birra", "opening_hours": "Mo-Fr 12:00-22:00; Sa,Su 10:00-22:00", "phone": "+39 02 87394371", "website": "http://www.berebuonabirra.com"}}, {"type": "Feature", "id": 5194531666, "geometry": {"type": "Point", "coordinates": [9.1675973, 45.4814927]}, "properties": {"addr:city": "Milano", "addr:country": "IT", "addr:housenumber": "61", "addr:postcode": "20154", "addr:street": "Via Giulio Cesare Procaccini", "alt_name": "FourFourTwo Sports Pub", "amenity": "pub", "name": "442 Sports Pub", "phone": "+39 02 39448023", "website": "https://www.fourfourtwo.it/"}}, {"type": "Feature", "id": 5195784839, "geometry": {"type": "Point", "coordinates": [9.1892575, 45.5405486]}, "properties": {"addr:city": "Bresso", "addr:housenumber": "18", "addr:postcode": "20091", "addr:street": "Via Vittorio Veneto", "amenity": "pub", "name": "Square"}}, {"type": "Feature", "id": 5204024186, "geometry": {"type": "Point", "coordinates": [9.1937963, 45.5336726]}, "properties": {"amenity": "pub"}}, {"type": "Feature", "id": 5204108789, "geometry": {"type": "Point", "coordinates": [9.1942523, 45.5317335]}, "properties": {"amenity": "pub", "name": "Tir Na Nog"}}, {"type": "Feature", "id": 5234407014, "geometry": {"type": "Point", "coordinates": [9.2346208, 45.4839644]}, "properties": {"addr:city": "Milano", "addr:housenumber": "66", "addr:postcode": "20131", "addr:street": "Via Giovanni Pacini", "addr:unit": "Via", "amenity": "pub", "brewery": "yes", "email": "info@birrificiobelgrano.com", "name": "Birrificio Belgrano", "ref:vatin": "IT08844600968", "smoking": "no", "website": "https://www.birrificiobelgrano.com"}}, {"type": "Feature", "id": 5336318126, "geometry": {"type": "Point", "coordinates": [9.1602285, 45.4522663]}, "properties": {"addr:housenumber": "30", "addr:street": "Via Enrico Stendhal", "amenity": "pub", "email": "info@beergallery.it", "level": "0", "name": "Beer Gallery", "phone": "+39 84345136", "shop": "pastry", "website": "http://www.beergallery.it"}}, {"type": "Feature", "id": 5384543215, "geometry": {"type": "Point", "coordinates": [9.1553057, 45.45509]}, "properties": {"amenity": "pub", "name": "Brew Pub Yankee", "toilets": "yes", "toilets:wheelchair": "yes", "wheelchair": "yes"}}, {"type": "Feature", "id": 5450827938, "geometry": {"type": "Point", "coordinates": [9.1722295, 45.4532032]}, "properties": {"addr:city": "Milano", "addr:country": "IT", "addr:housenumber": "20", "addr:postcode": "20144", "addr:street": "Via Vigevano", "amenity": "pub", "email": "ptagenova@themeatballfamily.com", "name": "Meatball Family", "opening_hours": "Mo-Su 12:00-24:00", "phone": "+39 02 45471809", "website": "http://www.themeatballfamily.com/it/"}}, {"type": "Feature", "id": 5484148887, "geometry": {"type": "Point", "coordinates": [9.2256001, 45.5328567]}, "properties": {"addr:city": "Sesto San Giovanni", "addr:country": "IT", "addr:housenumber": "48", "addr:postcode": "20099", "addr:street": "Via 20 Settembre", "alt_name": "Al Quarantotto", "amenity": "pub", "name": "Al 48"}}, {"type": "Feature", "id": 5567294372, "geometry": {"type": "Point", "coordinates": [9.1745576, 45.4584882]}, "properties": {"addr:city": "Milano", "addr:country": "IT", "addr:housenumber": "15", "addr:postcode": "20123", "addr:street": "Via San Vincenzo", "amenity": "pub", "email": "info@labucadisanvincenzo.com", "name": "La Buca di San Vincenzo", "opening_hours": "Mo-Fr 18:30-02:30; Sa,Su 21:30-02:30", "phone": "+39 02 89415964", "website": "http://www.labucadisanvincenzo.com/"}}, {"type": "Feature", "id": 5595438021, "geometry": {"type": "Point", "coordinates": [9.2468138, 45.4846273]}, "properties": {"addr:street": "Via Giovanni Ventura", "amenity": "pub", "name": "east market milano"}}, {"type": "Feature", "id": 5690450190, "geometry": {"type": "Point", "coordinates": [9.2028058, 45.4791943]}, "properties": {"amenity": "pub", "brewery": "yes", "name": "Pav\u00e8 - Birra"}}, {"type": "Feature", "id": 5708724310, "geometry": {"type": "Point", "coordinates": [9.1932558, 45.450733]}, "properties": {"amenity": "pub", "name": "Barbruto"}}, {"type": "Feature", "id": 5774917700, "geometry": {"type": "Point", "coordinates": [9.1365293, 45.5394353]}, "properties": {"addr:city": "Novate Milanese", "addr:housenumber": "9", "addr:postcode": "20026", "addr:street": "Piazza della Pace", "amenity": "pub", "name": "Il Mago di Oz", "outdoor_seating": "yes", "phone": "+39 340 401 52 54", "website": "https://www.facebook.com/ilmagonovate/"}}, {"type": "Feature", "id": 5798824006, "geometry": {"type": "Point", "coordinates": [9.2134279, 45.4542339]}, "properties": {"amenity": "pub", "name": "Bar 46"}}, {"type": "Feature", "id": 5798824019, "geometry": {"type": "Point", "coordinates": [9.1929293, 45.4583057]}, "properties": {"amenity": "pub", "name": "Il Piccolo Bistro"}}, {"type": "Feature", "id": 5798824057, "geometry": {"type": "Point", "coordinates": [9.2124913, 45.453058]}, "properties": {"amenity": "pub", "name": "Stranobar"}}, {"type": "Feature", "id": 5800748798, "geometry": {"type": "Point", "coordinates": [9.2008987, 45.4723359]}, "properties": {"amenity": "pub"}}, {"type": "Feature", "id": 5892421069, "geometry": {"type": "Point", "coordinates": [9.1463299, 45.4402953]}, "properties": {"amenity": "pub", "name": "Ittolitos"}}, {"type": "Feature", "id": 6138662451, "geometry": {"type": "Point", "coordinates": [9.2328474, 45.5296174]}, "properties": {"addr:city": "Sesto San Giovanni", "addr:country": "IT", "addr:housenumber": "100", "addr:postcode": "20099", "addr:street": "Via Felice Cavallotti", "amenity": "pub", "name": "Molly Malone"}}, {"type": "Feature", "id": 6277563909, "geometry": {"type": "Point", "coordinates": [9.3057401, 45.4739416]}, "properties": {"amenity": "pub", "name": "The Grey Cat Pub"}}, {"type": "Feature", "id": 6293216720, "geometry": {"type": "Point", "coordinates": [9.2246976, 45.5062384]}, "properties": {"addr:city": "Milano", "addr:housenumber": "14", "addr:postcode": "20128", "addr:street": "Via Aristotele", "amenity": "pub", "brewery": "yes", "name": "John Barleycorn", "smoking": "no"}}, {"type": "Feature", "id": 6422056060, "geometry": {"type": "Point", "coordinates": [9.154891, 45.4784141]}, "properties": {"amenity": "pub", "name": "Brooklyn pub"}}, {"type": "Feature", "id": 6522050103, "geometry": {"type": "Point", "coordinates": [9.152231, 45.4440412]}, "properties": {"addr:city": "Milano", "addr:housenumber": "18", "addr:postcode": "20143", "addr:street": "Via Giacomo Watt", "amenity": "pub", "name": "Octopus"}}, {"type": "Feature", "id": 6539942450, "geometry": {"type": "Point", "coordinates": [9.1873664, 45.4889694]}, "properties": {"addr:street": "Via Antonio Pollaiuolo", "amenity": "pub", "brewery": "yes", "microbrewery": "no", "name": "3/4"}}, {"type": "Feature", "id": 6539942453, "geometry": {"type": "Point", "coordinates": [9.1892051, 45.4891069]}, "properties": {"amenity": "pub", "brewery": "yes", "microbrewery": "yes", "name": "BeerShow"}}, {"type": "Feature", "id": 59590846, "geometry": {"type": "Point", "coordinates": [9.1892051, 45.4891069]}, "properties": {"addr:housenumber": "31", "addr:street": "Viale Toscana", "amenity": "pub", "building": "yes", "contact:website": "https://www.santeria.milano.it", "email": "hello@santeriasocial.club", "name": "Santeria Social Club", "opening_hours": "Su-Mo 11:00-01:00, Tu-Th 11:00-02:00, Fr-Sa 11:00-03:00", "phone": "+39 02 221 993 81", "start_date": "2015-11-09"}}, {"type": "Feature", "id": 304261292, "geometry": {"type": "Point", "coordinates": [9.1892051, 45.4891069]}, "properties": {"addr:housenumber": "83", "addr:street": "Via Barnaba Oriani", "amenity": "pub", "building": "yes", "name": "Colorado Pub"}}, {"type": "Feature", "id": 322686770, "geometry": {"type": "Point", "coordinates": [9.1892051, 45.4891069]}, "properties": {"addr:city": "Milano", "addr:country": "IT", "addr:housenumber": "16", "addr:postcode": "20157", "addr:street": "Via privata Venezia Giulia", "amenity": "pub", "building": "yes", "name": "Castle Rock Caf\u00e8"}}, {"type": "Feature", "id": 335185396, "geometry": {"type": "Point", "coordinates": [9.1892051, 45.4891069]}, "properties": {"addr:housenumber": "20", "addr:street": "Via Conchetta", "alt_name": "Sacrestia Farmacia Alcolica", "amenity": "pub", "contact:email": "sacrestia@gmail.com", "contact:mobile": "+39 339 4179159", "contact:phone": "+39 02 89454813", "name": "Sacrestia", "website": "http://sacrestia.com/"}}, {"type": "Feature", "id": 342789165, "geometry": {"type": "Point", "coordinates": [9.1892051, 45.4891069]}, "properties": {"addr:city": "Milano", "addr:housenumber": "44", "addr:street": "Via Luigi Bertelli", "amenity": "pub", "building": "yes", "name": "Cascina Martesana", "opening_hours": "Aug: Mo-Fr 18:00-01:00, Aug: Sa,Su 11:00-01:00", "outdoor_seating": "yes", "phone": "+39 389 58 20 695", "smoking": "outside", "website": "http://www.cascinamartesana.com/", "wheelchair": "yes"}}, {"type": "Feature", "id": 410745325, "geometry": {"type": "Point", "coordinates": [9.1892051, 45.4891069]}, "properties": {"amenity": "pub", "building": "yes", "building:levels": "1", "name": "La Chiesetta", "website": "http://www.lachiesetta.it"}}, {"type": "Feature", "id": 496611170, "geometry": {"type": "Point", "coordinates": [9.1892051, 45.4891069]}, "properties": {"addr:city": "Milano", "addr:housenumber": "3", "addr:postcode": "20158", "addr:street": "Via Cevedale", "amenity": "pub", "building": "yes", "contact:facebook": "https://www.facebook.com/birrificiolaribalta/", "email": "info@birrificiolaribalta.com", "name": "Birrificio La Ribalta", "outdoor_seating": "yes", "phone": "+39 348 524 9651", "website": "https://www.birrificiolaribalta.com/"}}, {"type": "Feature", "id": 245056043, "geometry": {"type": "Point", "coordinates": [9.138043, 45.4616341]}, "properties": {"amenity": "pub", "name": "La Pazzeria"}}, {"type": "Feature", "id": 258035689, "geometry": {"type": "Point", "coordinates": [9.2037648, 45.4506704]}, "properties": {"amenity": "pub", "created_by": "JOSM", "name": "Pogue Mahone's", "toilets:wheelchair": "no", "wheelchair": "limited"}}, {"type": "Feature", "id": 269924613, "geometry": {"type": "Point", "coordinates": [9.1850601, 45.4784549]}, "properties": {"addr:city": "Milano", "addr:country": "IT", "addr:housenumber": "5", "addr:postcode": "20121", "addr:street": "Largo La Foppa", "amenity": "pub", "email": "radetzkycafe@libero.it", "name": "Radetzky Caf\u00e9", "operator": "La Foppa s.r.l.", "phone": "+39 02 6572645", "ref:vatin": "IT09240200155", "website": "http://www.radetzky.it/"}}, {"type": "Feature", "id": 269924649, "geometry": {"type": "Point", "coordinates": [9.1832687, 45.4799222]}, "properties": {"addr:city": "Milano", "addr:country": "IT", "addr:housenumber": "13", "addr:postcode": "20121", "addr:street": "Via Alessandro Volta", "amenity": "pub", "name": "Scott Duff", "website": "http://www.scottduff.it"}}, {"type": "Feature", "id": 269924846, "geometry": {"type": "Point", "coordinates": [9.1889733, 45.4797332]}, "properties": {"addr:city": "Milano", "addr:housenumber": "56", "addr:street": "Via Solferino", "amenity": "pub", "name": "Baladin Milano"}}, {"type": "Feature", "id": 272876491, "geometry": {"type": "Point", "coordinates": [9.1707677, 45.4588109]}, "properties": {"addr:city": "Milano", "addr:country": "IT", "addr:housenumber": "21", "addr:street": "Via Cesare da Sesto", "amenity": "pub", "contact:phone": "+39 02 89402662", "name": "The Old Fox Pub", "operator": "Rustrad s.r.l.", "ref:vatin": "IT10704220150"}}, {"type": "Feature", "id": 281593280, "geometry": {"type": "Point", "coordinates": [9.1523306, 45.466786]}, "properties": {"addr:city": "Milano", "addr:country": "IT", "addr:housenumber": "37", "addr:postcode": "20149", "addr:street": "Via Marghera", "amenity": "pub", "name": "Marghera 37"}}, {"type": "Feature", "id": 281819167, "geometry": {"type": "Point", "coordinates": [9.198145, 45.4949167]}, "properties": {"amenity": "pub", "name": "Il gatto e la volpe"}}, {"type": "Feature", "id": 281819170, "geometry": {"type": "Point", "coordinates": [9.197087, 45.4950751]}, "properties": {"amenity": "pub", "created_by": "JOSM", "name": "Tequila"}}, {"type": "Feature", "id": 281819178, "geometry": {"type": "Point", "coordinates": [9.1888396, 45.4893238]}, "properties": {"addr:city": "Milano", "addr:country": "IT", "addr:housenumber": "35", "addr:postcode": "20159", "addr:street": "Via Pietro Borsieri", "amenity": "pub", "name": "Nordest", "opening_hours": "08:00 - 01:00", "outdoor_seating": "yes", "phone": "+39 02 6900 1910", "smoking": "outside"}}, {"type": "Feature", "id": 281828130, "geometry": {"type": "Point", "coordinates": [9.208342, 45.5141993]}, "properties": {"addr:city": "Milano", "addr:housenumber": "12", "addr:street": "Via Nicol\u00f2 Fortiguerra", "amenity": "pub", "name": "Tempi moderni"}}, {"type": "Feature", "id": 282646785, "geometry": {"type": "Point", "coordinates": [9.1528367, 45.4609976]}, "properties": {"amenity": "pub", "name": "Il Tombino"}}, {"type": "Feature", "id": 290993216, "geometry": {"type": "Point", "coordinates": [9.2064151, 45.4596135]}, "properties": {"amenity": "pub", "name": "Hop"}}, {"type": "Feature", "id": 301979235, "geometry": {"type": "Point", "coordinates": [9.1692728, 45.450409]}, "properties": {"amenity": "pub", "created_by": "Potlatch 0.10c", "name": "Wizard"}}, {"type": "Feature", "id": 301979316, "geometry": {"type": "Point", "coordinates": [9.17768, 45.4518459]}, "properties": {"amenity": "pub", "name": "Le Fontanelle"}}, {"type": "Feature", "id": 304775595, "geometry": {"type": "Point", "coordinates": [9.175656, 45.465692]}, "properties": {"addr:city": "Milano", "addr:country": "IT", "addr:housenumber": "13", "addr:postcode": "20123", "addr:street": "Via Giosu\u00e8 Carducci", "amenity": "pub", "cuisine": "italian", "email": "info@barmagenta.it", "food": "yes", "name": "Bar Magenta", "opening_hours": "Mo-Su 07:30-02:00", "outdoor_seating": "yes", "phone": "+39 02 8053808", "smoking": "outside", "website": "http://barmagenta.it/"}}, {"type": "Feature", "id": 310072010, "geometry": {"type": "Point", "coordinates": [9.2233689, 45.4757092]}, "properties": {"amenity": "pub", "name": "Matricola", "wheelchair": "no"}}, {"type": "Feature", "id": 313056102, "geometry": {"type": "Point", "coordinates": [9.2015922, 45.4801747]}, "properties": {"amenity": "pub", "name": "Sohos"}}, {"type": "Feature", "id": 313056107, "geometry": {"type": "Point", "coordinates": [9.2016606, 45.4803007]}, "properties": {"amenity": "pub", "name": "Outback caf\u00e9"}}, {"type": "Feature", "id": 316123729, "geometry": {"type": "Point", "coordinates": [9.141827, 45.4445967]}, "properties": {"amenity": "pub", "name": "Camarillo Brillo"}}, {"type": "Feature", "id": 318431242, "geometry": {"type": "Point", "coordinates": [9.1446995, 45.4451996]}, "properties": {"amenity": "pub", "name": "Tin Whistle"}}, {"type": "Feature", "id": 320363956, "geometry": {"type": "Point", "coordinates": [9.2164769, 45.4547927]}, "properties": {"amenity": "pub", "created_by": "Potlatch 0.10f", "name": "Batik"}}, {"type": "Feature", "id": 324191045, "geometry": {"type": "Point", "coordinates": [9.1759075, 45.5484668]}, "properties": {"addr:city": "Cusano Milanino", "addr:country": "IT", "addr:district": "Cusano", "addr:housenumber": "9", "addr:postcode": "20095", "addr:street": "Via Omodei", "amenity": "pub", "name": "Place's Pub"}}, {"type": "Feature", "id": 333755292, "geometry": {"type": "Point", "coordinates": [9.2280645, 45.4696964]}, "properties": {"amenity": "pub", "name": "Murphy's Pub", "wheelchair": "no"}}, {"type": "Feature", "id": 333755293, "geometry": {"type": "Point", "coordinates": [9.2268801, 45.470509]}, "properties": {"addr:city": "Milano", "addr:housenumber": "13", "addr:postcode": "20133", "addr:street": "Piazza Francesco Guardi", "amenity": "pub", "name": "Le Coq"}}, {"type": "Feature", "id": 340096546, "geometry": {"type": "Point", "coordinates": [9.187111, 45.4887512]}, "properties": {"addr:city": "Milano", "addr:housenumber": "3", "addr:postcode": "20159", "addr:street": "Via Antonio Pollaiuolo", "amenity": "pub", "name": "Frida", "opening_hours": "Mo-Fr 10:00-15:00,18:00-02:00; Sa 16:00-02:00; Su 12:00-01:00", "phone": "+39 02 680260", "smoking": "outside", "website": "http://www.fridaisola.it/", "wheelchair": "limited"}}, {"type": "Feature", "id": 345599465, "geometry": {"type": "Point", "coordinates": [9.2061643, 45.4587087]}, "properties": {"amenity": "pub", "name": "Mom"}}, {"type": "Feature", "id": 370260488, "geometry": {"type": "Point", "coordinates": [9.1980977, 45.536514]}, "properties": {"amenity": "pub", "name": "Officina della Birra"}}, {"type": "Feature", "id": 374411346, "geometry": {"type": "Point", "coordinates": [9.1841339, 45.4790873]}, "properties": {"addr:city": "Milano", "addr:country": "IT", "addr:housenumber": "4", "addr:postcode": "20121", "addr:street": "Via Alessandro Volta", "amenity": "pub", "name": "The Manhattan"}}, {"type": "Feature", "id": 392260544, "geometry": {"type": "Point", "coordinates": [9.1677301, 45.4894039]}, "properties": {"amenity": "pub", "name": "Mulligan's"}}, {"type": "Feature", "id": 392260637, "geometry": {"type": "Point", "coordinates": [9.1675217, 45.4890802]}, "properties": {"amenity": "pub", "name": "The Saints and the Scholars"}}, {"type": "Feature", "id": 408781426, "geometry": {"type": "Point", "coordinates": [9.1553746, 45.4474586]}, "properties": {"amenity": "pub", "name": "Woodstock"}}, {"type": "Feature", "id": 411816864, "geometry": {"type": "Point", "coordinates": [9.1286846, 45.4802593]}, "properties": {"amenity": "pub", "name": "Chiringuito"}}, {"type": "Feature", "id": 411817076, "geometry": {"type": "Point", "coordinates": [9.1648819, 45.4865484]}, "properties": {"addr:city": "Milano", "addr:country": "IT", "addr:housenumber": "36", "addr:postcode": "20154", "addr:street": "Via Losanna", "amenity": "pub", "email": "bqdenott@gmail.com", "name": "BQ", "phone": "+39 338 9116065", "website": "http://www.bqmilano.it/004/"}}, {"type": "Feature", "id": 413453163, "geometry": {"type": "Point", "coordinates": [9.2810819, 45.524925]}, "properties": {"amenity": "pub"}}, {"type": "Feature", "id": 418360920, "geometry": {"type": "Point", "coordinates": [9.1805976, 45.446903]}, "properties": {"addr:city": "Milano", "addr:housenumber": "7", "addr:postcode": "20136", "addr:street": "Via Francesco Brioschi", "amenity": "pub", "brewery": "Tennents;Kilkenny;Guinness", "kitchen": "regional;hamburger", "motorcycle:theme": "yes", "name": "Blues Bikers Pub", "opening_hours": "Tu-Su 19:00-02:00; Mo off", "opening_hours:kitchen": "Tu-Su 19:30-01:30; Mo off", "website": "http://www.bluesbikerspub.com"}}, {"type": "Feature", "id": 506110369, "geometry": {"type": "Point", "coordinates": [9.1802826, 45.443783]}, "properties": {"amenity": "pub"}}, {"type": "Feature", "id": 506114631, "geometry": {"type": "Point", "coordinates": [9.1897242, 45.451173]}, "properties": {"amenity": "pub", "name": "Taxi Blues"}}, {"type": "Feature", "id": 524320493, "geometry": {"type": "Point", "coordinates": [9.2315149, 45.4857051]}, "properties": {"addr:city": "Milano", "addr:housenumber": "5", "addr:postcode": "20131", "addr:street": "Via Privata Adelchi", "amenity": "pub", "microbrewery": "yes", "name": "Birrificio Lambrate", "opening_hours": "Mo 00:00-02:30; Tu 18:00-24:00; We-Su 00:00-02:30,18:00-24:00", "phone": "+39 02 70638678", "smoking": "no", "website": "http://www.birrificiolambrate.com/", "wikidata": "Q24702775", "wikipedia": "en:Birrificio Lambrate"}}, {"type": "Feature", "id": 528848408, "geometry": {"type": "Point", "coordinates": [9.1706728, 45.4565354]}, "properties": {"addr:city": "Milano", "addr:country": "IT", "addr:housenumber": "59", "addr:street": "Viale Coni Zugna", "amenity": "pub", "name": "Al Confine"}}, {"type": "Feature", "id": 534340615, "geometry": {"type": "Point", "coordinates": [9.2342317, 45.4736675]}, "properties": {"addr:city": "Milano", "addr:housenumber": "29", "addr:postcode": "20133", "addr:street": "Via Gaetano Strambio", "amenity": "pub", "name": "Au Vieux Strasbourg", "opening_hours": "Mo-Sa 07:00-02:00; Su 18:00-00:00", "phone": "+39 02 70630062"}}, {"type": "Feature", "id": 539125787, "geometry": {"type": "Point", "coordinates": [9.1602382, 45.4867785]}, "properties": {"amenity": "pub", "name": "Stalingrado"}}, {"type": "Feature", "id": 539236919, "geometry": {"type": "Point", "coordinates": [9.2111879, 45.5146215]}, "properties": {"amenity": "pub", "name": "Osteria delle Erbe"}}, {"type": "Feature", "id": 541052316, "geometry": {"type": "Point", "coordinates": [9.1671499, 45.4871573]}, "properties": {"addr:city": "Milano", "addr:country": "IT", "addr:housenumber": "37", "addr:postcode": "20154", "addr:street": "Via Cenisio", "amenity": "pub", "name": "Malt"}}, {"type": "Feature", "id": 543398353, "geometry": {"type": "Point", "coordinates": [9.1640946, 45.4831171]}, "properties": {"amenity": "pub", "name": "Whisky Bar"}}, {"type": "Feature", "id": 559731761, "geometry": {"type": "Point", "coordinates": [9.1786259, 45.4458102]}, "properties": {"amenity": "pub", "name": "Nox"}}, {"type": "Feature", "id": 559731854, "geometry": {"type": "Point", "coordinates": [9.178355, 45.4455769]}, "properties": {"addr:city": "Milano", "addr:country": "IT", "addr:housenumber": "5", "addr:postcode": "20136", "addr:street": "Via Evangelista Torricelli", "amenity": "pub", "name": "Frizzi & Lazzi"}}, {"type": "Feature", "id": 567547732, "geometry": {"type": "Point", "coordinates": [9.2364606, 45.4807579]}, "properties": {"amenity": "pub", "name": "Neon"}}, {"type": "Feature", "id": 593509312, "geometry": {"type": "Point", "coordinates": [9.1944915, 45.4510576]}, "properties": {"amenity": "pub", "name": "Volo"}}, {"type": "Feature", "id": 613614569, "geometry": {"type": "Point", "coordinates": [9.2352638, 45.4811644]}, "properties": {"amenity": "pub", "name": "JJ's corner", "phone": "+39 02 70600004"}}, {"type": "Feature", "id": 614695445, "geometry": {"type": "Point", "coordinates": [9.2282944, 45.470696]}, "properties": {"addr:city": "Milano", "addr:housenumber": "9", "addr:postcode": "20133", "addr:street": "Via Giovanni Briosi", "amenity": "pub", "name": "Barbarian's"}}, {"type": "Feature", "id": 660684257, "geometry": {"type": "Point", "coordinates": [9.1874477, 45.5425071]}, "properties": {"amenity": "pub", "name": "Pollicino"}}, {"type": "Feature", "id": 661079651, "geometry": {"type": "Point", "coordinates": [9.1780228, 45.4507319]}, "properties": {"addr:housenumber": "9", "addr:postcode": "20136", "addr:street": "Via Ascanio Sforza", "amenity": "pub", "name": "Slice Caf\u00e8", "opening_hours": "Mo-Su 18:00-02:00"}}, {"type": "Feature", "id": 662838605, "geometry": {"type": "Point", "coordinates": [9.1776263, 45.4520811]}, "properties": {"addr:city": "Milano", "addr:country": "IT", "addr:housenumber": "2", "addr:street": "Alzaia Naviglio Pavese", "amenity": "pub", "name": "Al Coccio", "operator": "Pontell S.r.l.", "ref:vatin": "IT12942650156"}}, {"type": "Feature", "id": 667274860, "geometry": {"type": "Point", "coordinates": [9.1792204, 45.4462528]}, "properties": {"amenity": "pub", "name": "La Belle Alliance"}}, {"type": "Feature", "id": 672888406, "geometry": {"type": "Point", "coordinates": [9.2127528, 45.377352]}, "properties": {"amenity": "pub", "name": "American Bar", "wheelchair": "no"}}, {"type": "Feature", "id": 672889143, "geometry": {"type": "Point", "coordinates": [9.2118945, 45.3776986]}, "properties": {"amenity": "pub"}}, {"type": "Feature", "id": 730982996, "geometry": {"type": "Point", "coordinates": [9.1730117, 45.4575857]}, "properties": {"amenity": "pub", "name": "La bottega del caffe' (Marinella)"}}, {"type": "Feature", "id": 746952033, "geometry": {"type": "Point", "coordinates": [9.1751395, 45.4532362]}, "properties": {"amenity": "pub", "name": "Red Dragon"}}, {"type": "Feature", "id": 915433043, "geometry": {"type": "Point", "coordinates": [9.2712574, 45.5245539]}, "properties": {"amenity": "pub", "name": "Lord Byron"}}, {"type": "Feature", "id": 995633483, "geometry": {"type": "Point", "coordinates": [9.1522944, 45.4673931]}, "properties": {"amenity": "pub"}}, {"type": "Feature", "id": 1003136479, "geometry": {"type": "Point", "coordinates": [9.1429441, 45.4727012]}, "properties": {"amenity": "pub"}}, {"type": "Feature", "id": 1476116765, "geometry": {"type": "Point", "coordinates": [9.2436236, 45.4380288]}, "properties": {"addr:city": "Milano", "addr:housenumber": "25", "addr:postcode": "20138", "addr:street": "Via Bruno Cassinari", "amenity": "pub", "email": "nuovamilano09cafe@yahoo.it", "name": "Nuova Milano 09", "phone": "+39 02 5162 1588", "wheelchair": "yes"}}, {"type": "Feature", "id": 1650252755, "geometry": {"type": "Point", "coordinates": [9.2262905, 45.4685247]}, "properties": {"amenity": "pub", "name": "Birreria Stella"}}, {"type": "Feature", "id": 1669463936, "geometry": {"type": "Point", "coordinates": [9.2596577, 45.4188143]}, "properties": {"addr:city": "San Donato Milanese", "addr:housenumber": "7", "addr:postcode": "20097", "addr:street": "Via Gaetano Salvemini", "amenity": "pub", "name": "il Cedro"}}, {"type": "Feature", "id": 1679694028, "geometry": {"type": "Point", "coordinates": [9.2344504, 45.4796769]}, "properties": {"addr:city": "Milano", "addr:housenumber": "60", "addr:postcode": "20133", "addr:street": "Via Camillo Golgi", "amenity": "pub", "brewery": "yes;various", "contact:email": "golgi@birrificiolambrate.com", "contact:facebook": "https://www.facebook.com/BirrificioLambrate/", "contact:instagram": "https://www.instagram.com/birrificiolambrate/", "contact:website": "http://birrificiolambrate.com", "name": "Birrificio Lambrate", "opening_hours": "Mo-Fr 12:00-02:00; Sa 19:00-02:00", "phone": "+39 02 84961890", "wheelchair": "yes", "wifi": "no"}}, {"type": "Feature", "id": 1679695858, "geometry": {"type": "Point", "coordinates": [9.2255218, 45.4772546]}, "properties": {"addr:city": "Milano", "addr:housenumber": "10", "addr:street": "Piazza Leonardo da Vinci", "amenity": "pub", "name": "Harp Pub", "phone": "+39 02 36686194", "wheelchair": "no", "wifi": "no"}}, {"type": "Feature", "id": 1726715782, "geometry": {"type": "Point", "coordinates": [9.1879899, 45.4696072]}, "properties": {"addr:housenumber": "3", "addr:street": "Via Brera", "amenity": "pub", "name": "O' Connell Country Pub", "operator": "Caff\u00e8 Milano srl", "phone": "+39 02 72094888", "ref:vatin": "IT05595890962"}}, {"type": "Feature", "id": 1758176372, "geometry": {"type": "Point", "coordinates": [9.254188, 45.4883457]}, "properties": {"amenity": "pub", "name": "East End"}}, {"type": "Feature", "id": 1780898658, "geometry": {"type": "Point", "coordinates": [9.2543569, 45.4190665]}, "properties": {"amenity": "pub", "name": "Stoker"}}, {"type": "Feature", "id": 1901845023, "geometry": {"type": "Point", "coordinates": [9.2247833, 45.490367]}, "properties": {"amenity": "pub", "name": "Leoncavallo"}}, {"type": "Feature", "id": 1921825115, "geometry": {"type": "Point", "coordinates": [9.2360635, 45.4831972]}, "properties": {"amenity": "pub", "name": "L'osteria di Lambrate"}}, {"type": "Feature", "id": 1922469810, "geometry": {"type": "Point", "coordinates": [9.2585807, 45.4204047]}, "properties": {"addr:city": "San Donato Milanese", "addr:housenumber": "2", "addr:postcode": "20097", "addr:street": "Piazza Supercortemaggiore", "amenity": "pub", "name": "Bunshee"}}, {"type": "Feature", "id": 1922482663, "geometry": {"type": "Point", "coordinates": [9.2652156, 45.4232725]}, "properties": {"amenity": "pub", "name": "Mulberry St"}}, {"type": "Feature", "id": 1923630892, "geometry": {"type": "Point", "coordinates": [9.2235692, 45.4686909]}, "properties": {"addr:housenumber": "7", "addr:street": "Piazzale Susa", "amenity": "pub", "contact:phone": "+39 02 7490200", "name": "Blender", "operator": "Bandello 22 srl", "ref:vatin": "12649500159"}}, {"type": "Feature", "id": 1923838407, "geometry": {"type": "Point", "coordinates": [9.2167302, 45.4787442]}, "properties": {"addr:housenumber": "33", "addr:street": "Viale Abruzzi", "amenity": "pub", "name": "Brasserie Bruxelles", "opening_hours": "Mo-Su 17:00-02:00", "website": "http://www.brasseriebruxelles.eu/"}}, {"type": "Feature", "id": 1969467067, "geometry": {"type": "Point", "coordinates": [9.214541, 45.4719305]}, "properties": {"addr:city": "Milano", "addr:country": "IT", "addr:housenumber": "1", "addr:postcode": "20129", "addr:street": "Via privata Giuseppe Abamonti", "amenity": "pub", "name": "La Belle Aurore", "wheelchair": "limited"}}, {"type": "Feature", "id": 1982605428, "geometry": {"type": "Point", "coordinates": [9.249968, 45.5264662]}, "properties": {"amenity": "pub", "name": "la baracca"}}, {"type": "Feature", "id": 2034349326, "geometry": {"type": "Point", "coordinates": [9.2315908, 45.4850744]}, "properties": {"amenity": "pub", "name": "Hemingway Caf\u00e9"}}, {"type": "Feature", "id": 2064483949, "geometry": {"type": "Point", "coordinates": [9.2146671, 45.4523978]}, "properties": {"addr:housenumber": "4", "addr:street": "Via Tito Livio", "amenity": "pub", "email": "info@kkofler.com", "name": "Kofler", "phone": "+39 02 54072997", "website": "https://kkofler.com/milano-2/"}}, {"type": "Feature", "id": 2074601161, "geometry": {"type": "Point", "coordinates": [9.2278901, 45.4819379]}, "properties": {"amenity": "pub", "name": "JustCaf\u00e9"}}, {"type": "Feature", "id": 2106515265, "geometry": {"type": "Point", "coordinates": [9.1853194, 45.4897114]}, "properties": {"addr:city": "Milano", "addr:country": "IT", "addr:housenumber": "18", "addr:postcode": "20159", "addr:street": "Via Medardo Rosso", "amenity": "pub", "name": "Isola Della Birra", "website": "http://www.isoladellabirra.com", "wifi": "free"}}, {"type": "Feature", "id": 2183326683, "geometry": {"type": "Point", "coordinates": [9.2675445, 45.5180943]}, "properties": {"addr:city": "Cologno Monzese", "addr:country": "IT", "addr:housenumber": "151", "addr:postcode": "20093", "addr:street": "Via Milano", "amenity": "pub", "name": "Big Murphy's"}}, {"type": "Feature", "id": 2226433641, "geometry": {"type": "Point", "coordinates": [9.2230517, 45.4676716]}, "properties": {"amenity": "pub", "name": "Cambridge"}}, {"type": "Feature", "id": 2226705927, "geometry": {"type": "Point", "coordinates": [9.177841, 45.4500031]}, "properties": {"amenity": "pub", "name": "camillo's Pub"}}, {"type": "Feature", "id": 2226705938, "geometry": {"type": "Point", "coordinates": [9.176693, 45.4452423]}, "properties": {"amenity": "pub", "name": "Gecho's pub"}}, {"type": "Feature", "id": 2226705950, "geometry": {"type": "Point", "coordinates": [9.1762958, 45.4456224]}, "properties": {"amenity": "pub", "name": "Mayflower pub"}}, {"type": "Feature", "id": 2226705962, "geometry": {"type": "Point", "coordinates": [9.1771597, 45.4492053]}, "properties": {"amenity": "pub", "name": "Ponte Vecchio Pub"}}, {"type": "Feature", "id": 2237701014, "geometry": {"type": "Point", "coordinates": [9.2118674, 45.5095876]}, "properties": {"addr:city": "Milano", "addr:country": "IT", "addr:housenumber": "50", "addr:postcode": "20125", "addr:street": "Via Roberto Cozzi", "amenity": "pub", "name": "Maga Furla"}}, {"type": "Feature", "id": 2239150621, "geometry": {"type": "Point", "coordinates": [9.1707302, 45.5003025]}, "properties": {"addr:city": "Milano", "addr:housenumber": "18", "addr:postcode": "20158", "addr:street": "Via Camillo Ugoni", "amenity": "pub", "end_date": "2016", "name": "Fermento Art&Pub", "website": "http://www.fermentoaep.com/"}}, {"type": "Feature", "id": 2262460459, "geometry": {"type": "Point", "coordinates": [9.1772402, 45.4520986]}, "properties": {"amenity": "pub", "name": "La Ringhiera"}}, {"type": "Feature", "id": 2263327147, "geometry": {"type": "Point", "coordinates": [9.215598, 45.4536701]}, "properties": {"addr:city": "Milano", "addr:country": "IT", "addr:housenumber": "58", "addr:street": "Viale Umbria", "amenity": "pub", "name": "Diana Pub", "postal_code": "20135", "ref:vatin": "IT06108860963"}}, {"type": "Feature", "id": 2404012459, "geometry": {"type": "Point", "coordinates": [9.1666413, 45.4550413]}, "properties": {"addr:city": "Milano", "addr:housenumber": "3", "addr:street": "Via Montevideo", "amenity": "pub", "level": "0", "name": "Murphy's Law", "outdoor_seating": "yes", "phone": "+390283242151"}}, {"type": "Feature", "id": 2416148107, "geometry": {"type": "Point", "coordinates": [9.1852718, 45.4805274]}, "properties": {"amenity": "pub", "name": "Jutland Pub"}}, {"type": "Feature", "id": 2438877458, "geometry": {"type": "Point", "coordinates": [9.1891153, 45.488411]}, "properties": {"addr:city": "Milano", "addr:country": "IT", "addr:housenumber": "24", "addr:postcode": "20159", "addr:street": "Via Pietro Borsieri", "amenity": "pub", "name": "Pub24"}}, {"type": "Feature", "id": 2461220919, "geometry": {"type": "Point", "coordinates": [9.2300155, 45.4648651]}, "properties": {"amenity": "pub", "name": "Paperoga"}}, {"type": "Feature", "id": 2479398382, "geometry": {"type": "Point", "coordinates": [9.188807, 45.4869267]}, "properties": {"addr:city": "Milano", "addr:country": "IT", "addr:housenumber": "16", "addr:postcode": "20159", "addr:street": "Via Pietro Borsieri", "amenity": "pub", "name": "Rosso Borsieri", "website": "http://www.rossoborsieri.it/"}}, {"type": "Feature", "id": 2482369389, "geometry": {"type": "Point", "coordinates": [9.1717146, 45.4512767]}, "properties": {"addr:city": "Milano", "addr:housenumber": "62", "addr:street": "Alzaia Naviglio Grande", "amenity": "pub", "name": "BQ - Birra artigianale"}}, {"type": "Feature", "id": 2744645396, "geometry": {"type": "Point", "coordinates": [9.1702028, 45.4509778]}, "properties": {"amenity": "pub", "name": "BQ - Pub"}}, {"type": "Feature", "id": 2744645399, "geometry": {"type": "Point", "coordinates": [9.1712214, 45.4512295]}, "properties": {"amenity": "pub", "name": "Indiana Post"}}, {"type": "Feature", "id": 2758108713, "geometry": {"type": "Point", "coordinates": [9.1713435, 45.4508611]}, "properties": {"addr:housenumber": "2", "addr:street": "Via Pasquale Paoli", "alt_name": "Bond Milano", "amenity": "pub", "contact:phone": "+39 02 87235881", "name": "Bond", "operator": "Crea Milano srl", "ref:vatin": "IT08384050962", "website": "http://www.bondmilano.it"}}, {"type": "Feature", "id": 2758108717, "geometry": {"type": "Point", "coordinates": [9.1710331, 45.4508194]}, "properties": {"amenity": "pub", "name": "Concordia Enoteca"}}, {"type": "Feature", "id": 2774913913, "geometry": {"type": "Point", "coordinates": [9.1708129, 45.4516102]}, "properties": {"amenity": "pub", "name": "Blues Canal"}}, {"type": "Feature", "id": 2943323660, "geometry": {"type": "Point", "coordinates": [9.1278585, 45.4803853]}, "properties": {"amenity": "pub"}}, {"type": "Feature", "id": 2954036032, "geometry": {"type": "Point", "coordinates": [9.2122145, 45.5148526]}, "properties": {"addr:city": "Milano", "addr:country": "IT", "addr:housenumber": "4a", "addr:street": "Piazza della Trivulziana", "amenity": "pub", "name": "Je suis Jambon", "smoking": "outside"}}, {"type": "Feature", "id": 2964293266, "geometry": {"type": "Point", "coordinates": [9.187804, 45.4896876]}, "properties": {"addr:city": "Milano", "addr:housenumber": "8", "addr:postcode": "20159", "addr:street": "Via Antonio Pollaiuolo", "amenity": "pub", "name": "Wasabi", "opening_hours": "21:00 - 2:00", "smoking": "no", "wheelchair": "limited"}}, {"type": "Feature", "id": 3049189423, "geometry": {"type": "Point", "coordinates": [9.1811925, 45.4835535]}, "properties": {"addr:city": "Milano", "addr:country": "IT", "addr:housenumber": "4", "addr:postcode": "20154", "addr:street": "Via Ceresio", "amenity": "pub", "name": "Biffi", "note:it": "accesso sia da Via Ceresio che da Via Farini"}}, {"type": "Feature", "id": 3051686250, "geometry": {"type": "Point", "coordinates": [9.1875031, 45.4877272]}, "properties": {"amenity": "pub", "name": "Vinyl", "phone": "+39 348 808 4916", "smoking": "outside"}}, {"type": "Feature", "id": 3078972718, "geometry": {"type": "Point", "coordinates": [9.1887328, 45.4809224]}, "properties": {"addr:city": "Milano", "addr:country": "IT", "addr:housenumber": "18", "addr:postcode": "20124", "addr:street": "Viale Monte Grappa", "amenity": "pub", "name": "Lucky Actors"}}, {"type": "Feature", "id": 3086120710, "geometry": {"type": "Point", "coordinates": [9.180703, 45.4452563]}, "properties": {"addr:city": "Milano", "addr:housenumber": "32", "addr:street": "Via Francesco Brioschi", "amenity": "pub", "contact:email": "info@tipota.net", "contact:facebook": "https://www.facebook.com/pages/Tipota-Pub/110774758949396", "name": "Tipota Pub", "opening_hours": "18:00 - 2:00", "phone": "+39 02 835 7777", "source": "https://www.facebook.com/pages/Tipota-Pub/110774758949396?sk=info", "website": "http://www.tipota.net/"}}, {"type": "Feature", "id": 3188691739, "geometry": {"type": "Point", "coordinates": [9.1762839, 45.4490246]}, "properties": {"addr:housenumber": "12", "addr:postcode": "20143", "addr:street": "Via Emilio Gola", "alt_name": "Nibida Theatre Live Music", "amenity": "pub", "contact:phone": "+39 339 3477512", "contact:website": "http://www.nidaba.it/", "fixme": "Position estimated", "name": "Nibida Theatre", "ref:vatin": "IT11464280152"}}, {"type": "Feature", "id": 3259520916, "geometry": {"type": "Point", "coordinates": [9.2075644, 45.4925338]}, "properties": {"addr:city": "Milano", "addr:housenumber": "11", "addr:postcode": "20125", "addr:street": "Via Giuseppe Bruschetti", "amenity": "pub", "name": "Rock'n'Roll Milano"}}, {"type": "Feature", "id": 3309054561, "geometry": {"type": "Point", "coordinates": [9.2201308, 45.5357949]}, "properties": {"addr:city": "Sesto San Giovanni", "addr:housenumber": "280", "addr:place": "Madrigal Pub", "addr:postcode": "20099", "addr:street": "Via Giuseppe Rovani", "amenity": "pub", "name": "Madrigal Irish Pub", "smoking": "no"}}, {"type": "Feature", "id": 3320456610, "geometry": {"type": "Point", "coordinates": [9.2222331, 45.5358515]}, "properties": {"addr:city": "Sesto San Giovanni", "addr:housenumber": "10", "addr:postcode": "20099", "addr:street": "Via Vincenzo Gioberti", "amenity": "pub", "name": "Consorzio Birre Pub", "opening_hours": "18:30-02:00", "phone": "+39 388 9822718", "smoking": "no"}}, {"type": "Feature", "id": 3351978678, "geometry": {"type": "Point", "coordinates": [9.1704697, 45.4507167]}, "properties": {"amenity": "pub", "name": "Pinch"}}, {"type": "Feature", "id": 3377195208, "geometry": {"type": "Point", "coordinates": [9.2234256, 45.4742999]}, "properties": {"amenity": "pub", "name": "Mind the Step"}}, {"type": "Feature", "id": 3386281235, "geometry": {"type": "Point", "coordinates": [9.1831976, 45.4892647]}, "properties": {"addr:city": "Milano", "addr:country": "IT", "addr:housenumber": "30", "addr:postcode": "20159", "addr:street": "Via Carlo Farini", "amenity": "pub", "name": "The Good Life"}}, {"type": "Feature", "id": 3446519536, "geometry": {"type": "Point", "coordinates": [9.1716692, 45.4512755]}, "properties": {"amenity": "pub", "name": "Banco"}}, {"type": "Feature", "id": 3472127842, "geometry": {"type": "Point", "coordinates": [9.1814693, 45.4409249]}, "properties": {"amenity": "pub", "name": "Abnormal"}}, {"type": "Feature", "id": 3523785342, "geometry": {"type": "Point", "coordinates": [9.237054, 45.5319312]}, "properties": {"addr:city": "Sesto San Giovanni", "addr:country": "IT", "addr:housenumber": "226", "addr:postcode": "20099", "addr:street": "Via Felice Cavallotti", "amenity": "pub", "name": "Mir"}}, {"type": "Feature", "id": 3578954006, "geometry": {"type": "Point", "coordinates": [9.2086831, 45.4975736]}, "properties": {"addr:housenumber": "194", "addr:postcode": "20125", "addr:street": "Via Melchiorre Gioia", "amenity": "pub", "name": "La buttega beer room", "opening_hours": "Mo-Fr 17:00-02:00; Sa-Su 15:00-02:00", "website": "http://www.labuttiga.it"}}, {"type": "Feature", "id": 3605721829, "geometry": {"type": "Point", "coordinates": [9.1811537, 45.4823676]}, "properties": {"addr:city": "Milano", "addr:country": "IT", "addr:housenumber": "3", "addr:postcode": "20154", "addr:street": "Piazzale Antonio Baiamonti", "amenity": "pub", "name": "Drago Verde"}}, {"type": "Feature", "id": 3661352945, "geometry": {"type": "Point", "coordinates": [9.1925759, 45.5238074]}, "properties": {"amenity": "pub", "name": "Tardis", "smoking": "outside"}}, {"type": "Feature", "id": 3753376616, "geometry": {"type": "Point", "coordinates": [9.2134173, 45.4541396]}, "properties": {"addr:housenumber": "46", "addr:street": "Via Friuli", "amenity": "pub", "name": "Lambiczoon", "opening_hours": "Mo-Su 18:30-2:00, Sa 12:30-2:00"}}, {"type": "Feature", "id": 3813651277, "geometry": {"type": "Point", "coordinates": [9.1448249, 45.4452238]}, "properties": {"addr:city": "Milano", "addr:housenumber": "53", "addr:street": "Via Lodovico il Moro", "amenity": "pub", "contact:email": "gurupubmilano@gmail.com", "name": "Guru Pub", "opening_hours": "Mo-Su 19:30-02:00", "smoking": "outside", "source": "survey", "website": "gurupubmilano.com"}}, {"type": "Feature", "id": 3976146298, "geometry": {"type": "Point", "coordinates": [9.1847285, 45.4914095]}, "properties": {"addr:city": "Milano", "addr:country": "IT", "addr:housenumber": "3", "addr:postcode": "20159", "addr:street": "Via Alserio", "amenity": "pub", "name": "Zhizun Pub"}}, {"type": "Feature", "id": 4026674089, "geometry": {"type": "Point", "coordinates": [9.2079204, 45.4577567]}, "properties": {"addr:city": "Milano", "addr:housenumber": "12", "addr:postcode": "20135", "addr:street": "Via Andrea Maffei", "amenity": "pub", "name": "Prog"}}, {"type": "Feature", "id": 4031499530, "geometry": {"type": "Point", "coordinates": [9.202606, 45.456213]}, "properties": {"amenity": "pub", "name": "Mind the GAP"}}, {"type": "Feature", "id": 4111425391, "geometry": {"type": "Point", "coordinates": [9.1807356, 45.4578194]}, "properties": {"amenity": "pub", "name": "Ralph's"}}, {"type": "Feature", "id": 4228804762, "geometry": {"type": "Point", "coordinates": [9.2094733, 45.4576105]}, "properties": {"addr:city": "Milano", "addr:housenumber": "23", "addr:postcode": "20135", "addr:street": "Via Antonio Fogazzaro", "amenity": "pub", "email": "milano@birreriespiller.it", "name": "Birreria Spiller", "opening_hours": "Mo-Th 12:00-14:30,18:00-00:00, Fr 12:00-14:30,18:00-02:00, Sa 18:00-02:00, Su 12:00-15:00,18:00-00:00", "phone": "+39 02 551 4532", "website": "http://www.spillerbirrerie.it/milano/"}}, {"type": "Feature", "id": 4243123595, "geometry": {"type": "Point", "coordinates": [9.2105485, 45.4446317]}, "properties": {"addr:city": "Milano", "addr:housenumber": "7", "addr:postcode": "20139", "addr:street": "Via Brembo", "amenity": "pub", "email": "info@thewhiteflag.it", "name": "The White Flag", "opening_hours": "Mo-Su 17:30-02:00", "outdoor_seating": "no", "phone": "+39 340 176 7631", "smoking": "outside", "toilets:wheelchair": "no", "website": "http://www.thewhiteflag.it", "wheelchair": "limited"}}, {"type": "Feature", "id": 4303400472, "geometry": {"type": "Point", "coordinates": [9.1853897, 45.4620417]}, "properties": {"addr:city": "Milano", "addr:housenumber": "5", "addr:postcode": "20123", "addr:street": "Via Valpetrosa", "amenity": "pub", "cuisine": "burger", "food": "yes", "name": "The English Football Pub", "opening_hours": "Mo-Fr 12:00-15:00,17:00-02:00; Sa 13:00-02:00; Su 15:00-00:00", "phone": "+39 02 864464"}}, {"type": "Feature", "id": 4318412829, "geometry": {"type": "Point", "coordinates": [9.1768673, 45.445785]}, "properties": {"amenity": "pub", "name": "Sacrestia"}}, {"type": "Feature", "id": 4318773483, "geometry": {"type": "Point", "coordinates": [9.149288, 45.4585878]}, "properties": {"addr:city": "Milano", "addr:housenumber": "7", "addr:street": "Piazzale Tripoli", "amenity": "pub", "contact:facebook": "https://www.facebook.com/Cambusa-20-803592193018648/", "contact:foursquare": "https://it.foursquare.com/v/cambusa-20/4fe0ed38e4b0604389108c87", "contact:phone": "+39 02 48951361", "contact:tripadvisor": "https://www.tripadvisor.it/Restaurant_Review-g187849-d7706883-Reviews-Cambusa_2_0-Milan_Lombardy.html", "contact:yelp": "https://www.yelp.it/biz/cambusa-2-0-milano", "name": "Cambusa 2.0", "operator": "Rustrad Due SrL", "ref:vatin": "IT06818280965", "smoking": "outside"}}, {"type": "Feature", "id": 4361682690, "geometry": {"type": "Point", "coordinates": [9.1734324, 45.4439991]}, "properties": {"amenity": "pub"}}, {"type": "Feature", "id": 4400710065, "geometry": {"type": "Point", "coordinates": [9.169909, 45.4561919]}, "properties": {"amenity": "pub", "name": "Birreria Al panino 900"}}, {"type": "Feature", "id": 4449004403, "geometry": {"type": "Point", "coordinates": [9.1934014, 45.4801903]}, "properties": {"amenity": "pub", "brewery": "various", "email": "info@thefriendspubmilano.it", "internet_access": "wlan", "internet_access:fee": "customers", "name": "The Friends", "opening_hours": "Mo-Sa 12:00-02:00, Su 18:00-02:00", "phone": "+39 02 2900 5315", "website": "https://www.thefriendspubmilano.it"}}, {"type": "Feature", "id": 4526133386, "geometry": {"type": "Point", "coordinates": [9.2460207, 45.4706518]}, "properties": {"addr:city": "Milano", "addr:housenumber": "56", "addr:postcode": "20134", "addr:street": "Via Tucidide", "amenity": "pub", "name": "Impronta Birraia", "opening_hours": "Mo-Fr 12:00-15:00,18:00-24:00; Sa 18:00-02:00; Su 12:00-24:00", "website": "http://www.improntabirraia.it/"}}, {"type": "Feature", "id": 4537487029, "geometry": {"type": "Point", "coordinates": [9.1764585, 45.4657555]}, "properties": {"addr:city": "Milano", "addr:country": "IT", "addr:housenumber": "1", "addr:postcode": "20123", "addr:street": "Via Terraggio", "amenity": "pub", "name": "Ai Tre Morsi"}}, {"type": "Feature", "id": 4558507269, "geometry": {"type": "Point", "coordinates": [9.1434607, 45.4935031]}, "properties": {"addr:city": "Milano", "addr:housenumber": "89", "addr:street": "Viale Certosa", "amenity": "pub", "description": "Irish Pub", "name": "Black Bull", "phone": "+39 02 33003073", "ref:vatin": "IT07395510964"}}, {"type": "Feature", "id": 4617967833, "geometry": {"type": "Point", "coordinates": [9.1776717, 45.4777017]}, "properties": {"addr:city": "Milano", "addr:postcode": "20154", "amenity": "pub", "name": "Caf\u00e9 Etniko", "outdoor_seating": "no", "smoking": "outside", "wheelchair": "no"}}, {"type": "Feature", "id": 4640831794, "geometry": {"type": "Point", "coordinates": [9.170259, 45.4810185]}, "properties": {"addr:city": "Milano", "addr:country": "IT", "addr:housenumber": "64", "addr:postcode": "20154", "addr:street": "Via Paolo Sarpi", "amenity": "pub", "name": "Birrificio artigianale La Buttiga"}}, {"type": "Feature", "id": 4708357239, "geometry": {"type": "Point", "coordinates": [9.2037822, 45.4903659]}, "properties": {"addr:city": "Milano", "addr:housenumber": "14", "addr:postcode": "20125", "addr:street": "Via Giovanni Schiaparelli", "amenity": "pub", "currency:XBT": "yes", "name": "Nik's & Co", "opening_hours": "Mo-Sa 07:00-02:00", "payment:bitcoin": "yes", "payment:bitcoin:operator": "inbitcoin.it", "website": "http://niksandco.it/"}}, {"type": "Feature", "id": 4770096721, "geometry": {"type": "Point", "coordinates": [9.1756177, 45.4527235]}, "properties": {"addr:city": "Milano", "addr:housenumber": "3", "addr:postcode": "20144", "addr:street": "Via Vigevano", "amenity": "pub", "name": "Cape Town Cafe", "opening_hours": "Mo-Su 18:00-02:00", "phone": "+39 02 89403053", "ref:vatin": "IT12840810159", "website": "http://capetowncafe.it"}}, {"type": "Feature", "id": 4916936129, "geometry": {"type": "Point", "coordinates": [9.1820534, 45.4520993]}, "properties": {"addr:city": "Milano", "addr:housenumber": "4", "addr:street": "Viale Col di Lana", "amenity": "pub", "contact:phone": "+39 02 8373335", "name": "Hernry's Caf\u00e8", "phone": "+39 02 837 3335", "ref:vatin": "IT02634250159"}}, {"type": "Feature", "id": 4949740193, "geometry": {"type": "Point", "coordinates": [9.1845842, 45.4382102]}, "properties": {"addr:city": "Milano", "addr:housenumber": "14", "addr:postcode": "20141", "addr:street": "Via privata Sant'Ampellio", "amenity": "pub", "contact:facebook": "https://www.facebook.com/LaBirrofila", "name": "La Birrofila", "phone": "+39 02 3672 3336", "website": "http://labirrofila.com"}}, {"type": "Feature", "id": 4985228946, "geometry": {"type": "Point", "coordinates": [9.1935316, 45.4984325]}, "properties": {"addr:city": "Milano", "addr:country": "IT", "addr:housenumber": "5", "addr:postcode": "20159", "addr:street": "Largo Vulci", "amenity": "pub", "name": "Birreria Okey"}}, {"type": "Feature", "id": 4985229451, "geometry": {"type": "Point", "coordinates": [9.1922736, 45.4965543]}, "properties": {"addr:city": "Milano", "addr:country": "IT", "addr:housenumber": "2", "addr:postcode": "20159", "addr:street": "Via Gioacchino Murat", "alt_name": "La Miniera", "amenity": "pub", "email": "info@bedahouse.it", "name": "Beda House", "phone": "+39 02 603282", "website": "http://www.bedahouse.it/"}}, {"type": "Feature", "id": 5122368869, "geometry": {"type": "Point", "coordinates": [9.2006239, 45.5111924]}, "properties": {"amenity": "pub", "name": "Sporting Pub"}}, {"type": "Feature", "id": 5154117623, "geometry": {"type": "Point", "coordinates": [9.2052687, 45.4480409]}, "properties": {"amenity": "pub", "name": "Bere Buona Birra", "opening_hours": "Mo-Fr 12:00-22:00; Sa,Su 10:00-22:00", "phone": "+39 02 87394371", "website": "http://www.berebuonabirra.com"}}, {"type": "Feature", "id": 5194531666, "geometry": {"type": "Point", "coordinates": [9.1675973, 45.4814927]}, "properties": {"addr:city": "Milano", "addr:country": "IT", "addr:housenumber": "61", "addr:postcode": "20154", "addr:street": "Via Giulio Cesare Procaccini", "alt_name": "FourFourTwo Sports Pub", "amenity": "pub", "name": "442 Sports Pub", "phone": "+39 02 39448023", "website": "https://www.fourfourtwo.it/"}}, {"type": "Feature", "id": 5195784839, "geometry": {"type": "Point", "coordinates": [9.1892575, 45.5405486]}, "properties": {"addr:city": "Bresso", "addr:housenumber": "18", "addr:postcode": "20091", "addr:street": "Via Vittorio Veneto", "amenity": "pub", "name": "Square"}}, {"type": "Feature", "id": 5204024186, "geometry": {"type": "Point", "coordinates": [9.1937963, 45.5336726]}, "properties": {"amenity": "pub"}}, {"type": "Feature", "id": 5204108789, "geometry": {"type": "Point", "coordinates": [9.1942523, 45.5317335]}, "properties": {"amenity": "pub", "name": "Tir Na Nog"}}, {"type": "Feature", "id": 5234407014, "geometry": {"type": "Point", "coordinates": [9.2346208, 45.4839644]}, "properties": {"addr:city": "Milano", "addr:housenumber": "66", "addr:postcode": "20131", "addr:street": "Via Giovanni Pacini", "addr:unit": "Via", "amenity": "pub", "brewery": "yes", "email": "info@birrificiobelgrano.com", "name": "Birrificio Belgrano", "ref:vatin": "IT08844600968", "smoking": "no", "website": "https://www.birrificiobelgrano.com"}}, {"type": "Feature", "id": 5336318126, "geometry": {"type": "Point", "coordinates": [9.1602285, 45.4522663]}, "properties": {"addr:housenumber": "30", "addr:street": "Via Enrico Stendhal", "amenity": "pub", "email": "info@beergallery.it", "level": "0", "name": "Beer Gallery", "phone": "+39 84345136", "shop": "pastry", "website": "http://www.beergallery.it"}}, {"type": "Feature", "id": 5384543215, "geometry": {"type": "Point", "coordinates": [9.1553057, 45.45509]}, "properties": {"amenity": "pub", "name": "Brew Pub Yankee", "toilets": "yes", "toilets:wheelchair": "yes", "wheelchair": "yes"}}, {"type": "Feature", "id": 5450827938, "geometry": {"type": "Point", "coordinates": [9.1722295, 45.4532032]}, "properties": {"addr:city": "Milano", "addr:country": "IT", "addr:housenumber": "20", "addr:postcode": "20144", "addr:street": "Via Vigevano", "amenity": "pub", "email": "ptagenova@themeatballfamily.com", "name": "Meatball Family", "opening_hours": "Mo-Su 12:00-24:00", "phone": "+39 02 45471809", "website": "http://www.themeatballfamily.com/it/"}}, {"type": "Feature", "id": 5484148887, "geometry": {"type": "Point", "coordinates": [9.2256001, 45.5328567]}, "properties": {"addr:city": "Sesto San Giovanni", "addr:country": "IT", "addr:housenumber": "48", "addr:postcode": "20099", "addr:street": "Via 20 Settembre", "alt_name": "Al Quarantotto", "amenity": "pub", "name": "Al 48"}}, {"type": "Feature", "id": 5567294372, "geometry": {"type": "Point", "coordinates": [9.1745576, 45.4584882]}, "properties": {"addr:city": "Milano", "addr:country": "IT", "addr:housenumber": "15", "addr:postcode": "20123", "addr:street": "Via San Vincenzo", "amenity": "pub", "email": "info@labucadisanvincenzo.com", "name": "La Buca di San Vincenzo", "opening_hours": "Mo-Fr 18:30-02:30; Sa,Su 21:30-02:30", "phone": "+39 02 89415964", "website": "http://www.labucadisanvincenzo.com/"}}, {"type": "Feature", "id": 5595438021, "geometry": {"type": "Point", "coordinates": [9.2468138, 45.4846273]}, "properties": {"addr:street": "Via Giovanni Ventura", "amenity": "pub", "name": "east market milano"}}, {"type": "Feature", "id": 5690450190, "geometry": {"type": "Point", "coordinates": [9.2028058, 45.4791943]}, "properties": {"amenity": "pub", "brewery": "yes", "name": "Pav\u00e8 - Birra"}}, {"type": "Feature", "id": 5708724310, "geometry": {"type": "Point", "coordinates": [9.1932558, 45.450733]}, "properties": {"amenity": "pub", "name": "Barbruto"}}, {"type": "Feature", "id": 5774917700, "geometry": {"type": "Point", "coordinates": [9.1365293, 45.5394353]}, "properties": {"addr:city": "Novate Milanese", "addr:housenumber": "9", "addr:postcode": "20026", "addr:street": "Piazza della Pace", "amenity": "pub", "name": "Il Mago di Oz", "outdoor_seating": "yes", "phone": "+39 340 401 52 54", "website": "https://www.facebook.com/ilmagonovate/"}}, {"type": "Feature", "id": 5798824006, "geometry": {"type": "Point", "coordinates": [9.2134279, 45.4542339]}, "properties": {"amenity": "pub", "name": "Bar 46"}}, {"type": "Feature", "id": 5798824019, "geometry": {"type": "Point", "coordinates": [9.1929293, 45.4583057]}, "properties": {"amenity": "pub", "name": "Il Piccolo Bistro"}}, {"type": "Feature", "id": 5798824057, "geometry": {"type": "Point", "coordinates": [9.2124913, 45.453058]}, "properties": {"amenity": "pub", "name": "Stranobar"}}, {"type": "Feature", "id": 5800748798, "geometry": {"type": "Point", "coordinates": [9.2008987, 45.4723359]}, "properties": {"amenity": "pub"}}, {"type": "Feature", "id": 5892421069, "geometry": {"type": "Point", "coordinates": [9.1463299, 45.4402953]}, "properties": {"amenity": "pub", "name": "Ittolitos"}}, {"type": "Feature", "id": 6138662451, "geometry": {"type": "Point", "coordinates": [9.2328474, 45.5296174]}, "properties": {"addr:city": "Sesto San Giovanni", "addr:country": "IT", "addr:housenumber": "100", "addr:postcode": "20099", "addr:street": "Via Felice Cavallotti", "amenity": "pub", "name": "Molly Malone"}}, {"type": "Feature", "id": 6277563909, "geometry": {"type": "Point", "coordinates": [9.3057401, 45.4739416]}, "properties": {"amenity": "pub", "name": "The Grey Cat Pub"}}, {"type": "Feature", "id": 6293216720, "geometry": {"type": "Point", "coordinates": [9.2246976, 45.5062384]}, "properties": {"addr:city": "Milano", "addr:housenumber": "14", "addr:postcode": "20128", "addr:street": "Via Aristotele", "amenity": "pub", "brewery": "yes", "name": "John Barleycorn", "smoking": "no"}}, {"type": "Feature", "id": 6422056060, "geometry": {"type": "Point", "coordinates": [9.154891, 45.4784141]}, "properties": {"amenity": "pub", "name": "Brooklyn pub"}}, {"type": "Feature", "id": 6522050103, "geometry": {"type": "Point", "coordinates": [9.152231, 45.4440412]}, "properties": {"addr:city": "Milano", "addr:housenumber": "18", "addr:postcode": "20143", "addr:street": "Via Giacomo Watt", "amenity": "pub", "name": "Octopus"}}, {"type": "Feature", "id": 6539942450, "geometry": {"type": "Point", "coordinates": [9.1873664, 45.4889694]}, "properties": {"addr:street": "Via Antonio Pollaiuolo", "amenity": "pub", "brewery": "yes", "microbrewery": "no", "name": "3/4"}}, {"type": "Feature", "id": 6539942453, "geometry": {"type": "Point", "coordinates": [9.1892051, 45.4891069]}, "properties": {"amenity": "pub", "brewery": "yes", "microbrewery": "yes", "name": "BeerShow"}}, {"type": "Feature", "id": 59590846, "geometry": {"type": "Point", "coordinates": [9.1892051, 45.4891069]}, "properties": {"addr:housenumber": "31", "addr:street": "Viale Toscana", "amenity": "pub", "building": "yes", "contact:website": "https://www.santeria.milano.it", "email": "hello@santeriasocial.club", "name": "Santeria Social Club", "opening_hours": "Su-Mo 11:00-01:00, Tu-Th 11:00-02:00, Fr-Sa 11:00-03:00", "phone": "+39 02 221 993 81", "start_date": "2015-11-09"}}, {"type": "Feature", "id": 304261292, "geometry": {"type": "Point", "coordinates": [9.1892051, 45.4891069]}, "properties": {"addr:housenumber": "83", "addr:street": "Via Barnaba Oriani", "amenity": "pub", "building": "yes", "name": "Colorado Pub"}}, {"type": "Feature", "id": 322686770, "geometry": {"type": "Point", "coordinates": [9.1892051, 45.4891069]}, "properties": {"addr:city": "Milano", "addr:country": "IT", "addr:housenumber": "16", "addr:postcode": "20157", "addr:street": "Via privata Venezia Giulia", "amenity": "pub", "building": "yes", "name": "Castle Rock Caf\u00e8"}}, {"type": "Feature", "id": 335185396, "geometry": {"type": "Point", "coordinates": [9.1892051, 45.4891069]}, "properties": {"addr:housenumber": "20", "addr:street": "Via Conchetta", "alt_name": "Sacrestia Farmacia Alcolica", "amenity": "pub", "contact:email": "sacrestia@gmail.com", "contact:mobile": "+39 339 4179159", "contact:phone": "+39 02 89454813", "name": "Sacrestia", "website": "http://sacrestia.com/"}}, {"type": "Feature", "id": 342789165, "geometry": {"type": "Point", "coordinates": [9.1892051, 45.4891069]}, "properties": {"addr:city": "Milano", "addr:housenumber": "44", "addr:street": "Via Luigi Bertelli", "amenity": "pub", "building": "yes", "name": "Cascina Martesana", "opening_hours": "Aug: Mo-Fr 18:00-01:00, Aug: Sa,Su 11:00-01:00", "outdoor_seating": "yes", "phone": "+39 389 58 20 695", "smoking": "outside", "website": "http://www.cascinamartesana.com/", "wheelchair": "yes"}}, {"type": "Feature", "id": 410745325, "geometry": {"type": "Point", "coordinates": [9.1892051, 45.4891069]}, "properties": {"amenity": "pub", "building": "yes", "building:levels": "1", "name": "La Chiesetta", "website": "http://www.lachiesetta.it"}}, {"type": "Feature", "id": 496611170, "geometry": {"type": "Point", "coordinates": [9.1892051, 45.4891069]}, "properties": {"addr:city": "Milano", "addr:housenumber": "3", "addr:postcode": "20158", "addr:street": "Via Cevedale", "amenity": "pub", "building": "yes", "contact:facebook": "https://www.facebook.com/birrificiolaribalta/", "email": "info@birrificiolaribalta.com", "name": "Birrificio La Ribalta", "outdoor_seating": "yes", "phone": "+39 348 524 9651", "website": "https://www.birrificiolaribalta.com/"}}]}