{"type": "FeatureCollection", "features": [{"type": "Feature", "id": 428788468, "geometry": {"type": "Point", "coordinates": [9.1543136, 45.4549113]}, "properties": {"addr:city": "Milano", "addr:country": "IT", "addr:street": "Via Giorgio Washington", "amenity": "car_rental", "name": "Hertz", "operator": "Hertz"}}, {"type": "Feature", "id": 649222703, "geometry": {"type": "Point", "coordinates": [9.164506, 45.5457737]}, "properties": {"amenity": "car_rental", "operator": "Budget", "source": "survey"}}, {"type": "Feature", "id": 1748328310, "geometry": {"type": "Point", "coordinates": [9.2036156, 45.4515547]}, "properties": {"amenity": "car_rental"}}, {"type": "Feature", "id": 1806247178, "geometry": {"type": "Point", "coordinates": [9.1493727, 45.5223975]}, "properties": {"amenity": "car_rental", "name": "Hertz Novate"}}, {"type": "Feature", "id": 1901845015, "geometry": {"type": "Point", "coordinates": [9.1894766, 45.4622799]}, "properties": {"amenity": "car_rental", "name": "Avis"}}, {"type": "Feature", "id": 2250993023, "geometry": {"type": "Point", "coordinates": [9.1384683, 45.5023579]}, "properties": {"addr:housenumber": "137", "addr:street": "Viale Carlo Espinasse", "amenity": "car_rental", "name": "Europcar"}}, {"type": "Feature", "id": 2411513133, "geometry": {"type": "Point", "coordinates": [9.2079552, 45.4499539]}, "properties": {"amenity": "car_rental", "name": "Sixt"}}, {"type": "Feature", "id": 2416148112, "geometry": {"type": "Point", "coordinates": [9.1830902, 45.4808299]}, "properties": {"addr:city": "Milano", "addr:country": "IT", "addr:housenumber": "17", "addr:postcode": "20121", "addr:street": "Viale Francesco Crispi", "amenity": "car_rental", "comment": "noleggio auto e furgoni", "fax": "+39 02 65589623", "name": "Mi Rent", "phone": "+39 02 6555068", "website": "https://mi-rent.com/"}}, {"type": "Feature", "id": 2488621627, "geometry": {"type": "Point", "coordinates": [9.1877802, 45.4895065]}, "properties": {"addr:city": "Milano", "addr:housenumber": "8", "addr:postcode": "20159", "addr:street": "Via Antonio Pollaiuolo", "amenity": "car_rental"}}, {"type": "Feature", "id": 2550278873, "geometry": {"type": "Point", "coordinates": [9.2003229, 45.4860489]}, "properties": {"amenity": "car_rental", "name": "Europcar"}}, {"type": "Feature", "id": 2658180270, "geometry": {"type": "Point", "coordinates": [9.2937842, 45.4872649]}, "properties": {"amenity": "car_rental", "name": "Europcar", "operator": "Europcar"}}, {"type": "Feature", "id": 3371561426, "geometry": {"type": "Point", "coordinates": [9.1633641, 45.4468803]}, "properties": {"amenity": "car_rental", "name": "AVIS"}}, {"type": "Feature", "id": 3660335554, "geometry": {"type": "Point", "coordinates": [9.2010825, 45.4833391]}, "properties": {"amenity": "car_rental", "name": "Sixt"}}, {"type": "Feature", "id": 3758916382, "geometry": {"type": "Point", "coordinates": [9.1993285, 45.4838995]}, "properties": {"addr:city": "Milano", "addr:country": "IT", "addr:housenumber": "15", "addr:postcode": "20124", "addr:street": "Via Giovanni Battista Pirelli", "amenity": "car_rental", "name": "Locauto", "website": "https://www.locautorent.com/it/stazioni-di-noleggio.html?idart=MIC"}}, {"type": "Feature", "id": 3848620463, "geometry": {"type": "Point", "coordinates": [9.205552, 45.4842874]}, "properties": {"addr:city": "Milano", "addr:country": "IT", "addr:housenumber": "33", "addr:postcode": "20124", "addr:street": "Via Roberto Lepetit", "amenity": "car_rental", "name": "Joy Rent", "phone": "+39 02 67481337"}}, {"type": "Feature", "id": 3848621556, "geometry": {"type": "Point", "coordinates": [9.2013845, 45.4819641]}, "properties": {"addr:city": "Milano", "addr:country": "IT", "addr:housenumber": "10", "addr:postcode": "20124", "addr:street": "Via Alfredo Cappellini", "amenity": "car_rental", "name": "Hertz"}}, {"type": "Feature", "id": 3949540266, "geometry": {"type": "Point", "coordinates": [9.2378273, 45.5371558]}, "properties": {"addr:city": "Sesto San Giovanni", "addr:country": "IT", "addr:housenumber": "5", "addr:postcode": "20099", "addr:street": "Via Giorgio Enrico Falck", "amenity": "car_rental", "name": "Easy Rent"}}, {"type": "Feature", "id": 4447667909, "geometry": {"type": "Point", "coordinates": [9.2799797, 45.4617761]}, "properties": {"amenity": "car_rental", "brand": "Europcar", "description": "office", "name": "Europcar"}}, {"type": "Feature", "id": 4447667910, "geometry": {"type": "Point", "coordinates": [9.277935, 45.4623633]}, "properties": {"amenity": "car_rental", "brand": "Europcar", "name": "Europcar"}}, {"type": "Feature", "id": 4553785758, "geometry": {"type": "Point", "coordinates": [9.1788834, 45.4519685]}, "properties": {"amenity": "car_rental", "name": "Car2go"}}, {"type": "Feature", "id": 4846432640, "geometry": {"type": "Point", "coordinates": [9.1875732, 45.460428]}, "properties": {"addr:housenumber": "4", "addr:street": "Via Achille Mauri", "amenity": "car_rental", "brand": "Europcar"}}, {"type": "Feature", "id": 4889858521, "geometry": {"type": "Point", "coordinates": [9.2806515, 45.4673279]}, "properties": {"amenity": "car_rental", "name": "Park to air", "name:it": "Park to air"}}, {"type": "Feature", "id": 5142755438, "geometry": {"type": "Point", "coordinates": [9.1904471, 45.4609376]}, "properties": {"addr:city": "Milano", "addr:street": "Via Alberico Albricci", "amenity": "car_rental", "email": "transfersmilan@gmail.com", "name": "Car Hire with driver", "payment:bitcoin": "yes", "website": "https://transfersmilan.com/"}}, {"type": "Feature", "id": 5505927621, "geometry": {"type": "Point", "coordinates": [9.0929468, 45.5097821]}, "properties": {"amenity": "car_rental", "brand": "Arval", "name": "Arval"}}, {"type": "Feature", "id": 5536232813, "geometry": {"type": "Point", "coordinates": [9.2225346, 45.5312508]}, "properties": {"amenity": "car_rental", "name": "Marconi"}}, {"type": "Feature", "id": 5561708970, "geometry": {"type": "Point", "coordinates": [9.2213794, 45.5312315]}, "properties": {"amenity": "car_rental", "name": "Morini", "operator": "Morini spa", "website": "www.morinirent.com"}}, {"type": "Feature", "id": 5621920390, "geometry": {"type": "Point", "coordinates": [9.2241479, 45.5293313]}, "properties": {"amenity": "car_rental", "name": "Hertz", "operator": "Hertz"}}, {"type": "Feature", "id": 5650948621, "geometry": {"type": "Point", "coordinates": [9.1529676, 45.4901776]}, "properties": {"addr:housenumber": "27", "addr:postcode": "20155", "addr:street": "Via Giovanni Antonio Plana", "amenity": "car_rental", "name": "Hertz Milan Certosa", "opening_hours": "Mo-Sa 08:30-12:30, 14:00-19:00", "phone": "+390239258199", "website": "https://www.hertz.com/"}}, {"type": "Feature", "id": 5813461755, "geometry": {"type": "Point", "coordinates": [9.2765675, 45.462364]}, "properties": {"amenity": "car_rental", "name": "Sixt", "name:en": "Sixt Car Rental Linate"}}, {"type": "Feature", "id": 5892691724, "geometry": {"type": "Point", "coordinates": [9.087308, 45.5073451]}, "properties": {"addr:city": "Pero", "addr:country": "IT", "addr:housenumber": "53", "addr:postcode": "20016", "addr:street": "Via Olona", "amenity": "car_rental", "name": "Hertz"}}, {"type": "Feature", "id": 5938283681, "geometry": {"type": "Point", "coordinates": [9.1726613, 45.476902]}, "properties": {"amenity": "car_rental", "name": "San Giorgio"}}, {"type": "Feature", "id": 6100264753, "geometry": {"type": "Point", "coordinates": [9.2036306, 45.485585]}, "properties": {"amenity": "car_rental", "name": "sixt"}}, {"type": "Feature", "id": 6137560568, "geometry": {"type": "Point", "coordinates": [9.2753518, 45.4644036]}, "properties": {"addr:housenumber": "1", "addr:street": "Via Enzo Jannacci", "amenity": "car_rental", "name": "B-Rent"}}, {"type": "Feature", "id": 6528398228, "geometry": {"type": "Point", "coordinates": [9.2779834, 45.4623601]}, "properties": {"amenity": "car_rental", "name": "Hertz", "name:en": "Hertz Car Rental Linate"}}, {"type": "Feature", "id": 428788468, "geometry": {"type": "Point", "coordinates": [9.1543136, 45.4549113]}, "properties": {"addr:city": "Milano", "addr:country": "IT", "addr:street": "Via Giorgio Washington", "amenity": "car_rental", "name": "Hertz", "operator": "Hertz"}}, {"type": "Feature", "id": 649222703, "geometry": {"type": "Point", "coordinates": [9.164506, 45.5457737]}, "properties": {"amenity": "car_rental", "operator": "Budget", "source": "survey"}}, {"type": "Feature", "id": 1748328310, "geometry": {"type": "Point", "coordinates": [9.2036156, 45.4515547]}, "properties": {"amenity": "car_rental"}}, {"type": "Feature", "id": 1806247178, "geometry": {"type": "Point", "coordinates": [9.1493727, 45.5223975]}, "properties": {"amenity": "car_rental", "name": "Hertz Novate"}}, {"type": "Feature", "id": 1901845015, "geometry": {"type": "Point", "coordinates": [9.1894766, 45.4622799]}, "properties": {"amenity": "car_rental", "name": "Avis"}}, {"type": "Feature", "id": 2250993023, "geometry": {"type": "Point", "coordinates": [9.1384683, 45.5023579]}, "properties": {"addr:housenumber": "137", "addr:street": "Viale Carlo Espinasse", "amenity": "car_rental", "name": "Europcar"}}, {"type": "Feature", "id": 2411513133, "geometry": {"type": "Point", "coordinates": [9.2079552, 45.4499539]}, "properties": {"amenity": "car_rental", "name": "Sixt"}}, {"type": "Feature", "id": 2416148112, "geometry": {"type": "Point", "coordinates": [9.1830902, 45.4808299]}, "properties": {"addr:city": "Milano", "addr:country": "IT", "addr:housenumber": "17", "addr:postcode": "20121", "addr:street": "Viale Francesco Crispi", "amenity": "car_rental", "comment": "noleggio auto e furgoni", "fax": "+39 02 65589623", "name": "Mi Rent", "phone": "+39 02 6555068", "website": "https://mi-rent.com/"}}, {"type": "Feature", "id": 2488621627, "geometry": {"type": "Point", "coordinates": [9.1877802, 45.4895065]}, "properties": {"addr:city": "Milano", "addr:housenumber": "8", "addr:postcode": "20159", "addr:street": "Via Antonio Pollaiuolo", "amenity": "car_rental"}}, {"type": "Feature", "id": 2550278873, "geometry": {"type": "Point", "coordinates": [9.2003229, 45.4860489]}, "properties": {"amenity": "car_rental", "name": "Europcar"}}, {"type": "Feature", "id": 2658180270, "geometry": {"type": "Point", "coordinates": [9.2937842, 45.4872649]}, "properties": {"amenity": "car_rental", "name": "Europcar", "operator": "Europcar"}}, {"type": "Feature", "id": 3371561426, "geometry": {"type": "Point", "coordinates": [9.1633641, 45.4468803]}, "properties": {"amenity": "car_rental", "name": "AVIS"}}, {"type": "Feature", "id": 3660335554, "geometry": {"type": "Point", "coordinates": [9.2010825, 45.4833391]}, "properties": {"amenity": "car_rental", "name": "Sixt"}}, {"type": "Feature", "id": 3758916382, "geometry": {"type": "Point", "coordinates": [9.1993285, 45.4838995]}, "properties": {"addr:city": "Milano", "addr:country": "IT", "addr:housenumber": "15", "addr:postcode": "20124", "addr:street": "Via Giovanni Battista Pirelli", "amenity": "car_rental", "name": "Locauto", "website": "https://www.locautorent.com/it/stazioni-di-noleggio.html?idart=MIC"}}, {"type": "Feature", "id": 3848620463, "geometry": {"type": "Point", "coordinates": [9.205552, 45.4842874]}, "properties": {"addr:city": "Milano", "addr:country": "IT", "addr:housenumber": "33", "addr:postcode": "20124", "addr:street": "Via Roberto Lepetit", "amenity": "car_rental", "name": "Joy Rent", "phone": "+39 02 67481337"}}, {"type": "Feature", "id": 3848621556, "geometry": {"type": "Point", "coordinates": [9.2013845, 45.4819641]}, "properties": {"addr:city": "Milano", "addr:country": "IT", "addr:housenumber": "10", "addr:postcode": "20124", "addr:street": "Via Alfredo Cappellini", "amenity": "car_rental", "name": "Hertz"}}, {"type": "Feature", "id": 3949540266, "geometry": {"type": "Point", "coordinates": [9.2378273, 45.5371558]}, "properties": {"addr:city": "Sesto San Giovanni", "addr:country": "IT", "addr:housenumber": "5", "addr:postcode": "20099", "addr:street": "Via Giorgio Enrico Falck", "amenity": "car_rental", "name": "Easy Rent"}}, {"type": "Feature", "id": 4447667909, "geometry": {"type": "Point", "coordinates": [9.2799797, 45.4617761]}, "properties": {"amenity": "car_rental", "brand": "Europcar", "description": "office", "name": "Europcar"}}, {"type": "Feature", "id": 4447667910, "geometry": {"type": "Point", "coordinates": [9.277935, 45.4623633]}, "properties": {"amenity": "car_rental", "brand": "Europcar", "name": "Europcar"}}, {"type": "Feature", "id": 4553785758, "geometry": {"type": "Point", "coordinates": [9.1788834, 45.4519685]}, "properties": {"amenity": "car_rental", "name": "Car2go"}}, {"type": "Feature", "id": 4846432640, "geometry": {"type": "Point", "coordinates": [9.1875732, 45.460428]}, "properties": {"addr:housenumber": "4", "addr:street": "Via Achille Mauri", "amenity": "car_rental", "brand": "Europcar"}}, {"type": "Feature", "id": 4889858521, "geometry": {"type": "Point", "coordinates": [9.2806515, 45.4673279]}, "properties": {"amenity": "car_rental", "name": "Park to air", "name:it": "Park to air"}}, {"type": "Feature", "id": 5142755438, "geometry": {"type": "Point", "coordinates": [9.1904471, 45.4609376]}, "properties": {"addr:city": "Milano", "addr:street": "Via Alberico Albricci", "amenity": "car_rental", "email": "transfersmilan@gmail.com", "name": "Car Hire with driver", "payment:bitcoin": "yes", "website": "https://transfersmilan.com/"}}, {"type": "Feature", "id": 5505927621, "geometry": {"type": "Point", "coordinates": [9.0929468, 45.5097821]}, "properties": {"amenity": "car_rental", "brand": "Arval", "name": "Arval"}}, {"type": "Feature", "id": 5536232813, "geometry": {"type": "Point", "coordinates": [9.2225346, 45.5312508]}, "properties": {"amenity": "car_rental", "name": "Marconi"}}, {"type": "Feature", "id": 5561708970, "geometry": {"type": "Point", "coordinates": [9.2213794, 45.5312315]}, "properties": {"amenity": "car_rental", "name": "Morini", "operator": "Morini spa", "website": "www.morinirent.com"}}, {"type": "Feature", "id": 5621920390, "geometry": {"type": "Point", "coordinates": [9.2241479, 45.5293313]}, "properties": {"amenity": "car_rental", "name": "Hertz", "operator": "Hertz"}}, {"type": "Feature", "id": 5650948621, "geometry": {"type": "Point", "coordinates": [9.1529676, 45.4901776]}, "properties": {"addr:housenumber": "27", "addr:postcode": "20155", "addr:street": "Via Giovanni Antonio Plana", "amenity": "car_rental", "name": "Hertz Milan Certosa", "opening_hours": "Mo-Sa 08:30-12:30, 14:00-19:00", "phone": "+390239258199", "website": "https://www.hertz.com/"}}, {"type": "Feature", "id": 5813461755, "geometry": {"type": "Point", "coordinates": [9.2765675, 45.462364]}, "properties": {"amenity": "car_rental", "name": "Sixt", "name:en": "Sixt Car Rental Linate"}}, {"type": "Feature", "id": 5892691724, "geometry": {"type": "Point", "coordinates": [9.087308, 45.5073451]}, "properties": {"addr:city": "Pero", "addr:country": "IT", "addr:housenumber": "53", "addr:postcode": "20016", "addr:street": "Via Olona", "amenity": "car_rental", "name": "Hertz"}}, {"type": "Feature", "id": 5938283681, "geometry": {"type": "Point", "coordinates": [9.1726613, 45.476902]}, "properties": {"amenity": "car_rental", "name": "San Giorgio"}}, {"type": "Feature", "id": 6100264753, "geometry": {"type": "Point", "coordinates": [9.2036306, 45.485585]}, "properties": {"amenity": "car_rental", "name": "sixt"}}, {"type": "Feature", "id": 6137560568, "geometry": {"type": "Point", "coordinates": [9.2753518, 45.4644036]}, "properties": {"addr:housenumber": "1", "addr:street": "Via Enzo Jannacci", "amenity": "car_rental", "name": "B-Rent"}}, {"type": "Feature", "id": 6528398228, "geometry": {"type": "Point", "coordinates": [9.2779834, 45.4623601]}, "properties": {"amenity": "car_rental", "name": "Hertz", "name:en": "Hertz Car Rental Linate"}}]}